id,name,Primary Term,Icon,Description,Sprache,Appointment Needed,Children Welcome,Volunteer,Accessible by public transport,Telephone,Email,Free entry,Entry cost,Web Address,Wheelchair Accessible,Street location,Stadt,Bundesland,Postal Code,latitude,longitude
47570,Überdurchschnittliche Feinstaub & Stickstoffdioxidbelastung,Air Pollution,"Luftverschmutzung, Gesundheitsgefahr, Lärmbelästigung","Die Durchschnittlichen Mittelwerte an Feinstaub und Stickstoffdioxidbelastung sind hier deutlich höher als in den restlichen Straßen. 
The of grade of air pollution with particulate matter and nitrogen dioxide are  above the ordinary level.",,Appointment not needed,Not child friendly,No Volunteer Opportunities,Not accessible by public transport,,,Freier Eintritt,,,Not accessible,,,,,48.099084,11.585283
47571,Überdurchschnittliche Feinstaub & Stickstoffdioxidbelastung,Air Pollution,"Luftverschmutzung, Lärmbelästigung","Die Durchschnittlichen Mittelwerte an Feinstaub und Stickstoffdioxidbelastung sind hier deutlich höher als in den restlichen Straßen. 
The of grade of air pollution with particulate matter and nitrogen dioxide are  above the ordinary level.",,Appointment not needed,Not child friendly,No Volunteer Opportunities,Not accessible by public transport,,,Freier Eintritt,,,Not accessible,,,,,48.139655,11.535144
47556,STATTAUTO Station,Alternative Fuel/Vehicles,"Alternativer Kraftstoff, Fair Trade",Station to pick up a public car.,,Appointment not needed,Not child friendly,No Volunteer Opportunities,Not accessible by public transport,,,Not free,you need a card to rent a car,,Not accessible,,,,,48.151638,11.561990
47691,STATTAUTO Station,Alternative Fuel/Vehicles,"Alternativer Kraftstoff, Park 'N Ride","Theresienstraße 81
80333 München",,Termin nötig,Not child friendly,No Volunteer Opportunities,Anschluss zu öffentlichen Verkehrsmitteln,,,Freier Eintritt,,,Not accessible,,,,,48.151539,11.562878
47692,STATTAUTO Station,Alternative Fuel/Vehicles,Alternativer Kraftstoff,"Seidlstraße 8
80335 München ‎ 
http://www.stattauto-muenchen.de/",,Appointment not needed,Not child friendly,No Volunteer Opportunities,Not accessible by public transport,,,Freier Eintritt,,,Not accessible,,,,,48.144030,11.558136
47693,STATTAUTO Station,Alternative Fuel/Vehicles,Alternativer Kraftstoff,"Gaiglstraße 10
80335 München ‎",,Appointment not needed,Not child friendly,No Volunteer Opportunities,Not accessible by public transport,,,Freier Eintritt,,,Not accessible,,,,,48.152028,11.551570
47694,STATTAUTO Station,Alternative Fuel/Vehicles,Alternativer Kraftstoff,"Kaulbachstraße 31
80539 München ‎ 
http://www.stattauto-muenchen.de/",,Appointment not needed,Not child friendly,No Volunteer Opportunities,Not accessible by public transport,,,Freier Eintritt,,,Not accessible,,,,,48.148293,11.584057
47695,STATTAUTO Station,Alternative Fuel/Vehicles,Alternativer Kraftstoff,"Nordendstrasse 38
http://www.stattauto-muenchen.de/",,Appointment not needed,Not child friendly,No Volunteer Opportunities,Not accessible by public transport,,,Freier Eintritt,,,Not accessible,,,,,48.156038,11.575538
47697,STATTAUTO Station,Alternative Fuel/Vehicles,Alternativer Kraftstoff,"Hiltenspergerstraße 55
80796 München ‎ 
http://www.stattauto-muenchen.de/",,Appointment not needed,Not child friendly,No Volunteer Opportunities,Not accessible by public transport,,,Freier Eintritt,,,Not accessible,,,,,48.162071,11.567983
47698,STATTAUTO Station,Alternative Fuel/Vehicles,Alternativer Kraftstoff,"Kellerstraße 10
81667 München
http://www.stattauto-muenchen.de/ ‎",,Appointment not needed,Not child friendly,No Volunteer Opportunities,Not accessible by public transport,,,Freier Eintritt,,,Not accessible,,,,,48.130223,11.596076
47699,Stadtteilauto Kolumbusplatz,Alternative Fuel/Vehicles,Alternativer Kraftstoff,"Kolumbusplatz 
http://www.stattauto-muenchen.de/",,Appointment not needed,Not child friendly,No Volunteer Opportunities,Not accessible by public transport,,,Freier Eintritt,,,Not accessible,,,,,48.119466,11.576807
47700,Stadtteilauto München,Alternative Fuel/Vehicles,Alternativer Kraftstoff,"Kontaktdaten:
Stadtteilauto München
Schumacherring 29
81737 München
Postfach 830 836
81708 München
http://www.stadtteilauto.de/
info@stadtteilauto.de
http://www.stadtteilauto.de/
Tel. 089 / 63 77 777
Fax 089 / 62 57 778",,Appointment not needed,Not child friendly,No Volunteer Opportunities,Not accessible by public transport,,,Freier Eintritt,,,Not accessible,,,,,48.099937,11.640626
51465,STATTAUTO München,Alternative Fuel/Vehicles,Alternativer Kraftstoff,"Kontaktdaten:
STATTAUTO München
Hans-Mielich-Str. 2
81543 München 
www.stattauto-muenchen.de 
info@stattauto-muenchen.de
Tel.: (089) 20 20 57 - 0
Fax.: (089) 20 20 57 57",,Appointment not needed,Not child friendly,No Volunteer Opportunities,Not accessible by public transport,,,Freier Eintritt,,,Not accessible,,,,,48.116270,11.569906
51466,Umwelt Taxi München,Alternative Fuel/Vehicles,Alternativer Kraftstoff,"Kontaktdaten:
TAXI Center Ostbahnhof GmbH
Haager Str. 7
81671 München
http://www.umwelt-taxi-muenchen.de/
post@taxi-ostbahnhof.de
Tel: (089) 448 44 44
Fax: (089) 448 88 78",,Appointment not needed,Not child friendly,No Volunteer Opportunities,Not accessible by public transport,,,Freier Eintritt,,,Not accessible,,,,,48.126615,11.609134
52813,SWM Ladestationen für Elektroautos,Alternative Fuel/Vehicles,Alternativer Kraftstoff,"Kontaktdaten:
SWM Ladestationen für Elektroautos
Stadtwerke München GmbH
Emmy-Noether-Straße 2
80992 München
http://www.swm.de/privatkunden/unternehmen/innovation/elektromobilitaet/...
Tel: 089/23 61-20 30",,Appointment not needed,Not child friendly,No Volunteer Opportunities,Not accessible by public transport,,,Freier Eintritt,,,Not accessible,,,,,48.171967,11.532941
52858,e-motors - Events und Projekte UG,Alternative Fuel/Vehicles,Alternativer Kraftstoff,"Kontaktdaten: 
e-motors – Events und Projekte UG
Schäftlarnstraße 10 / Kontorhaus 1
D-81371 München
www.e-motors-online.de
info@e-motors-online.de
Tel +49 (0)89 / 5 23 31 14
fax +49 (0)89 / 76 75 59 85",,Appointment not needed,Not child friendly,No Volunteer Opportunities,Not accessible by public transport,,,Freier Eintritt,,,Not accessible,,,,,48.116457,11.556523
51620,Gesundheitsladen München e.V.,Alternative Health Resource,Alternative Heilpraktiken,"Kontaktdaten:
Gesundheitsladen München e.V.
Informations- und Kommunikationszentrum
Waltherstr. 16a
80337 München
http://www.gl-m.de/
mail@gl-m.de",,Appointment not needed,Not child friendly,No Volunteer Opportunities,Not accessible by public transport,,,Freier Eintritt,,,Not accessible,,,,,48.128695,11.561820
52610,Platform,Art Spot,Kunst,"Kontaktdaten:
PLATFORM
Kistlerhofstraße 70  Haus 60  3. Stock
81379 München
http://www.platform-muenchen.de/
contact@platform-muenchen.de
Tel.: +49 89 324 90 090",,Appointment not needed,Not child friendly,No Volunteer Opportunities,Not accessible by public transport,,,Freier Eintritt,,,Not accessible,,,,,48.095289,11.524414
52607,little ART,Artisan/Art Studio,Kunsthandwerk,"little ART ist eine gemeinnützige Organisation zur Förderung der Kreativität von Kindern weltweit. Das Domizil von little ART ist  im Münchner Künstlerhaus, wo täglich kreative Workshops und Projekte durchgeführt werden.
Kontaktdaten:
little ART
Münchner Künstlerhaus
Lenbachplatz 8
80333 München
http://www.little-art.org/
e.janker@little-art.org
Tel.: +49 (0)89 – 288065-46",,Appointment not needed,Not child friendly,No Volunteer Opportunities,Not accessible by public transport,,,Freier Eintritt,,,Not accessible,,,,,48.139888,11.567893
51460,Erholungsflächenverein,Bicycle Path >,Fahrradweg >,"Kontaktdaten:
Verein zur Sicherstellung
überörtlicher Erholungsgebiete
in den Landkreisen um München e.V.
Kardinal-Döpfner-Straße 8 / II
80333 München
http://www.efv-muenchen.de/
geschaeftsstelle@efv-muenchen.de
Tel. (089) 53 77 87, 53 22 06
Fax (089) 53 55 08",,Appointment not needed,Not child friendly,No Volunteer Opportunities,Not accessible by public transport,,,Freier Eintritt,,,Not accessible,,,,,48.145252,11.577529
47676,Bike Kitchen,Bicycle Site,"Fahrräder & Service, Reparaturwerkstatt","im 8 below
Schuetzenstrasse 8",,Appointment not needed,Not child friendly,No Volunteer Opportunities,Not accessible by public transport,,,Freier Eintritt,,,Not accessible,,,,,48.140039,11.562620
47677,Allgemeiner Deutscher Fahrrad-Club Kreisverband München e.V.,Bicycle Site,Fahrräder & Service,"Kontaktdaten:
Allgemeiner Deutscher Fahrrad-Club (ADFC) Kreisverband München e.V.
Platenstraße 4
80336 München, Deutschland ‎ 
http://www.adfc-muenchen.de/
info@adfc-muenchen.de 
Tel. 089 - 77 34 29
Fax. 089 - 77 85 37",,Appointment not needed,Not child friendly,No Volunteer Opportunities,Not accessible by public transport,,,Freier Eintritt,,,Not accessible,,,,,48.128450,11.554531
51458,ADFC Bayern,Bicycle Site,Fahrräder & Service,"Kontaktdaten:
ADFC Bayern
Haus der bayerischen Landkreise
Kardinal-Döpfner-Str. 8
80333 München
http://www.adfc-bayern.de/
kontakt@adfc-bayern.de 
Tel.: 089 / 9090025-0
Fax: 089 / 9090025-25",,Appointment not needed,Not child friendly,No Volunteer Opportunities,Not accessible by public transport,,,Freier Eintritt,,,Not accessible,,,,,48.145240,11.577471
48806,NaturKunst & Spiel,Child Friendly Site,"Kulturstätte, Kinderfreundlicher Ort","Kontaktdaten:
NaturKunst und Spiel
Zieblandstr. 11
80799 München
Tel.: 089 - 271 25 18
info@naturkunstundspiel.de 
www.naturkunstundspiel.de",,Appointment not needed,Not child friendly,No Volunteer Opportunities,Not accessible by public transport,,,Freier Eintritt,,,Not accessible,,,,,48.160131,11.584396
51451,Jugendinformationszentrum München,Child Friendly Site,Kinderfreundlicher Ort,"Kontaktdaten:
Jugendinformationszentrum München
Herzogspitalstraße 24
-> Eingang: Herzog-Wilhelm-Straße
80331 München
http://www.jiz-muenchen.de/
info@jiz-muenchen.de
Tel: 089 - 550 521 50
Fax: 089 - 550 521 51",,Appointment not needed,Not child friendly,No Volunteer Opportunities,Not accessible by public transport,,,Freier Eintritt,,,Not accessible,,,,,48.138111,11.566428
52597,Camigolo GmbH,Child Friendly Site,"Umweltbildung, Öko-Tour/Wanderweg, Kinderfreundlicher Ort","Kontaktdaten:
Camigolo GmbH
Jahnstraße 3
82152 Krailling
http://www.camigolo.de/
info@camigolo.de
Tel.: 0151/ 533 969 35",,Appointment not needed,Not child friendly,No Volunteer Opportunities,Not accessible by public transport,,,Freier Eintritt,,,Not accessible,,,,,48.101642,11.420562
52621,Kinderstadtplan München,Child Friendly Site,Kinderfreundlicher Ort,"Kontaktdaten:
Kinderstadtplan München
Spiellandschaft Stadt
Albrechtstr. 37
80636 München
http://www.kids.muc.kobis.de/
http://www.kids.muc.kobis.de/start.htm
Tel. +49 (0)89 18 33 35
Fax: +49  (0)89 12799668",,Appointment not needed,Not child friendly,No Volunteer Opportunities,Not accessible by public transport,,,Freier Eintritt,,,Not accessible,,,,,48.153547,11.541696
51445,Regsam,Community Center,Gemeindezentrum,"Kontaktdaten:
Trägerverein für regionale soziale Arbeit e.V.
Geschäftsbereich REGSAM
Bayerstraße 77a, Rgb.
80335 München
www.regsam.net
info@regsam.net
Tel.:+49 89-189358-0
Fax: +49 89-189358-20",,Appointment not needed,Not child friendly,No Volunteer Opportunities,Not accessible by public transport,,,Freier Eintritt,,,Not accessible,,,,,48.138993,11.553149
51446,ZAK - Zusammen aktiv in Neuperlach Verein für Gemeinwesenarbeit,Community Center,Gemeindezentrum,"Kontaktdaten:
Zusammen aktiv in Neuperlach
Verein für Gemeinwesenarbeit
ZAK-Stadtteilbüro
Adenauerring 12
81737 München 
http://www.zak-neuperlach.de/
info@zak-neuperlach.de
Tel./Fax.: 089/6709840",,Appointment not needed,Not child friendly,No Volunteer Opportunities,Not accessible by public transport,,,Freier Eintritt,,,Not accessible,,,,,48.103699,11.638191
52618,Ackermannbogen e.V.,Community Center,"Öko Klub/Organisation, Gemeindezentrum","Kontaktdaten:
Ackermannbogen e.V.
Rosa-Aschenbrenner-Bogen 9
80797 München
http://www.ackermannbogen-ev.de/
vorstand@ackermannbogen-ev.de  
Tel.: +49 (0) 89 - 30 74 96 34
Fax: +49 (0) 89 - 30 74 96 36",,Appointment not needed,Not child friendly,No Volunteer Opportunities,Not accessible by public transport,,,Freier Eintritt,,,Not accessible,,,,,48.164858,11.558577
51625,urbane gärten münchen,Community Garden,Gemeindegarten,"Kontaktdaten
urbane gärten münchen
Verantwortlich:
Bürgerstiftung München
Klenzestraße 37,
80469 München
http://urbane-gaerten-muenchen.de/
info@urbane-gaerten-muenchen.de",,Appointment not needed,Not child friendly,No Volunteer Opportunities,Not accessible by public transport,,,Freier Eintritt,,,Not accessible,,,,,48.130815,11.574738
52601,die urbanauten,Cultural Performance,"Öffentlicher Platz, Theater","Kontaktdaten:
die urbanauten
Ickstattstr. 9
80469 München
http://www.die-urbanauten.de/
info@die-urbanauten.de
Fon: +49 (0)89 – 5 18 18 740",,Appointment not needed,Not child friendly,No Volunteer Opportunities,Not accessible by public transport,,,Freier Eintritt,,,Not accessible,,,,,48.128267,11.573072
47668,Glockenbachwerkstatt,Cultural Site,"Kulturstätte, Öko-Information, Ehrenamtliche Arbeit, Gemeindezentrum",email abwarten,,Appointment not needed,Kinder erwünscht,No Volunteer Opportunities,Anschluss zu öffentlichen Verkehrsmitteln,,,Freier Eintritt,,,Behindertengerecht,,,,,48.133523,11.573895
47669,Glockenbachwerkstatt,Cultural Site,"Kulturstätte, Öko-Information, Öko-Landwirtschaft/Permakultur, Kultureller Treffpunkt, Gemeindezentrum","Kontaktdaten:
Glockenbachwerkstatt e.V.
Blumenstraße 7
80331 München
http://www.glockenbachwerkstatt.de/
Tel.: +49 (0)89 26 88 38
Fax: +49 (0)89 2 60 64 34",,Appointment not needed,Kinder erwünscht,No Volunteer Opportunities,Anschluss zu öffentlichen Verkehrsmitteln,,,Freier Eintritt,,,Behindertengerecht,Blumenstrasse 7,Munich,,,48.133379,11.574250
51268,Climate Dance Project,Cultural Site,Kulturstätte,"Kontaktdaten:
Climate Dance Project
c/o Tapetenwechsel München
Brigitte Günther
Bauerstr. 27 a
80796 München
http://climate-dance.de/
climate-dance@gmx.de
Tel.: +49(0)89/ 28 70 10 57",,Appointment not needed,Not child friendly,No Volunteer Opportunities,Not accessible by public transport,,,Freier Eintritt,,,Not accessible,,,,,48.159978,11.569577
51269,Pädagogische Aktion / Spielen in der Stadt e.V.,Cultural Site,Kulturstätte,"Kontaktdaten:
Pädagogische Aktion/Spielen in der Stadt e. V.
Saarstraße 7
80797 München
http://www.spielen-in-der-stadt.de/
info@spielen-in-der-stadt.de
Tel.: +49 (0)89 / 52 300 695
Fax: +49 (0)89 / 52 300 696",,Appointment not needed,Not child friendly,No Volunteer Opportunities,Not accessible by public transport,,,Freier Eintritt,,,Not accessible,,,,,48.164389,11.560908
51449,Frauenakademie München e.V.,Cultural Site,"Kulturstätte, Signifikante Organisation/Dienststelle","Kontaktdaten:
Frauenakademie München e.V.
Baaderstr. 3, 3. OG
80469 München
www.frauenakademie.de
info@frauenakademie.de
Tel: 089-721 188 1
Fax: 089-721 383 0",,Appointment not needed,Not child friendly,No Volunteer Opportunities,Not accessible by public transport,,,Freier Eintritt,,,Not accessible,,,,,48.133142,11.581202
52324,Amerikahaus,Cultural Site,Kulturstätte,"Kontaktdaten:
Stiftung Bayerisches Amerikahaus gGmbH –
Bavarian Center for Transatlantic Relations
Karolinenplatz 3
80333 München
http://www.amerikahaus.de/
info@amerikahaus.de
Telefon: 089 55 25 37 0
Telefax: 089 55 25 37 37",,Appointment not needed,Not child friendly,No Volunteer Opportunities,Not accessible by public transport,,,Freier Eintritt,,,Not accessible,,,,,48.144570,11.568056
52325,Pasinger Fabrik,Cultural Site,Kulturstätte,"Kontaktdaten:
Pasinger Fabrik GmbH
Kultur- und Bürgerzentrum der Landeshauptstadt München
August-Exter-Str. 1
81245 München
http://pasinger-fabrik.com/
info@pasinger-fabrik.com
Tel: 089 829 290-79",,Appointment not needed,Not child friendly,No Volunteer Opportunities,Not accessible by public transport,,,Freier Eintritt,,,Not accessible,,,,,48.150891,11.461380
52327,Literaturhaus München,Cultural Site,Kulturstätte,"Kontaktdaten:
Stiftung Buch-, Medien-
und Literaturhaus München
Salvatorplatz 1
80333 München
http://www.literaturhaus-muenchen.de/
info@literaturhaus-muenchen.de
Tel.: 089 - 29 19 34 - 0
Fax.: 089 - 29 19 34 - 19",,Appointment not needed,Not child friendly,No Volunteer Opportunities,Not accessible by public transport,,,Freier Eintritt,,,Not accessible,,,,,48.141825,11.575065
52328,Gasteig,Cultural Site,Kulturstätte,"Kontaktdaten:
GASTEIG MÜNCHEN GMBH
Rosenheimer Straße 5
81667 München
http://www.gasteig.de/
kommunikation@gasteig.de
Tel. +49 (0)89 48098-0
Fax +49 (0)89 48098-1000",,Appointment not needed,Not child friendly,No Volunteer Opportunities,Not accessible by public transport,,,Freier Eintritt,,,Not accessible,,,,,48.131328,11.590410
52329,Instituto Cervantes München,Cultural Site,Kulturstätte,"Kontaktdaten:
Instituto Cervantes München
Alfons-Goppel-Str. 7
D-80539 München
http://munich.cervantes.es/de
cenmun@cervantes.es
Tel.: +49 (0)89 29 07 18 0
Fax: +49 (0)89 29 32 17",,Appointment not needed,Not child friendly,No Volunteer Opportunities,Not accessible by public transport,,,Freier Eintritt,,,Not accessible,,,,,48.140058,11.580491
52331,Goethe-Institut e.V.,Cultural Site,Kulturstätte,"Kontaktdaten: 
Goethe-Institut e. V.
Dachauer Straße 122
80637 München
www.goethe.de
info@goethe.de 
Tel.: +49 89 15921-0",,Appointment not needed,Not child friendly,No Volunteer Opportunities,Not accessible by public transport,,,Freier Eintritt,,,Not accessible,,,,,48.161826,11.544904
52332,Münchner Künstlerhaus-Stiftung,Cultural Site,Kulturstätte,"Kontaktdaten:
Münchner Künstlerhaus-Stiftung
Lenbachplatz 8
80333 München
http://www.kuenstlerhaus-muc.de/
info@kuenstlerhaus-muc.de
Tel.: 089 / 59 91 84 - 0
Fax.: 089 / 59 91 84 - 10",,Appointment not needed,Not child friendly,No Volunteer Opportunities,Not accessible by public transport,,,Freier Eintritt,,,Not accessible,,,,,48.139879,11.567879
52333,Feierwerk e.V.,Cultural Site,Kulturstätte,"Kontaktdaten:
Feierwerk e.V.
Hansastr. 39 - 41
81373 München
http://feierwerk.de/
kultur@feierwerk.de
Tel.: +49 (0) 89 72 488-0
Fax.: +49 (0) 89 72 48 8-109",,Appointment not needed,Not child friendly,No Volunteer Opportunities,Not accessible by public transport,,,Freier Eintritt,,,Not accessible,,,,,48.128969,11.534110
52336,Tschechisches Zentrum München,Cultural Site,Kulturstätte,"Das Tschechische Zentrum München ist als Kulturinstitut eine Mittlerorganisation des tschechischen Außenministeriums. Durch Kunst- und Kulturveranstaltungen aller Sparten, so z.B. Lesungen, Ausstellungen, Filmvorführungen, Theatervorstellungen oder Konzerte, präsentiert es renommierte ebenso wie junge, zeitgenössische Vertreter der tschechischen Kunst- und Kulturszene sowie Wissenschaft in ganz Süddeutschland. Dabei arbeitet es mit staatlichen und kommunalen Einrichtungen, aber auch mit Vereinen und ehrenamtlichen Initiativen zusammen.
Tschechisches Zentrum München
Prinzregentenstr. 7
80538 München
http://www.czechcentres.cz/munich
ccmunich@czech.cz
Tel. +49-89/2102-4932
Fax +49-89/2102-4933",,Appointment not needed,Not child friendly,No Volunteer Opportunities,Not accessible by public transport,,,Freier Eintritt,,,Not accessible,,,,,48.142342,11.593006
52340,Praterinsel,Cultural Site,Kulturstätte,"Kontaktdaten:
praterinsel – raum für events
praesidion gmbh
praterinsel 3-4
80538 münchen
www.prater-insel.de
kontakt@prater-insel.de
Tel.: +49 (0)89 21 23 83-0
Fax.: +49 (0)89 21 23 83-20",,Appointment not needed,Not child friendly,No Volunteer Opportunities,Not accessible by public transport,,,Freier Eintritt,,,Not accessible,,,,,48.136491,11.590716
52341,Bürgerpark Oberföhring,Cultural Site,Kulturstätte,"Kontaktdaten:
Bürgerpark Oberföhring
Oberföhringer Str. 156
81925 München
Tel. 089-95 31 25
Fax 089-98 11 15",,Appointment not needed,Not child friendly,No Volunteer Opportunities,Not accessible by public transport,,,Freier Eintritt,,,Not accessible,,,,,48.165930,11.623490
52342,Kafe Kult,Cultural Site,Kulturstätte,"Kontaktdaten:
Kafe Kult
Oberföhringer Str. 156
81925 München
http://www.kafekult.de/
Tel.: +49 89 95927692",,Appointment not needed,Not child friendly,No Volunteer Opportunities,Not accessible by public transport,,,Freier Eintritt,,,Not accessible,,,,,48.165091,11.623020
52343,Optimolwerke,Cultural Site,Kulturstätte,"Kontaktdaten:
OSN Vermietungs GmbH
Friedenstr. 10
D-81671 München Germany
www.optimolwerke.de
Tel.: +49  (0)89 / 450 692  0
Fax.: +49  (0)89 / 490 027 33",,Appointment not needed,Not child friendly,No Volunteer Opportunities,Not accessible by public transport,,,Freier Eintritt,,,Not accessible,,,,,48.125259,11.604459
52344,Einstein-Kultur,Cultural Site,Kulturstätte,"Kontaktdaten:
Einstein Kultur
Einsteinstraße 42
81675 München
http://einstein-kultur.de/
info@einsteinkultur.de
Tel.: +49 89 416173795
Fax: +49 (0)89 416173798",,Appointment not needed,Not child friendly,No Volunteer Opportunities,Not accessible by public transport,,,Freier Eintritt,,,Not accessible,,,,,48.135562,11.601007
52345,freiraum e.V.,Cultural Site,Kulturstätte,"Kontaktdaten:
freiraum e.V.
Pestalozzistr. 8
80469 München
http://www.freiraum-ev.com/
Tel.: 089/ 260 74 03",,Appointment not needed,Not child friendly,No Volunteer Opportunities,Not accessible by public transport,,,Freier Eintritt,,,Not accessible,,,,,48.131636,11.567308
52346,Sub e.V.,Cultural Site,Kulturstätte,"Kontaktdaten:
Sub - Schwules Kommunikations- und Kulturzentrum
Müllerstr. 14
80469 München
https://www.subonline.org
info@subonline.org
Tel.: 089/8563464-00",,Appointment not needed,Not child friendly,No Volunteer Opportunities,Not accessible by public transport,,,Freier Eintritt,,,Not accessible,,,,,48.132632,11.573533
52347,Sub e.V.,Cultural Site,Kulturstätte,"Kontaktdaten:
Sub - Schwules Kommunikations- und Kulturzentrum
Müllerstr. 14
80469 München
https://www.subonline.org
info@subonline.org
Tel.: 089/8563464-00",,Appointment not needed,Not child friendly,No Volunteer Opportunities,Not accessible by public transport,,,Freier Eintritt,,,Not accessible,,,,,48.132632,11.573533
52348,Kardinal Wendel Haus,Cultural Site,Kulturstätte,"Kontaktdaten:
Katholische Akademie in Bayern
Mandlstraße 23
80802 München
http://kwh.kath-akademie-bayern.de/
info@kath-akademie-bayern.de
Telefon 0 89 / 38 10 2-0
Telefax 0 89 / 38 10 21 03",,Appointment not needed,Not child friendly,No Volunteer Opportunities,Not accessible by public transport,,,Freier Eintritt,,,Not accessible,,,,,48.159868,11.591649
52584,Atelierhaus FOE e.V.,Cultural Site,Kulturstätte,"Kontaktdaten:
Atelierhaus FOE e.V.
Oberföhringer Str. 156
81925 München
www.atelierhaus-foe.de
admin@atelierhaus-foe.de",,Appointment not needed,Not child friendly,No Volunteer Opportunities,Not accessible by public transport,,,Freier Eintritt,,,Not accessible,,,,,48.165817,11.623551
52585,Alte Mensa im oly-dorf,Cultural Site,Kulturstätte,"Kontaktdaten:
Alte Mensa im Oly-dorf
Helene-Meyer-Ring 9
80809 München
http://www.studentenwerk-muenchen.de/kultur/
christian.wahlster@studentenwerk.mhn.de
Tel: 089 / 35789732
Fax: 089 / 35789735",,Appointment not needed,Not child friendly,No Volunteer Opportunities,Not accessible by public transport,,,Freier Eintritt,,,Not accessible,,,,,48.179866,11.552398
52586,Seidlvilla Verein e.V.,Cultural Site,Kulturstätte,"Kontaktdaten:
Seidlvilla Verein e.V.
Nikolaiplatz 1b
80802 München
http://www.seidlvilla.de/
info@seidlvilla.de
Tel.: 089-33 31 39
Fax.: 089-34 02 95 66",,Appointment not needed,Not child friendly,No Volunteer Opportunities,Not accessible by public transport,,,Freier Eintritt,,,Not accessible,,,,,48.158475,11.587476
52587,Buddhistische Zentren Bayern d.K.K.L. e.V.,Cultural Site,Kulturstätte,"Kontaktdaten:
Buddhistische Zentren Bayern d.K.K.L. e.V.
Gabelsbergerstr. 52/Rgb
80333 München
http://www.buddhismus-bayern.de/
info@buddhismus-bayern.de
Tel.: 089 - 90547633",,Appointment not needed,Not child friendly,No Volunteer Opportunities,Not accessible by public transport,,,Freier Eintritt,,,Not accessible,,,,,48.162089,11.588420
52588,soundcafe - music&more,Cultural Site,Kulturstätte,"Kontaktdaten:
soundcafe - music&more
Traubestraße 5
80805 München
http://www.jkw-soundcafe.de/
soundcafe@kjr-m.de
Tel.: 089 361 84 07
Fax.: 089 366 740",,Appointment not needed,Not child friendly,No Volunteer Opportunities,Not accessible by public transport,,,Freier Eintritt,,,Not accessible,,,,,48.171767,11.592293
52589,Orff-Zentrum München,Cultural Site,Kulturstätte,"Kontaktdaten:
Orff-Zentrum München
Staatsinstitut für Forschung und Dokumentation
Kaulbachstr. 16
D-80539 München  
http://www.orff-zentrum.de/
kontakt@orff-zentrum.de 
Tel.: +49 89 - 288 105 0
Fax: +49 89 - 288 105 33",,Appointment not needed,Not child friendly,No Volunteer Opportunities,Not accessible by public transport,,,Freier Eintritt,,,Not accessible,,,,,48.147881,11.583417
52590,Sendlinger Kultuschmiede e.V.,Cultural Site,Kulturstätte,"Kontaktdaten:
Sendlinger Kultuschmiede e.V.
Daiserstraße 22
81371 München
http://www.sendlinger-kulturschmiede.de/
mail@sendlinger-kulturschmiede.de
Tel.: 089/761435",,Appointment not needed,Not child friendly,No Volunteer Opportunities,Not accessible by public transport,,,Freier Eintritt,,,Not accessible,,,,,48.119972,11.543713
52591,Werkhaus e.V.,Cultural Site,Kulturstätte,"Kontaktdaten:
Werkhaus e. V.
Leonrodstr. 19
80634 München
http://www.werkhaus-ev.de/
buero@werkhaus-ev.de
Tel.: 089 / 16 61 02
Fax: 089 / 189 2 11 20",,Appointment not needed,Not child friendly,No Volunteer Opportunities,Not accessible by public transport,,,Freier Eintritt,,,Not accessible,,,,,48.153504,11.535540
52592,Häusler Contemporary München,Cultural Site,Kulturstätte,"Kontaktdaten:
Häusler Contemporary München
Maximilianstraße 35, Eingang Herzog-Rudolf-Straße
D – 80539 München
http://haeusler-contemporary.com/
muenchen@haeusler-contemporary.com
Tel.: +49 89 21 09 80 3
Fax.: +49 89 21 09 80 55",,Appointment not needed,Not child friendly,No Volunteer Opportunities,Not accessible by public transport,,,Freier Eintritt,,,Not accessible,,,,,48.139509,11.584053
52593,Kolpinghaus München-Zentral GmbH,Cultural Site,Kulturstätte,"Kontaktdaten:
Kolpinghaus München-Zentral GmbH
Adolf-Kolping-Straße 1
80336 München
http://www.kolpinghaus-muenchen-zentral.de/
Telefon: +49 (0) 89 / 5 51 58-116
Telefax: +49 (0) 89 / 5 51 58-160",,Appointment not needed,Not child friendly,No Volunteer Opportunities,Not accessible by public transport,,,Freier Eintritt,,,Not accessible,,,,,48.138077,11.561469
52594,Israelitische Kultusgemeinde München und Oberbayern K.d.ö.R.,Cultural Site,Kulturstätte,"Kontaktdaten:
Israelitische Kultusgemeinde München und Oberbayern K.d.ö.R.
St.-Jakobs-Platz 18
80331 München
info@ikg-m.de
http://www.ikg-m.de/
Tel: +49 (0)89 20 24 00 -100
Fax: +49 (0)89 20 24 00 -170",,Appointment not needed,Not child friendly,No Volunteer Opportunities,Not accessible by public transport,,,Freier Eintritt,,,Not accessible,,,,,48.134676,11.571640
52595,Institut Français,Cultural Site,Kulturstätte,"Kontaktdaten:
Institut Français
Kaulbachstraße 13
80539 München
http://www.institutfrancais.de/muenchen/
info.muenchen@institutfrancais.de 
Tel. 089 28 66 28 0",,Appointment not needed,Not child friendly,No Volunteer Opportunities,Not accessible by public transport,,,Freier Eintritt,,,Not accessible,,,,,48.147212,11.582951
52605,Kulturjurte München,Cultural Site,Kulturstätte,"Kontaktdaten:
Kutlurjurte München
Benediktbeuererstr. 22
München - Thalkirchen
http://kulturjurte.de/
info@kulturjurte.de
Tel.: +49 151 21751534",,Appointment not needed,Not child friendly,No Volunteer Opportunities,Not accessible by public transport,,,Freier Eintritt,,,Not accessible,,,,,48.097186,11.544850
52606,KulturRaum München e. V.,Cultural Site,"Kulturstätte, Sozialer Dienst","Der gemeinnützige Verein KulturRaum München e. V. arbeitet wie die „Tafeln“ – nur verteilen die ehrenamtlichen Mitarbeiter keine Lebensmittel, sondern vermitteln kostenfreie Tickets für Kulturveranstaltungen an Menschen mit geringem Einkommen. Dadurch wird ihnen die Teilhabe am kulturellen Leben in München ermöglicht. Im Rahmen von „KulturKinder München“ werden kostenfreie Tickets zu Kulturveranstaltungen für Kinder bis zu 12 Jahren an Familien und soziale Einrichtungen vermittelt.
KulturRaum München e. V.
Zenettistr. 2
80337 München
http://www.kulturraum-muenchen.de/
info@kulturraum-muenchen.de
Tel. 089 5526 7183",,Appointment not needed,Not child friendly,No Volunteer Opportunities,Not accessible by public transport,,,Freier Eintritt,,,Not accessible,,,,,48.123050,11.559044
51447,IG - Initiativgruppe,Diverse Neighborhood,"Kulturelle Gemeinschaft, Gemeindezentrum","Kontaktdaten:
Initiativgruppe e.V.
Interkulturelle Begegnung und Bildung
Karlstr. 50, 80333 München
www.initiativgruppe.de
ig@initiativgruppe.de
Tel.: +49 (0)89 - 544 671 - 0
Fax: +49 (0)89 - 544 671 - 36
ig@initiativgruppe.de",,Appointment not needed,Not child friendly,No Volunteer Opportunities,Not accessible by public transport,,,Freier Eintritt,,,Not accessible,,,,,48.145283,11.560900
51448,VIA Bayern – Verband für interkulturelle Arbeit e. V.,Diverse Neighborhood,Kulturelle Gemeinschaft,"Kontaktdaten:
VIA Bayern – Verband für interkulturelle Arbeit e. V.
Landwehrstr. 22
80336 München
www.via-bayern.de
info@via-bayern.de
Tel: +49 (0)89 – 4190 2728
Fax: +49(0)89 – 4190 2727",,Appointment not needed,Not child friendly,No Volunteer Opportunities,Not accessible by public transport,,,Freier Eintritt,,,Not accessible,,,,,48.136455,11.562121
47578,Tretbootfahren auf dem See - Paddleboat on the lake,Duck Pond,"Gewässer, Herbstliche Blätterpracht, Schiffsverkehr, Ententeich","Mit dem Tretboot über den See paddeln und dabei Enten und Schwäne beobachten.
Paddle on the lake an watch ducks and swans.",,Appointment not needed,Kinder erwünscht,No Volunteer Opportunities,Anschluss zu öffentlichen Verkehrsmitteln,,,Freier Eintritt,,,Not accessible,,,,,48.159004,11.597081
51347,Gregor Louisoder Umweltstiftung,Eco Club/Organization,Öko Klub/Organisation,"Kontaktdaten:
Gregor Louisoder Umweltstiftung
Brienner Straße 46
80333 München
http://www.glus.org/
info@umweltstiftung.com
Tel. 089/54 21 21 42
Fax 089/52 38 93 35",,Appointment not needed,Not child friendly,No Volunteer Opportunities,Not accessible by public transport,,,Freier Eintritt,,,Not accessible,,,,,48.147273,11.560954
51348,JBN Jugendorganisation Bund Naturschutz,Eco Club/Organization,Öko Klub/Organisation,"Kontaktdaten:
JBN Jugendorganisation Bund Naturschutz
Landesstelle
Trivastr. 13
80637 München
http://www.jbn.de/
info@jbn.de
Tel. 0 89 / 15 98 96 30
Fax. 0 89 / 15 98 96 33",,Appointment not needed,Not child friendly,No Volunteer Opportunities,Not accessible by public transport,,,Freier Eintritt,,,Not accessible,,,,,48.161040,11.541776
51349,Selbach-Umwelt-Stiftung,Eco Club/Organization,Öko Klub/Organisation,"Kontaktdaten:
Selbach-Umwelt-Stiftung
Waltherstr. 29
80337 München
http://www.selbach-umwelt-stiftung.org/
info@selbach-umwelt-stiftung.org
Tel: 0 89 / 51 55 59 39
Fax: 0 89 / 76 75 89 56",,Appointment not needed,Not child friendly,No Volunteer Opportunities,Not accessible by public transport,,,Freier Eintritt,,,Not accessible,,,,,48.128586,11.559318
52612,rehab republic e.V.,Eco Club/Organization,Öko Klub/Organisation,"Kontaktdaten:
rehab republic e.V.
c/o Markus Mitterer
Nadistraße 20
80809 München
www.rehab-republic.org
info@rehab-republic.org",,Appointment not needed,Not child friendly,No Volunteer Opportunities,Not accessible by public transport,,,Freier Eintritt,,,Not accessible,,,,,48.182620,11.549281
52614,Stiftungsgemeinschaft anstiftung & ertomis gemeinnützige GmbH,Eco Club/Organization,Öko Klub/Organisation,"Kontaktdaten:
Stiftungsgemeinschaft anstiftung & ertomis
gemeinnützige GmbH
Daiserstr. 15, Rgb.
81371 München
http://anstiftung-ertomis.de/
info@anstiftung-ertomis.de
Tel.: 089/ 74 74 60-0
Fax: 089/ 74 74 60-30",,Appointment not needed,Not child friendly,No Volunteer Opportunities,Not accessible by public transport,,,Freier Eintritt,,,Not accessible,,,,,48.120325,11.544163
53126,ergon e.V.,Eco Club/Organization,Öko Klub/Organisation,"Kontaktdaten:
ergon e.V.
Waldsaumstraße 16
81377 München
www.unseregemeinsamesache.de
ergon@t-online.de
Tel: +49 (0)89 713759
Fax: +49 (0)89 713759",,Appointment not needed,Not child friendly,No Volunteer Opportunities,Not accessible by public transport,,,Freier Eintritt,,,Not accessible,,,,,48.103348,11.485326
48648,Unternehmensberatung Roswitha Schalk,Eco Expert,Öko-Fachkraft,"Unternehmensberatung & nachhaltige Organisationsentwicklung: Die Übernahme gesellschaftlicher Verantwortung von Organisationen gewinnt zunehmend an Bedeutung. Roswitha Schalk begleitet Unternehmen und NGO auf Basis des international gültigen Leitfadens DIN ISO 26000.
Kontaktdaten:
Roswitha Schalk
Zittauer Straße 32 a
80997 München
http://www.roswitha-schalk.com/
info@roswitha-schalk.com
Tel.: 089/12762435
Telefon 089/12762435",,Appointment not needed,Not child friendly,No Volunteer Opportunities,Not accessible by public transport,,,Freier Eintritt,,,Not accessible,,,,,48.180907,11.490716
48650,Sparda-Bank München eG,Eco Expert,Öko-Fachkraft,"Sparda-Bank München eG
Arnulfstraße 15
80335 München
Zentrale Postadresse:
Sparda-Bank München eG
Postfach 20 18 51
80018 München",,Appointment not needed,Not child friendly,No Volunteer Opportunities,Not accessible by public transport,,,Freier Eintritt,,,Not accessible,,,,,48.147263,11.530166
47970,Green City e.V.,Eco Information,"Öko-Information, Öko Klub/Organisation, Umweltbildung, Signifikante Organisation/Dienststelle","Green City e.V.
Goethestraße 34
80336 München
www.greencity.de
info@greencity.de
(089) 890 668 -322
Green City e.V. ist seit 1990 als Umweltorganisation für ein grüneres München aktiv. 20 MitarbeiterInnen setzen sich zusammen mit rund 1.000 Ehrenamtlichen und Mitgliedern für stadtverträgliche Mobilität, verantwortungsvollen Umgang mit Energie, nachhaltige Stadtgestaltung, und Umweltbildung für alle Altersgruppen ein. 150 Projekte und Veranstaltungen pro Jahr bieten Umweltschutz zum Anfassen und Mitmachen. Weitere Informationen unter www.greencity.de.",,Appointment not needed,Not child friendly,No Volunteer Opportunities,Not accessible by public transport,,,Freier Eintritt,,,Not accessible,,,,,48.135785,11.558413
48160,Münchner Forum e.V.,Eco Information,"Öko-Information, Öffentlicher Kundgebungsort","Münchner Forum e.V. text dazu Im Münchner Forum e.V., Diskussionsplattform für Entwicklungsfragen rund um München, setzen sich in insgesamt 13 Arbeitskreisen Bürgerinnen und Bürger mit aktuellen Themen und Herausforderungen der Stadtentwicklung in München und Region auseinander. Vom Umgang mit dem Boden, Nachhaltigkeit im Städtebau, Wohnen in der Stadt, öffentlichen Grünflächen bis zur Mobilität. Eine nachhaltige Stadtentwicklung aus ökologischer, sozialer und soziokultureller Sicht ist uns in diesem Kontext stets ein Anliegen.
Kontaktdaten:
Diskussionsforum für Entwicklungsfragen
Schellingstr. 65
80799 München
www.muenchner-forum.de
info@muenchner-forum.de
Tel.: 089 - 28 20 76 / 77
Fax: 089 - 280 55 32",,Appointment not needed,Not child friendly,No Volunteer Opportunities,Not accessible by public transport,,,Freier Eintritt,,,Not accessible,,,,,48.151844,11.571314
48804,Landesbund für Vogelschutz in Bayern,Eco Information,"Öko-Information, Beobachtung von Vögeln & Wildtieren","Der LBV ist mit über 75.000 Mitgliedern und Förderern Bayerns größter Arten- und Biotopschutzverband. Die LBV-Kreisgruppe München hat ihren Sitz in der Klenzestraße 37 und koordiniert von hier aus ihre zahlreichen Projekte zum Schutz der Artenvielfalt in Stadt und Landkreis München. Im angeschlossenen Ladengeschäft können sich Bürger z.B. über richtige Vogelfütterung informieren, sich beim Nistkastenkauf beraten lassen und im großen Naturbücher- und Geschenkartikelsortiment stöbern.
Kontaktdaten:
Landesbund für Vogelschutz e.V. (LBV)
Kreisgruppe München
Klenzestr. 37
80469 München
http://www.lbv-muenchen.de/
info@lbv-muenchen.de 
Tel: +49 (0)89/2002706",,Appointment not needed,Not child friendly,No Volunteer Opportunities,Not accessible by public transport,,,Freier Eintritt,,,Not accessible,,,,,48.130695,11.574183
50675,Bund Naturschutz Kreisgruppe München,Eco Information,"Öko-Information, Umweltbildung","Kontaktdaten:
Bund Naturschutz in Bayern e.V. (BN)
Kreisgruppe München
Pettenkoferstr. 10a / II
80336 München
http://www.bn-muenchen.de/
info@bn-muenchen.de
Tel.: 089 / 51 56 76 0
Fax: 089 / 51 56 76 77",,Appointment not needed,Not child friendly,No Volunteer Opportunities,Not accessible by public transport,,,Freier Eintritt,,,Not accessible,,,,,48.134275,11.561345
50676,E.F. Schumacher - Gesellschaft für Politische Ökologie e.V.,Eco Information,Öko-Information,"Kontaktdaten:
Ernst Friedrich Schumacher Gesellschaft e.V.
Schulgasse 2
85614 Kirchseeon
http://e-f-schumacher-gesellschaft.de/
lex.janssen@web.de
Tel. 08091-567662 (10-13 Uhr)
Mobil: 0178-7967670
Fax: 08091-567663",,Appointment not needed,Not child friendly,No Volunteer Opportunities,Not accessible by public transport,,,Freier Eintritt,,,Not accessible,,,,,48.073717,11.887188
50677,Geld mit Sinn! e.V.,Eco Information,Öko-Information,"Kontaktdaten:
Geld mit Sinn! e. V.
c/o Deisenhofener Straße 36
81539 München
http://www.geldmitsinn.de/
Tel: 089 321 69 7474
Mobil:   + 49 171 805 4504",,Appointment not needed,Not child friendly,No Volunteer Opportunities,Not accessible by public transport,,,Freier Eintritt,,,Not accessible,,,,,48.113459,11.584493
50678,lifeguide e.V.,Eco Information,Öko-Information,"Kontaktdaten:
lifeguide e.V.
c/o Andrea Reiche
Erich-Kästner-Str. 20
80796 München
http://www.lifeguide-muenchen.de/
info@lifeguide-muenchen.de",,Appointment not needed,Not child friendly,No Volunteer Opportunities,Not accessible by public transport,,,Freier Eintritt,,,Not accessible,,,,,48.163674,11.569569
50679,sneep e.V.,Eco Information,Öko-Information,"sneep e.V.
c/o David J. Offenwanger
Lindwurmstr. 135
80337 München
http://www.sneep.info/
info@sneep.info",,Appointment not needed,Not child friendly,No Volunteer Opportunities,Not accessible by public transport,,,Freier Eintritt,,,Not accessible,,,,,48.126830,11.553489
50826,VerbraucherService Bayern im KDFB e.V,Eco Information,Öko-Information,"Kontaktdaten:
Verbraucher Service Bayern im KDFB e.V.
Dachauer Straße 5
80335 München
www.verbraucherservice-bayern.de
info@verbraucherservice-bayern.de
Tel: +49 (0)89/51518743
Fax: +49 (0)89/51518745",,Appointment not needed,Not child friendly,No Volunteer Opportunities,Not accessible by public transport,,,Freier Eintritt,,,Not accessible,,,,,48.142322,11.560010
51623,münchner zukunftssalon,Eco Information,Öko-Information,"Kontaktdaten
oekom e.V. Zukunftssalon
Waltherstr. 29, Rgb., 2. Stock
80337 München 
http://www.oekom-verein.de/index.php?id=494
Tel: 089-54418411
Fax 089-76758956",,Appointment not needed,Not child friendly,No Volunteer Opportunities,Not accessible by public transport,,,Freier Eintritt,,,Not accessible,,,,,48.128579,11.559339
51876,Münchner Stadtgespräche,Eco Information,"Öko-Information, Unabhängige Öko-Medien","Kontaktdaten:
Münchner Stadtgespräche
Umweltinstitut München e.V.
Landwehrstr. 64 a
80336 München 
http://www.umweltinstitut.org/stadtgespraeche/msg/index.html
info@umweltinstitut.org 
Tel.: (089) 30 77 49-0
Fax: (089) 30 77 49-20",,Appointment not needed,Not child friendly,No Volunteer Opportunities,Not accessible by public transport,,,Freier Eintritt,,,Not accessible,,,,,48.136720,11.554546
51877,Umweltnetz München-Ost,Eco Information,Öko-Information,"Kontaktdaten:
Umweltnetz München-Ost
c/o Ökologisches Bildungszentrum München
Englschalkinger Straße 166
81927 München
http://www.umweltnetz-muenchen-ost.de/
ulrich.angelika@t-online.de
Tel.: 089 / 98 79 24",,Appointment not needed,Not child friendly,No Volunteer Opportunities,Not accessible by public transport,,,Freier Eintritt,,,Not accessible,,,,,48.152480,11.634800
52602,greeneventfinder,Eco Information,Öko-Information,"Kontaktdaten:
greeneventfinder
Britta-Marei Lanzenberger
Streitfeldstraße 33
81673 München
http://www.greeneventfinder.de/
mail@greeneventfinder.de
Tel.: +49 89 444 52 976
Fax.: +49 89 444 52 978",,Appointment not needed,Not child friendly,No Volunteer Opportunities,Not accessible by public transport,,,Freier Eintritt,,,Not accessible,,,,,48.131404,11.621861
52603,Grün&Gloria,Eco Information,Öko-Information,"Kontaktdaten:
Grün&Gloria
Redaktion:
text:bau Verlag
Schwanthalerstraße 155
80339 München
http://www.gruenundgloria.de/
info@textbau.com
Tel.: +49 (0)89 21 66 50 55
Fax.: +49 (0)89 21 66 50 56",,Appointment not needed,Not child friendly,No Volunteer Opportunities,Not accessible by public transport,,,Freier Eintritt,,,Not accessible,,,,,48.137644,11.540887
50661,Kartoffelkombinat eG,Eco-Agriculture/Permaculture,Öko-Landwirtschaft/Permakultur,"Ziel des Kartoffelkombinats ist es, gemeinsam eine Bio-Gemüsegärtnerei zu übernehmen und sich so mit eigenen, regionalen Lebensmitteln zu versorgen. Durch diese Erntegemeinschaft machen sich Münchner Haushalte unabhängig von Industriestrukturen und bestimmen selbst, was und wie angebaut wird. Hierzu gründen wurde 2012 eine Solidarische Landwirtschaft / „Community Supported Agriculture“, kurz CSA gegründet. Think global, act local.
Kartoffelkombinat eG
Durasweg 3
81247 München
www.kartoffelkombinat.de
info@kartoffelkombinat.de
Tel.: +49 179 29 55 755
Tel.: +49 178 760 44 22
Fax: +49 89 716 773 490",,Appointment not needed,Not child friendly,No Volunteer Opportunities,Not accessible by public transport,,,Freier Eintritt,,,Not accessible,,,,,48.169461,11.458231
51495,Beratungsbüro für ErnährungsÖkologie,Eco-Agriculture/Permaculture,Öko-Landwirtschaft/Permakultur,"Kontaktdaten:
Beratungsbüro für ErnährungsÖkologie
Dr. Karl von Koerber
Mutter-Teresa-Str. 20
D - 81829 München
www.nachhaltigeernaehrung.de
koerber@nachhaltigeernaehrung.de
Tel.: (089) 65 10 21 31
Fax: (089) 65 10 21 32",,Appointment not needed,Not child friendly,No Volunteer Opportunities,Not accessible by public transport,,,Freier Eintritt,,,Not accessible,,,,,48.129612,11.700509
51496,Herrmannsdorfer Landwerkstätten,Eco-Agriculture/Permaculture,"Öko-Landwirtschaft/Permakultur, Organische/regionale Kost","Kontaktdaten:
Herrmannsdorfer Landwerkstätten
Glonn GmbH & Co. KG
Herrmannsdorf 7
85625 Glonn
Deutschland
http://www.herrmannsdorfer.de/
glonn@herrmannsdorfer.de
Tel.: 0049 (0)8093/90 94 – 0
Fax.: 0049 (0)8093/90 94 – 10",,Appointment not needed,Not child friendly,No Volunteer Opportunities,Not accessible by public transport,,,Freier Eintritt,,,Not accessible,,,,,47.993275,11.898236
52609,o’pflanzt is! e.V.,Eco-Agriculture/Permaculture,"Öko-Landwirtschaft/Permakultur, Gemeindegarten","Kontaktdaten:
o’pflanzt is! e.V.
Am Schützeneck 1
81241 München
http://o-pflanzt-is.de/
mitmachen@o-pflanzt-is.de",,Appointment not needed,Not child friendly,No Volunteer Opportunities,Not accessible by public transport,,,Freier Eintritt,,,Not accessible,,,,,48.147765,11.462801
52836,Bioland Bayern e.V.,Eco-Agriculture/Permaculture,Öko-Landwirtschaft/Permakultur,"Kontaktdaten:
Bioland Bayern e.V.
Auf dem Kreuz 58
86152 Augsburg 
http://www.bioland.de/
info(at)bioland-bayern.de
Tel. 0821 346800
Fax 0821 34680120",,Appointment not needed,Not child friendly,No Volunteer Opportunities,Not accessible by public transport,,,Freier Eintritt,,,Not accessible,,,,,48.372783,10.890573
47564,Grüne Jugend München,Eco-Justice Organization,"Öko-Information, Öko-Rechtsorganisation, Öko Klub/Organisation, Umweltbildung, Ehrenamtliche Arbeit, Öko-Fachkraft","Kontaktdaten:
GRÜNE JUGEND München
Sendlinger Straße 47
80331 München
http://www.gjm.de/
http://www.gruene-jugend.de/
info@gjm.de
Tel.: +49 89 211 59 728",,Appointment not needed,Kinder erwünscht,No Volunteer Opportunities,Anschluss zu öffentlichen Verkehrsmitteln,,,Freier Eintritt,,,Behindertengerecht,,,,,48.133608,11.568242
51486,FÖS Forum Ökologisch-Soziale Marktwirtschaft,Eco-Justice Organization,Öko-Rechtsorganisation,"Kontaktdaten:
Forum Ökologisch-Soziale Marktwirtschaft e.V. (FÖS)*
c/o ZMM Zeitmanager München GmbH
Brienner Straße 21
D-80333 München
http://www.foes.de/
foes@foes.de
Tel.: 089-542 644-0
Fax: 089-542 644-99",,Appointment not needed,Not child friendly,No Volunteer Opportunities,Not accessible by public transport,,,Freier Eintritt,,,Not accessible,,,,,48.143867,11.571652
51630,Ashoka Deutschland gGmbH,Eco-Justice Organization,Öko-Rechtsorganisation,"Chancenplattform für gesellschaftliche Innovatoren
Wer wir sind
Ashoka ist die erste und weltweit führende Organisation zur Förderung von Social Entrepreneurs (SozialunternehmerInnen) – Frauen und Männer, die mit innovativen, replizierbaren Konzepten drängende gesellschaftliche Probleme lösen. Die non-profit-Organisation wurde im Jahr 1980 von Bill Drayton in den USA gegründet und ist heute in über 80 Ländern aktiv. In Deutschland gibt es Ashoka als gemeinnützige GmbH seit 2003.
Ashoka ist weltanschaulich und politisch unabhängig und nimmt keine staatlichen Gelder an. Die Finanzierung der Organisation basiert ausschließlich auf der finanziellen Unterstützung einer Gruppe engagierter Unternehmer sowie einigen Stiftungen und Unternehmen.
Die Vision von Ashoka ist eine Gesellschaft, in der jeder Einzelne ermutigt und unterstützt wird, zur Lösung gesellschaftlicher Probleme beizutragen und positiven Wandel zu gestalten – ein Changemaker zu sein.
Was wir tun
Weltweit identifiziert Ashoka gesellschaftliche Innovationen und unterstützt die aktuell dahinter stehenden 3.000 Social Entrepreneurs als Ashoka Fellows bei der Verbreitung ihrer Ideen – mit bedarfsgerechten Lebenshaltungsstipendien, umfassender pro-bono Beratung sowie Vernetzung in einem globalen Netzwerk. Die Aufnahme in das internationale Netzwerk ist auf Lebenszeit angelegt. Der erste Fellow wurde 1981 in Indien ausgewählt. Jährlich wächst das Netzwerk im Schnitt um eine Person je zehn Millionen Einwohnern der Länder, in denen Ashoka aktiv ist.
Über die Förderung einzelner sozialer Innovation hinaus gestaltet Ashoka die Rahmenbedingungen dafür, dass soziale Innovationen in verschiedenen gesellschaftlichen Bereichen zukünftig noch schneller wachsen können – um spürbare positive Veränderungen für möglichst viele Menschen zu erreichen.
Die Kriterien zur Auswahl von Ashoka Fellows sind international einheitlich: (1) Eine neue Idee zur Lösung eines gesellschaftlichen Problems, (2) die mindestens in einem Pilotvorhaben ihre Wirksamkeit bewiesen hat und das Potenzial hat, bestehende gesellschaftliche Systeme zu verändern. Entwickelt von einer (3) unternehmerisch denkenden und handelnden, (4) kreativen und (5) integren Persönlichkeit, welche die neue Idee voran treibt und wachsen lassen möchte. Das Auswahlverfahren ist fünfstufig. Anfang 2014 sind im deutschen Ashoka Netzwerk 51 Fellows integriert.
Ashoka Deutschland gGmbH
Prinzregentenplatz 10
81675 München
http://germany.ashoka.org/
info_de@ashoka.org
Tel.: +49 89-2175 49 751
Fax: 03212-1402 672",,Appointment not needed,Not child friendly,No Volunteer Opportunities,Not accessible by public transport,,,Freier Eintritt,,,Not accessible,,,,,48.139301,11.604883
51631,BürgerStiftung München,Eco-Justice Organization,Öko-Rechtsorganisation,"Kontaktdaten:
BürgerStiftung München
Klenzestr. 37
80469 München
http://www.buergerstiftung-muenchen.de/
buero@buergerstiftung-muenchen.de
Tel.   089 20 23 81 11
Fax.  089 20 23 81 13",,Appointment not needed,Not child friendly,No Volunteer Opportunities,Not accessible by public transport,,,Freier Eintritt,,,Not accessible,,,,,48.130816,11.574802
51632,Greenpeace München,Eco-Justice Organization,Öko-Rechtsorganisation,"Kontaktdaten:
Greenpeace München
Frohschammer Str. 14
80807 München 
http://www.greenpeace-muenchen.de/
Telefon: (089) 359-2425
Fax: (089) 359-6622",,Appointment not needed,Not child friendly,No Volunteer Opportunities,Not accessible by public transport,,,Freier Eintritt,,,Not accessible,,,,,48.179115,11.568840
51633,Greenpeace München,Eco-Justice Organization,Öko-Rechtsorganisation,"Kontaktdaten:
Greenpeace München
Frohschammer Str. 14
80807 München 
http://www.greenpeace-muenchen.de/
Telefon: (089) 359-2425
Fax: (089) 359-6622",,Appointment not needed,Not child friendly,No Volunteer Opportunities,Not accessible by public transport,,,Freier Eintritt,,,Not accessible,,,,,48.179115,11.568840
51634,Die Umwelt-Akademie e.V.,Eco-Justice Organization,Öko-Rechtsorganisation,"Kontaktdaten:
Die Umwelt-Akademie e.V.
Gollier Str. 39
80339 München
www.die-umwelt-akademie.de
info@die-umwelt-akademie.de
Fon +49(0)89-360 386 85
Fax +49(0)89-307 616 63",,Appointment not needed,Not child friendly,No Volunteer Opportunities,Not accessible by public transport,,,Freier Eintritt,,,Not accessible,,,,,48.135582,11.540333
48169,Kräutergarten Bioladen,Eco-Products,Öko-Produkte,"Kräutergarten
Pestalozzistraße 3, 80469 München ‎
089 23249802 ‎ · kraeutergarten-muenchen.de",,Appointment not needed,Not child friendly,No Volunteer Opportunities,Not accessible by public transport,,,Freier Eintritt,,,Not accessible,,,,,48.131314,11.567792
52830,Die Vitaminbude,Eco-Products,Öko-Produkte,"Kontaktdaten:
Die Vitaminbude
Sendlinger-Tor-Platz 10, 2. Stok
80336 München
http://www.vitaminbude.de/
info@vitaminbude.de 
Tel.: +49 89 5454 4804
Fax: +49 89 5454 4808",,Appointment not needed,Not child friendly,No Volunteer Opportunities,Not accessible by public transport,,,Freier Eintritt,,,Not accessible,,,,,48.133430,11.567187
47969,DAV-Deutscher Alpenverein,Ecotourism Resource,"Öko-Information, Öko Klub/Organisation, Umweltbildung, Öko-Tourismus","Die Alpen haben u.a. als Lebensraum für Pflanzen und Tiere aber auch als Wasserspeicher eine globale Bedeutung. Ihre biologische Vielfalt ist einzigartig, aber auch bedroht: Der Klimawandel, fortschreitende Erschließungen und zunehmender Verkehr gefährden ihr sensibles Ökosystem. Ein Schwerpunkt unseres Engagements ist es daher, ihre Einzigartigkeit zu bewahren und Bergsport und Naturschutz in Einklang zu bringen. Als bundesweit anerkannter Naturschutzverband kümmert sich der DAV um naturverträglichen Bergsport in den Alpen und den deutschen Mittelgebirgen.
Kontaktdaten
Deutscher Alpenverein e. V.
Bundesgeschäftsstelle
Von-Kahr-Str. 2-4
80997 München
http://www.davplus.de/",,Appointment not needed,Not child friendly,No Volunteer Opportunities,Not accessible by public transport,,,Freier Eintritt,,,Not accessible,,,,,48.179315,11.486471
47565,Bildung für nachhaltige Entwicklung e.V.,Environmental Education,"Öko-Information, Öko-Rechtsorganisation, Wochenmarkt, Öko Klub/Organisation, Umweltbildung, Öko-Fachkraft","Mit Bildung für nachhaltige Entwicklung wollen wir neues Denken und Handeln in Politik, Wirtschaft und Gesellschaft anstoßen. Damit auch die uns nachfolgenden Generationen eine zukunftsfähige Welt vorfinden, die ihnen Gestaltungsspielräume offen lässt.
Bildung für nachhaltige Entwicklung bedeutet: Kinder, Jugendliche und Erwachsene lernen, ihre Entscheidungen auch daran auszurichten, welche Folgen diese für die Welt von morgen haben.
Mit BenE München haben wir im Rahmen der UN-Dekade „Bildung für nachhaltige Entwicklung“ lokale Kooperationen geknüpft, die Initiativen aus den verschiedensten gesellschaftlichen Bereichen bündeln. Denn nur wenn Akteure aus Politik, Wirtschaft und Zivilgesellschaft sich austauschen und Menschen mit unterschiedlichen Sichtweisen zusammenarbeiten, entstehen neue Ideen für tragfähige Lösungen unserer dringlichsten Zukunftsfragen.",,Termin nötig,Kinder erwünscht,No Volunteer Opportunities,Anschluss zu öffentlichen Verkehrsmitteln,,,Freier Eintritt,,,Behindertengerecht,,,,,48.136951,11.579613
47667,Ökologisches Bildungszentrum - ÖBZ,Environmental Education,"Umweltbildung, Öko-Fachkraft","Kontaktdaten:
Ökologisches Bildungszentrum München - ÖBZ
Englschalkinger Straße 166
81927 München
http://www.oebz.de/
mail@oebz.de
Tel. 089/ 93 94 89-60
Fax 089/ 93 94 89-81",,Termin nötig,Not child friendly,No Volunteer Opportunities,Anschluss zu öffentlichen Verkehrsmitteln,,,Freier Eintritt,,,Behindertengerecht,,,,,48.152688,11.634972
48359,Kinder- und Jugendfarm Ramersdorf,Environmental Education,"Umweltbildung, Sport-/Naturspielplatz, Öko-Tour/Wanderweg, Garten, Geplante Parkanlage, Ökologischer Landschaftsbau","Görzer Straße 95, 81549 München, Allemagne ‎
+49 89 60062815
Die Kinder- und Jugendfarm Ramersdorf ist eine bauernhofähnliche Einrichtung die in der offenen Kinder- und Jugendarbeit tätig ist.
Die Einrichtung bietet ein breites Spektrum handwerklicher und landwirtschaftlicher Betätigungsfelder für Kinder und Jugendliche an. Diese dienen zur Entwicklung ihrer Talente, fördern das Erlernen von Schlüsselkompetenzen und geben Orientierungshilfe in ihrer Berufswahl.
Die pädagogischen Schwerpunkte liegen auf der Förderung der Sozial-, Selbst- und Umweltkompetenz und dem Versuch, gesellschaftliche Defizite in Familie und Umwelt auszugleichen.
Durch den Umgang mit den natürlichen Elementen, Pflanzen und Tieren entstehen Primärerfahrungen die dazu beitragen, Zusammenhänge und Abhängigkeiten zwischen Mensch und Natur zu verdeutlichen.
Im Garten und auf dem Gelände werden Obst, Gemüse, Blumen und Futterpflanzen angebaut. Die Ernteprodukte werden nach alten traditionellen Methoden verarbeitet und haltbar gemacht. Organische Abfälle wie Mist werden kompostiert und zur Bodenverbesserung aufgebracht. Durch die eigene Erfahrung des säens, hackens, Beete pflegen und ernten kann die Grundlage für eine tiefe Naturverbundenheit entstehen.
Die Müllvermeidung, die Müllverwertung und die ökologischen Stoffkreisläufe werden bei uns konsequent angewendet und aufgezeigt.
Nachwachsende Rohstoffe werden angebaut und genutzt. Schutzräume wie Kleinbiotope, Nisthilfen und Wildpflanzenbereiche haben bei uns einen hohen Stellenwert.
Unzählige Angebote  stehen den BesucherInnen der Farm kostenfrei zur Verfügung. Wir haben hier auf dem Gelände u.a. Nutztiere wie Laufenten, Hühner, Kaninchen, Bienen usw.
Ein großer Mischkulturgarten, zahlreiche Obstbäume, Beerensträucher, Nußbäume und Nutzpflanzen wie  Kopfweiden wurden gepflanzt.
Kleinbiotope wie Trockenmauern,  Kräuterdächer, Rohstoffhecken, Insektenhotels,
Totholzhaufen, Kräuter- und Wildblumenwiesen, Teiche usf. sind zu besichtigen. Regenerative Energien werden genutzt und anschaulich und praxisorientiert vermittelt. Wir nutzen z.B. die Sonne zum kochen, backen und dörren. Mittels eines Biomeilers wird unser Gewächshaus mit Mist und Grünabfällen durch den Rotteprozess beheizt.  Holz als nachwachsender Rohstoff wird CO2 neutral zum heizen unserer Räumlichkeiten, des Lagerfeuers und unseres Naturbackofens genutzt.
Ein naturnaher Lebensraum mitten in der Großstadt ist über die Jahre hier im Stadtteil Ramersdorf entstanden und gewachsen, der als Erholungs- und Erfahrungsraum für alle frei zugänglich ist.
Da wir im Feld der Umweltbildung  bzw. Bildung zur nachhaltigen Entwicklung sehr aktiv tätig sind, entwickelten wir ein  Projekt mit dem Namen „Cityfish meets tomato“. Dabei handelt es sich um ein Modelprojekt, dass BesucherInnen Stoffkreisläufe, regenerative Energie, urbanes Gärtnern und städtische Aquakulturnutzung in einem Gesamtkonzept anschaulich verdeutlicht.
Diese Polykreislaufanlage und viele weitere permakulturelle Projekte sind in unserer Einrichtung zu besichtigen.
Schulprojekte als außerschulische Bildungsmöglichkeit ergänzen unsere Angebotspalette. Dabei zeigen wir den Schülern z.B. wie man aus Milch, Butter und Käse gewinnt, wie man Brot im Holzofen bäckt, selbst Apfelsaft herstellt, was es heißt Imker zu sein oder wie ein Solarkocher funktioniert und vieles mehr.",,Appointment not needed,Not child friendly,No Volunteer Opportunities,Not accessible by public transport,,,Freier Eintritt,,,Not accessible,,,,,48.104745,11.610882
50662,Pädagogische Aktion SPIELkultur e.V.,Environmental Education,Umweltbildung,"Die Pädagogische Aktion SPIELkultur e.V. ist seit mehr als 40 Jahren im Bereich der Kinder- und Jugendkulturbildung tätig. Es werden Projekte und Programme für Kinder und Jugendliche konzeptioniert und realisiert, vor allem mit den Akzenten: „kulturelle Medienbildung“, „Natur- und Sinneserfahrungen“, „urbanes Lernen“, sowie weitere zahlreiche spiel-, kunst-, kultur- und medienpädagogische Projekte. Hierzu zählen unter anderem Projekte aus dem Bereich Natur- und Sinneserfahrungen, Az.B. „Auf zu neuen Schafen!“, ein naturpädagogisches Projekt im Englischen Garten, „Gartenleben“ in Kooperation mit dem Gemeinschaftsgarten o’pflanzt is sowie Projekte aus dem Bereich der kulturellen Medienbildung, z.B. „LEO TV- Kinderreporter unterwegs“. Darüber hinaus gibt es zahlreiche Aktionen und Formate zu den Themen Stadterkundung, Spiel und viele mehr. Hierbei zählt vor allem für Kinder und Familien: „umsonst und draußen“. Vermehrt stärken wir im Kontext „urbanes Lernen“ die „Mobilisierung“ der Projekte und bieten auch kleinere Module aus einem großen POOL an Projekten an.
Kontaktdaten:
PA / SPIELkultur e.V.
Leopoldstraße 61
80802 München
http://www.spielkultur.de/
info@spielkultur.de
tel +49 89 2609208
fax +49 89 268575",,Appointment not needed,Not child friendly,No Volunteer Opportunities,Not accessible by public transport,,,Freier Eintritt,,,Not accessible,,,,,48.161574,11.585501
50666,ANU Bayern e.V.,Environmental Education,Umweltbildung,"Kontaktdaten:
ANU Bayern e.V.
Arbeitsgemeinschaft Natur- und Umweltbildung
Welserstraße 23
81373 München
http://www.umweltbildung-bayern.de/
bayern@anu.de
Tel.: 089/51 99 64 57
Fax: 089/769 36 51",,Appointment not needed,Not child friendly,No Volunteer Opportunities,Not accessible by public transport,,,Freier Eintritt,,,Not accessible,,,,,48.122430,11.533713
50667,Commit to Partnership e.V.,Environmental Education,Umweltbildung,"Kontaktdaten:
Commit to Partnership e.V.
Karl-Witthalm-Straße 30
81375 München
http://www.com-mit.org/index.php?id=194
info@com-mit.org
Tel: 089 / 28 97 63 59",,Appointment not needed,Not child friendly,No Volunteer Opportunities,Not accessible by public transport,,,Freier Eintritt,,,Not accessible,,,,,48.117338,11.483315
50668,Echo e.V.,Environmental Education,Umweltbildung,"Kontaktdaten:
Echo e.V.
Helsinkistraße 100
81829 München
http://echo-ev.de/
office@echo-ev.de
Tel.: +49 (0) 89 - 94 30 48 45",,Appointment not needed,Not child friendly,No Volunteer Opportunities,Not accessible by public transport,,,Freier Eintritt,,,Not accessible,,,,,48.128765,11.688954
50669,Familylab.de - die Familienwerkstatt,Environmental Education,Umweltbildung,"familylab.de ist die unabhängige Organisation für Weiterbildung im Sinne der Gleichwürdigkeit. In Deutschland gegründet, im Jahr 2006 von Mathias Voelchert der seither das Projekt leitet. familylab.de ist die Adresse für Eltern, Lehrer, Mitarbeiter in Unternehmen, die eine solide Basis im Umgang miteinander finden wollen. Für Menschen, die gerne ihre eigenen Werte, im Dialog mit den Erfahrungen von Jesper Juul und familylab bezüglich Familienleben und Kindererziehung, entwickeln wollen.
In der familienwerkstatt sind wir Spezialisten darin, Vorträge und Seminare zu gestalten, in denen Eltern und professionelle Fachleute Anregungen und Ideen zu ihrer Arbeit finden können. Und um die bestmögliche Chemie innerhalb der Familie, zwischen Kindern und Erwachsenen, wie auch in Beziehungen innerhalb von Schulen und Betrieben, zu schaffen.
Zum einen haben wir den Wunsch, durch Vorträge, Seminare, Workshops, Symposien, Bücher, Artikel und Filme für Eltern und für Fachleute, die psychosoziale Gesundheit und das Wohlergehen der heutigen und zukünftigen Eltern und Kinder zu verbessern. Damit wollen wir die vielen unterschiedlichen Familien darin unterstützen, gesunde Beziehungen zu schaffen, ohne Gewalt und Missbrauch bei Kindern, Jugendlichen und Erwachsenen.
Zum anderen wollen wir durch öffentliche Bildung, Dialoge, Formulierung von Werten und dem Verbreiten von relevanten, wissenschaftlichen Erkenntnisse die Art und Weise beeinflussen, wie Männer und Frauen über ihre Familien denken und sie aufbauen. Ebenso wollen wir die Werte und das Verhalten in Kinderkrippen, Kindergärten und Schulen so beeinflussen, dass eine optimale Umgebung für ein gemeinsames, soziales, emotionales, kreatives und akademisches Lernen entsteht.
Unsere Vision sind Familien, Institutionen und Gesellschaften mit viel weniger Gewalt, Missbrauch, Sucht und Vernachlässigung. Wir wollen allen guten Willen, Liebe und Hingabe mobilisieren, innerhalb von Familien, Organisationen, wie auch in der Gesellschaft als Ganzem.
»Das Schlüsselwort heißt Beziehung. Ihre Qualität entscheidet über unser Wohlbefinden und unsere Entwicklung als Mensch. Kinder werden mit allen wesentlichen menschlichen Qualitäten geboren und haben daher auch dieselbe Verletzlichkeit und Überlebensfähigkeit wie Erwachsene. Eltern zu sein bedeutet, eine Rolle im Leben einzunehmen, die uns vor große Herausforderungen stellt.  –  Das sogenannte Problem oder Symptom ist nicht so wichtig. Wichtig ist die Person, die das Symptom trägt. Wir können das Problem nicht lösen, aber wir können Menschen darin unterstützen, destruktive Systeme, Perspektiven und Verhalten ins Konstruktive zu wandeln.« Jesper Juul
Kontaktdaten:
familylab.de
die familienwerkstatt
Mathias Voelchert GmbH
Amalienstrasse 71
D - 80799 München
http://www.familylab.de/
info@familylab.de
Tel.: 089 - 219 499 71
Fax.: 089 - 22 807 200",,Appointment not needed,Not child friendly,No Volunteer Opportunities,Not accessible by public transport,,,Freier Eintritt,,,Not accessible,,,,,48.150609,11.578477
50670,Input e.V.,Environmental Education,Umweltbildung,"Kontaktdaten:
Input e.V.
Sandstraße 41
80335 München
http://www.inputseminare.de/
info@inputseminare.de
Tel.: 089 291 604 63
Fax.: 089 291 344 5",,Appointment not needed,Not child friendly,No Volunteer Opportunities,Not accessible by public transport,,,Freier Eintritt,,,Not accessible,,,,,48.150213,11.557032
50671,Kultur & Spielraum e.V. München,Environmental Education,Umweltbildung,"Kontaktdaten:
Kultur & Spielraum e.V. München
Ursulastraße 5
80802 München 
Tel.: (089) 34 16 76
Fax: (089) 34 16 77
http://www.kulturundspielraum.de/
info@kulturundspielraum.de",,Appointment not needed,Not child friendly,No Volunteer Opportunities,Not accessible by public transport,,,Freier Eintritt,,,Not accessible,,,,,48.161475,11.590692
50672,oekom e. V.,Environmental Education,"Umweltbildung, Unabhängige Öko-Medien","Kontaktdaten:
oekom e. V. - Verein für ökologische Kommunikation e. V.
Waltherstr. 29
80337 München
http://www.oekom-verein.de/
info@oekom-verein.de
Tel.: +49 (0)89 / 54 41 84 11
Fax: +49 (0) 89 / 76 75 89 56",,Appointment not needed,Not child friendly,No Volunteer Opportunities,Not accessible by public transport,,,Freier Eintritt,,,Not accessible,,,,,48.128605,11.559299
50673,Walderlebniszentrum Grünwald,Environmental Education,Umweltbildung,"Walderlebniszentrum Grünwald
Sauschütt
82031 Grünwald 
http://www.alf-eb.bayern.de/bildung/23732/index.php
kontakt@walderlebniszentrum-gruenwald.de 
Tel.: (089) 6 49 20 99
Fax: (089) 64 91 69 74",,Appointment not needed,Not child friendly,No Volunteer Opportunities,Not accessible by public transport,,,Freier Eintritt,,,Not accessible,,,,,48.025894,11.525533
50674,Walderlebniszentrum Grünwald,Environmental Education,Umweltbildung,"Walderlebniszentrum Grünwald
Sauschütt
82031 Grünwald 
http://www.alf-eb.bayern.de/bildung/23732/index.php
kontakt@walderlebniszentrum-gruenwald.de 
Tel.: (089) 6 49 20 99
Fax: (089) 64 91 69 74",,Appointment not needed,Not child friendly,No Volunteer Opportunities,Not accessible by public transport,,,Freier Eintritt,,,Not accessible,,,,,48.025894,11.525533
50970,Hochschule München,Environmental Education,Umweltbildung,"Kontaktdaten:
Hochschule München
Lothstr. 34
D-80335 München
http://hm.edu/
webmaster@hm.edu
Tel.: +49 (0) 89 12 65 - 0",,Appointment not needed,Not child friendly,No Volunteer Opportunities,Not accessible by public transport,,,Freier Eintritt,,,Not accessible,,,,,48.153636,11.552998
50979,Institut für Angewandte Kulturelle Bildung (IAKB),Environmental Education,Umweltbildung,"Kontaktdaten:
Institut für Angewandte Kulturelle Bildung
Dachauer Straße 112d,
80636 München
http://www.iakb.de/
post@iakb.de
Tel.: +49.(0)89.32494946
Mobil: +49.(0)173.513 05 98",,Appointment not needed,Not child friendly,No Volunteer Opportunities,Not accessible by public transport,,,Freier Eintritt,,,Not accessible,,,,,48.158111,11.549316
50980,Landesvereinigung Kulturelle Bildung Bayern e.V. (LKB:BY),Environmental Education,Umweltbildung,"Kontaktdaten:
Landesvereinigung Kulturelle Bildung Bayern e.V. (LKB:BY)
c/o Pädagogische Aktion/SPIELkultur e.V.
Leopoldstr. 61,
80802 München
http://www.lkb-by.de/
info@lkb-by.de
Fon: +49 (0)89.2 60 92 08
Fax: +49 (0)89.26 85 75",,Appointment not needed,Not child friendly,No Volunteer Opportunities,Not accessible by public transport,,,Freier Eintritt,,,Not accessible,,,,,48.161580,11.585430
47688,Weltladen,Fair Trade,"Öko-Produkte, Grünes Unternehmen, Grünes Geschäft, Fair Trade, Sozialverantwortliches Unternehmen","Weißenburger Straße 14
81667 München ‎",,Termin nötig,Kinder erwünscht,No Volunteer Opportunities,Anschluss zu öffentlichen Verkehrsmitteln,,,Freier Eintritt,,,Not accessible,,,,,48.128757,11.596996
47689,Weltladen,Fair Trade,"Öko-Produkte, Grünes Geschäft, Flohmarkt, Fair Trade","Brecherspitzstraße 8
81541 München ‎ 
http://weltladen-muenchen.de/",,Appointment not needed,Not child friendly,No Volunteer Opportunities,Anschluss zu öffentlichen Verkehrsmitteln,,,Freier Eintritt,,,Behindertengerecht,,,,,48.115763,11.590236
47690,Oxfam Laden,Fair Trade,"Grünes Geschäft, Flohmarkt, Fair Trade, Sozialverantwortliches Unternehmen","Türkenstraße 81
80799 München ‎",,Appointment not needed,Kinder erwünscht,No Volunteer Opportunities,Anschluss zu öffentlichen Verkehrsmitteln,,,Freier Eintritt,,,Behindertengerecht,,,,,48.152144,11.577340
48181,Fair-Teiler,Fair Trade,Fair Trade,"Fair-Teiler
Fasaneriestraße, 80636 München ‎ 
http://foodsharing.de/fairteiler/anzeigen/225",,Appointment not needed,Not child friendly,No Volunteer Opportunities,Not accessible by public transport,,,Freier Eintritt,,,Not accessible,,,,,48.158096,11.542965
48717,FAIR Handelshaus Bayern eG,Fair Trade,"Fair Trade, Gemeinnützige Einrichtung","Kontaktdaten:
FAIR Handelshaus Bayern eG
Dr. Markus Raschke  -  Vorstand
Alte Kreisstrasse 29  -  85778 Haimhausen-Amperpettenbach
raschke@fairbayern.de
www.fairbayern.de  -  www.faire-geschenke.de
Tel.: 08133-917807
Fax 08133-6744",,Appointment not needed,Not child friendly,No Volunteer Opportunities,Not accessible by public transport,,,Freier Eintritt,,,Not accessible,,,,,48.313356,11.544113
48718,Fair Trade Shop,Fair Trade,"Grünes Unternehmen, Fair Trade","Kontaktdaten:
Stachus Passagen
Karlsplatz, 1.UG
Sonnen-Passage
80335 München
http://www.fairtradeshop.com/
info@fairtradeshop.com
Tel.: 089-550 676 40
Sie suchen ein Kauferlebnis mit Genuss und der Gewissheit, zu einer gerechteren Welt ein wenig beizutragen? Dann sind Sie bei uns genau richtig.
Wir präsentieren Ihnen in der Münchner City über 1.000 Artikel aus Fairem Handel sowie größtenteils ökologischer Herstellung. Neben Fair Fashion-Produkten und kreativen Geschenkideen finden Sie ausgesuchte Lebensmittelspezialitäten wie bio-faire Zotter-Schokoladen, Hochlandkaffee aus Mexiko, Tee mit tropischen Aromen oder edle Weine.
Neu sind die beanarella Kaffeekapseln, die wir mit den dazugehörigen Maschinen anbieten. Es sind die weltweit ersten Kaffeekapseln, die zu 100% biologisch abbaubar und kompostierbar sind. Der Kaffee stammt aus Fairem Handel und biologischem Anbau. Mehr Infos finden Sie unter http://www.fairtradeshop.com/lebensmittel/beanarella.html
Besuchen Sie uns in den Münchner Stachus Passagen.
Wir freuen uns auf Sie.",,Appointment not needed,Kinder erwünscht,No Volunteer Opportunities,Anschluss zu öffentlichen Verkehrsmitteln,,,Freier Eintritt,,,Behindertengerecht,,,,,48.139180,11.565092
50656,Baobab Social Business GmbH,Fair Trade,Fair Trade,"Innovative Produkte mit einem sozialen Unternehmenskonzept zu vereinen war von Anfang an unser Antrieb. Um damit positive Wirkung zu erzielen, wo sie notwendig ist. Und sich dabei nicht auf Kosten anderer zu bereichern. Das ist Baobab Social Business mit seiner Marke BAOLA.
Wir wollen unseren gemeinnützigen Beitrag leisten, um den Bedarf an klassischen Hilfsmaßnahmen für Länder mit Entwicklungsbedarf langfristig und nachhaltig zu reduzieren.
Wir unterstützen und initiieren Bildungsprojekte über fairen Handel und bewussten Konsum. Potentielle Fairhandelsproduzenten stärken wir bei dem Aufbau von Kooperationen. Unsere fair gehandelten BAOLA Produkte aus der Frucht des Affenbrotbaums erwirtschaften die dafür notwendigen finanziellen Mittel.
Kontaktdaten:
Baobab Social Business GmbH
Tizianstraße 3
D - 80637 München
www.baobab.org
info@basobu.de  
Fon +49 176 32049883",,Appointment not needed,Not child friendly,No Volunteer Opportunities,Not accessible by public transport,,,Freier Eintritt,,,Not accessible,,,,,48.162658,11.531755
47439,Wochenmarkt Haidhausen,Farmers/Local Market,Wochenmarkt,"Dienstag  08.00 - 12.00 Uhr
Tuesday   08.00 - 12.00 Uhr",,Appointment not needed,Kinder erwünscht,No Volunteer Opportunities,Anschluss zu öffentlichen Verkehrsmitteln,,,Freier Eintritt,,,Behindertengerecht,,,,,48.128593,11.594543
47440,Wochenmarkt Au,Farmers/Local Market,"Wochenmarkt, Öko-Landwirtschaft/Permakultur !!!!!überprüfe ob permakultur","Local market
Mo , Di 	geschlossen
Mi 	08:00 - 13:00
Do , Fr 	geschlossen
Sa 	07:00 - 13:00
So 	geschlossen",,Appointment not needed,Kinder erwünscht,No Volunteer Opportunities,Anschluss zu öffentlichen Verkehrsmitteln,,,Freier Eintritt,,,Behindertengerecht,Mariahilfplatz,Munich,,81541,48.125494,11.583374
47442,Wochenmarkt Au,Farmers/Local Market,"Wochenmarkt, Öko-Landwirtschaft/Permakultur","Mo , Di 	geschlossen
Mi 	08:00 - 13:00
Do , Fr 	geschlossen
Sa 	07:00 - 13:00
So 	geschlossen",,Termin nötig,Kinder erwünscht,No Volunteer Opportunities,Anschluss zu öffentlichen Verkehrsmitteln,,,Freier Eintritt,,,Behindertengerecht,,,,,48.125494,11.583374
47444,Wochenmarkt Haidhausen,Farmers/Local Market,"Wochenmarkt, Öko-Landwirtschaft/Permakultur","Dienstag 08.00 - 12.00 Uhr
Tuesday 08.00 - 12.00 Uhr",,Appointment not needed,Not child friendly,No Volunteer Opportunities,Not accessible by public transport,,,Freier Eintritt,,,Not accessible,Weissenburgerstrasse 2,Munich,,,48.128593,11.594543
47447,Viktualienmarkt,Farmers/Local Market,"Wochenmarkt, Öko-Landwirtschaft/Permakultur, Organische/regionale Kost",Traditional Bavarian market,,Appointment not needed,Kinder erwünscht,No Volunteer Opportunities,Anschluss zu öffentlichen Verkehrsmitteln,,,Freier Eintritt,,,Behindertengerecht,,,,,48.134991,11.576757
47448,Elisabethmarkt,Farmers/Local Market,"Wochenmarkt, Öko-Landwirtschaft/Permakultur",Der Markt ist nach der österreichischen Kaiserin Sissi benannt und bietet auf rund 3.000 Quadratmetern das komplette Spektrum von Obst und Gemüse über Fleisch und Geflügel bis zu Feinkost und Imbissen.,,Appointment not needed,Not child friendly,No Volunteer Opportunities,Not accessible by public transport,,,Freier Eintritt,,,Not accessible,,,,,48.156861,11.574215
47449,Wochenmarkt Neuhausen,Farmers/Local Market,"Wochenmarkt, Öko-Landwirtschaft/Permakultur","Donnerstag 10.00 - 19.00 Uhr
Thursday     10.00 - 19.00 Uhr",,Appointment not needed,Not child friendly,No Volunteer Opportunities,Not accessible by public transport,,,Freier Eintritt,,,Not accessible,,,,,48.151786,11.533649
47450,Wochenmarkt Untersendling,Farmers/Local Market,"Wochenmarkt, Öko-Landwirtschaft/Permakultur","Samstag 07.00 - 13.00 Uhr
Saturday 07.00 - 13.00 Uhr",,Appointment not needed,Not child friendly,No Volunteer Opportunities,Not accessible by public transport,,,Freier Eintritt,,,Not accessible,,,,,48.112474,11.548133
51494,Genussgemeinschaft Städter und Bauern,Farmers/Local Market,Wochenmarkt,"Kontaktdaten:
Genussgemeinschaft Städter und Bauern
Zeppelinstr. 16
81541 München
http://www.genussgemeinschaft.de/
petrawaehning@t-online.de
Tel.: 0174-9908876",,Appointment not needed,Not child friendly,No Volunteer Opportunities,Not accessible by public transport,,,Freier Eintritt,,,Not accessible,,,,,48.126505,11.581848
52815,Bauernmarkt Ottobrunn,Farmers/Local Market,Wochenmarkt,"Kontaktdaten:
Ottobrunn
Bahnhofsplatz
Mittwoch: 10.00 -18.00 Uhr
Bauernmarkt München e.V.
www.muenchner-bauernmaerkte.de
info@muenchner-bauernmaerkte.de 
Telefon (0 89) 55873450
Telefax  (0 89) 55873-470",,Appointment not needed,Not child friendly,No Volunteer Opportunities,Not accessible by public transport,,,Freier Eintritt,,,Not accessible,,,,,48.062952,11.679282
52817,Bauernmarkt Harlaching,Farmers/Local Market,Wochenmarkt,"Kontaktdaten:
Mangfallplatz
81547 München
Mittwoch 14.00-18.00 Uhr
Bauernmarkt München e.V.
www.muenchner-bauernmaerkte.de
info@muenchner-bauernmaerkte.de
Telefon (0 89) 55873450
Telefax (0 89) 55873-470",,Appointment not needed,Not child friendly,No Volunteer Opportunities,Not accessible by public transport,,,Freier Eintritt,,,Not accessible,,,,,48.097780,11.581639
52818,Bauernmarkt Au,Farmers/Local Market,Wochenmarkt,"Kontaktdaten:
Mariahilfplatz
81541 München
Mittwoch: 7.00 - 13.00 Uhr
Bauernmarkt München e.V.
www.muenchner-bauernmaerkte.de
info@muenchner-bauernmaerkte.de
Telefon (0 89) 55873450
Telefax (0 89) 55873-470",,Appointment not needed,Not child friendly,No Volunteer Opportunities,Not accessible by public transport,,,Freier Eintritt,,,Not accessible,,,,,48.125438,11.584117
52819,Bauenrnmarkt Theresienhöhe,Farmers/Local Market,Wochenmarkt,"Kontaktdaten:
Georg-Freundorfer-Platz
80339 München
Donnerstag 10.00-18.00 Uhr
Bauernmarkt München e.V.
www.muenchner-bauernmaerkte.de
info@muenchner-bauernmaerkte.de
Telefon (0 89) 55873450
Telefax (0 89) 55873-470",,Appointment not needed,Not child friendly,No Volunteer Opportunities,Not accessible by public transport,,,Freier Eintritt,,,Not accessible,,,,,48.134332,11.538402
52820,Bauernmarkt Laim,Farmers/Local Market,Wochenmarkt,"Kontaktdaten:
Fürstenrieder / Agnes-Bernauer-Str.
80687 München
Freitag 7.30-13.00 Uhr
Bauernmarkt München e.V.
www.muenchner-bauernmaerkte.de
info@muenchner-bauernmaerkte.de
Telefon (0 89) 55873450
Telefax (0 89) 55873-470",,Appointment not needed,Not child friendly,No Volunteer Opportunities,Not accessible by public transport,,,Freier Eintritt,,,Not accessible,,,,,48.139573,11.502889
52821,Bauernmarkt Lehel,Farmers/Local Market,Wochenmarkt,"Kontaktdaten:
St.-Anna-Platz
80538 München
Donnerstag 11.00-18.0 Uhr
Bauernmarkt München e.V.
www.muenchner-bauernmaerkte.de
info@muenchner-bauernmaerkte.de
Telefon (0 89) 55873450
Telefax (0 89) 55873-470",,Appointment not needed,Not child friendly,No Volunteer Opportunities,Not accessible by public transport,,,Freier Eintritt,,,Not accessible,,,,,48.140189,11.588044
52822,"Bauernmarkt Maxvorstadt, Pinakothek der Moderne",Farmers/Local Market,Wochenmarkt,"Kontaktdaten:
Pinakothek der Moderne
80333 München
Samstag 7.00-13.00
Bauernmarkt München e.V.
www.muenchner-bauernmaerkte.de
info@muenchner-bauernmaerkte.de
Telefon (0 89) 55873450
Telefax (0 89) 55873-470",,Appointment not needed,Not child friendly,No Volunteer Opportunities,Not accessible by public transport,,,Freier Eintritt,,,Not accessible,,,,,48.147606,11.571178
52823,"Bauernmarkt Maxvorstadt, St. Benno-Kirche",Farmers/Local Market,Wochenmarkt,"Kontaktdaten:
St. Benno-Kirche
80335 München
Dienstag 10.00-18.00 Uhr
Bauernmarkt München e.V.
www.muenchner-bauernmaerkte.de
info@muenchner-bauernmaerkte.de
Telefon (0 89) 55873450
Telefax (0 89) 55873-470",,Appointment not needed,Not child friendly,No Volunteer Opportunities,Not accessible by public transport,,,Freier Eintritt,,,Not accessible,,,,,48.151686,11.552274
52825,"Bauernmarkt Maxvorstadt, Zieblandstraße",Farmers/Local Market,Wochenmarkt,"Kontaktdaten:
Zieblandstraße
80799 München
Dienstag 11.00-18.00 Uhr
Bauernmarkt München e.V.
www.muenchner-bauernmaerkte.de
info@muenchner-bauernmaerkte.de
Telefon (0 89) 55873450
Telefax (0 89) 55873-470",,Appointment not needed,Not child friendly,No Volunteer Opportunities,Not accessible by public transport,,,Freier Eintritt,,,Not accessible,,,,,48.153887,11.566061
52826,Bauernmarkt Schwabing,Farmers/Local Market,Wochenmarkt,"Kontaktdaten:
Fritz-Hommel-Weg
80805 München
Samstag 7.00-13.00 Uhr
Bauernmarkt München e.V.
www.muenchner-bauernmaerkte.de
info@muenchner-bauernmaerkte.de
Telefon (0 89) 55873450
Telefax (0 89) 55873-470",,Appointment not needed,Not child friendly,No Volunteer Opportunities,Not accessible by public transport,,,Freier Eintritt,,,Not accessible,,,,,48.172790,11.595426
52827,Bauernmarkt Obermenzing,Farmers/Local Market,Wochenmarkt,"Kontaktdaten:
Rüttenauer Platz
München
Freitag 7.30-13.00 Uhr
Bauernmarkt München e.V.
www.muenchner-bauernmaerkte.de
info@muenchner-bauernmaerkte.de
Telefon (0 89) 55873450
Telefax (0 89) 55873-470",,Appointment not needed,Not child friendly,No Volunteer Opportunities,Not accessible by public transport,,,Freier Eintritt,,,Not accessible,,,,,48.162869,11.448956
52615,Ulrikes Gärten,Garden,Garten,"Kontaktdaten:
Ulrikes Gärten
Ulrike Widmer-Thiel
L7 Planer & Architekten
Welserstr. 25
81373 München
http://www.xn--ulrikes-grten-jfb.de/
ulrikewidmer@hotmail.com
Tel: 089-7211448",,Appointment not needed,Not child friendly,No Volunteer Opportunities,Not accessible by public transport,,,Freier Eintritt,,,Not accessible,,,,,48.122201,11.533746
52616,Ulrikes Gärten,Garden,Garten,"Kontaktdaten:
Ulrikes Gärten
Ulrike Widmer-Thiel
L7 Planer & Architekten
Welserstr. 25
81373 München
http://www.xn--ulrikes-grten-jfb.de/
ulrikewidmer@hotmail.com
Tel: 089-7211448",,Appointment not needed,Not child friendly,No Volunteer Opportunities,Not accessible by public transport,,,Freier Eintritt,,,Not accessible,,,,,48.122201,11.533746
51472,Münchner Gesellschaft für Stadterneuerung mbH (MGS),Gentrification,"Grünes Gebäude, Gentrifizierung","Kontaktdaten:
Münchner Gesellschaft für Stadterneuerung mbH (MGS)
Haager Str. 5
81671 München
http://www.mgs-muenchen.de/
mgs@mgs-muenchen.de
Tel. 089.233-339 00
Fax 089.233-339 89",,Appointment not needed,Not child friendly,No Volunteer Opportunities,Not accessible by public transport,,,Freier Eintritt,,,Not accessible,,,,,48.127086,11.608509
51476,Recht auf Stadt,Gentrification,Gentrifizierung,"Kontaktdaten:
Recht auf Stadt
Thomas Scharl
Landsberger Str. 137
81241 München
http://rechtaufstadtmuc.wordpress.com/
rechtaufstadtmuc@yahoo.de",,Appointment not needed,Not child friendly,No Volunteer Opportunities,Not accessible by public transport,,,Freier Eintritt,,,Not accessible,,,,,48.140053,11.530243
48805,"Bayerisches Staatsministerium für Ernährung, Landwirtschaft und Forsten",Government Office,Verwaltungsgebäude,"Bayerisches Staatsministerium für Ernährung, Landwirtschaft und Forsten
Ludwigstraße 2, 80539 München
089 / 2182 – 0
poststelle@stmelf.bayern.de
www.stmelf.bayern.de
Die Land- und Forstwirtschaft wird Ihrer Verantwortung gegenüber der Gesellschaft und der Natur gerecht und verleiht Bayern ein unvergleichliches Gesicht. Sie ist Garant für die Pflege unserer einmaligen Landschaft, für die Erzeugung qualitativ hochwertiger Lebensmittel und erneuerbarer Energien.
Ziel der bayerischen Agrarpolitik ist es, den Agrarstandort Bayern zu sichern und günstige Rahmenbedingungen zu schaffen, dass jeder bäuerliche Familienbetrieb unabhängig von seiner Größe und Betriebsausrichtung Zukunftschancen hat. Unser Leitbild ist dabei eine tiergerechte, ressourcenschonende und nachhaltige, flächendeckende bäuerliche Landwirtschaft.
Bayerns Waldbesitzer unterstützt das Bayerische Staatsministerium für Ernährung, Landwirtschaft und Forsten bei einer nachhaltigen Bewirtschaftung ihrer Wälder und dabei, stabile Mischbestände anzulegen, die Stürmen, Schädlingsbefall und Trockenheit besser wieder stehen. Mit unserem Motto „Schützen und Nutzen“ schlagen wir nicht mehr Holz ein als nachwächst; so erfüllen wir den Generationenvertrag.
Mit dem Konzept „Ernährung in Bayern“ setzen wir auf eine gesunde Ernährung von klein auf. Die Spezialitäten aus Bayern liefern uns dabei die täglichen Genüsse.
Den Verfassungsgrundsatz der gleichwertigen Lebensbedingungen in Stadt und Land setzen wir gemeinsam mit den Bürgern in Integrierten Ländlichen Entwicklungen und Leader-Projekten um.",,Appointment not needed,Not child friendly,No Volunteer Opportunities,Not accessible by public transport,,,Freier Eintritt,,,Not accessible,,,,,48.147964,11.579461
51481,Institut für Baubiologie + Nachhaltigkeit IBN,Green Building,Grünes Gebäude,"Baubiologie ist die Lehre von den ganzheitlichen Beziehungen zwischen den Menschen und ihrer Wohn- und Arbeitsumwelt. Das unabhängige Institut für Baubiologie + Nachhaltigkeit IBN engagiert sich für gesundes und nachhaltiges Bauen und Wohnen, bildet aus und qualifiziert ( Fernlehrgang Baubiologie u.a.), informiert ( Zeitschrift Wohnung + Gesundheit, Fachbücher u.a.), begleitet planend und beratend bei Baumaßnahmen, Sanierungen und Einrichtungen, führt Messungen durch, zertifiziert Bauprodukte und bietet Ausstellungen und Vorträge in einem 2014 erstellen Institutsgebäude in Plusenergiebauweise . Weitere Informationen finden Sie auf www.baubiologie.de
Kontaktdaten:
Institut für Baubiologie + Nachhaltigkeit IBN
Erlenaustraße 40
83022 Rosenheim
www.baubiologie.de",,Appointment not needed,Not child friendly,No Volunteer Opportunities,Not accessible by public transport,,,Freier Eintritt,,,Not accessible,,,,,47.866994,12.128064
51487,Planungsgruppe Rundum,Green Building,Grünes Gebäude,"Kontaktdaten:
Planungsgruppe Rundum
Geyerstraße 20 / Gartenhaus
80469 München
Tel.: (089) 2025160",,Appointment not needed,Not child friendly,No Volunteer Opportunities,Not accessible by public transport,,,Freier Eintritt,,,Not accessible,,,,,48.124985,11.565500
51488,Forum für Baugemeinschaften München e.V,Green Building,Grünes Gebäude,"Kontaktdaten:
Forum für Baugemeinschaften München e.V.
Auenstraße 28
80469 München
www.forum-baugemeinschaften.de
info@forum-baugemeinschaften.de
Tel.: 089  18 95 188-98",,Appointment not needed,Not child friendly,No Volunteer Opportunities,Not accessible by public transport,,,Freier Eintritt,,,Not accessible,,,,,48.127003,11.572938
51489,Lehrstuhl für Holzbau und Baukonstruktion,Green Building,Grünes Gebäude,"Kontaktdaten:
Lehrstuhl für Holzbau und Baukonstruktion
Postanschrift:
80290 München
Hausanschrift:
Arcisstraße 21
80333 München
Raum Nr. 3025
3. Stockwerk
TUM Hauptgebäude
http://www.hb.bgu.tum.de/
Tel.: +49.89.289.22416
Fax: +49.89.289.23014",,Appointment not needed,Not child friendly,No Volunteer Opportunities,Not accessible by public transport,,,Freier Eintritt,,,Not accessible,,,,,48.148690,11.568671
51490,Urbanes Wohnen e.V.,Green Building,Grünes Gebäude,"Kontaktdaten:
Urbanes Wohnen e.V.München
Nikolaiplatz 1b
80802 München
http://www.urbanes-wohnen.de/
Tel.: 089/ 398682",,Appointment not needed,Not child friendly,No Volunteer Opportunities,Not accessible by public transport,,,Freier Eintritt,,,Not accessible,,,,,48.158638,11.587724
51491,Wohnbaugenossenschaft wagnis eG,Green Building,Grünes Gebäude,"Kontaktdaten:
Wohnbaugenossenschaft wagnis eG
Volkartstr. 2a
80634 München
http://www.wagnis.org/
wagnis@wagnis.org
Tel. (0 89) 189 116 50
Fax (0 89) 189 116 51",,Appointment not needed,Not child friendly,No Volunteer Opportunities,Not accessible by public transport,,,Freier Eintritt,,,Not accessible,,,,,48.154517,11.530192
51492,wohnbund e.V.,Green Building,Grünes Gebäude,"Kontaktdaten:
wohnbund e.V.
Verband zur Förderung wohnungspolitischer Initiativen
Aberlestraße 16 /Rgb.
81371 München
http://www.wohnbund.de/
info@wohnbund.de
Tel +89 74 68 96 11
Fax +89 72 55 074",,Appointment not needed,Not child friendly,No Volunteer Opportunities,Not accessible by public transport,,,Freier Eintritt,,,Not accessible,,,,,48.120628,11.545236
51493,Wohnen ohne Auto,Green Building,"Grünes Gebäude, Alternativer Kraftstoff","Kontaktdaten:
Wohnen ohne Auto
c/o VCD
Breisacher Str. 12
81667 München 
http://www.wohnen-ohne-auto.de/
Tel. (089) 201 18 98
Fax: (089) 201 53 13",,Appointment not needed,Not child friendly,No Volunteer Opportunities,Not accessible by public transport,,,Freier Eintritt,,,Not accessible,,,,,48.129567,11.602142
52854,DU Diederichs Projektmanagement AG & Co. KG,Green Building,Grünes Gebäude,"Kontaktdaten:
DU Diederichs Projektmanagement AG & Co. KG
Brienner Straße 44
80333 München 
https://www.du-diederichs.de
info@du-diederichs.de
Tel.: +49 (0) 89. 15 90 67 51.0
Fax +49 (0) 89. 15 90 67 51.27",,Appointment not needed,Not child friendly,No Volunteer Opportunities,Not accessible by public transport,,,Freier Eintritt,,,Not accessible,,,,,48.147072,11.561364
52600,Die Rausfrauen,Green by Design,"Kulturstätte, Green by Design","Kontaktdaten:
Die Rausfrauen
Institut für angewandte Raumaneigung GbR
c/o Sissi Schmitz
Heßstr. 37
80798 München 
http://rausfrauen.tumblr.com/
post@rausfrauen.de",,Appointment not needed,Not child friendly,No Volunteer Opportunities,Not accessible by public transport,,,Freier Eintritt,,,Not accessible,,,,,48.152076,11.565076
51773,M.B. Gebäudeservice UG,Green Cleaning,Grüne Reinigung,"Kontaktdaten:
M.B. Gebäudeservice UG
Waldeckstraße 60
81543 München
http://www.mb-gebaeudeservice.de/
info@mb-gebaeudeservice.de
Tel.: +49 89 330 983 01 / +49 151 230 379 81
Fax.: +49 89 330 983 02",,Appointment not needed,Not child friendly,No Volunteer Opportunities,Not accessible by public transport,,,Freier Eintritt,,,Not accessible,,,,,48.112018,11.571878
51774,Güteclean Gebäudereinigungs GmbH,Green Cleaning,Grüne Reinigung,"Kontaktdaten:
Güteclean Gebäudereinigungs GmbH
Prinzregentenstr. 124
81677 München
www.gueteclean.de
info@gueteclean.de
Tel.: 089 - 24 29 18 30
Fax: 089 - 24 29 18 31",,Appointment not needed,Not child friendly,No Volunteer Opportunities,Not accessible by public transport,,,Freier Eintritt,,,Not accessible,,,,,48.138109,11.616103
47971,ALTOP Verlags-und Vertriebsgesellschaft mbH,Green Enterprise,Grünes Unternehmen,"Seit 1984 gehört der ALTOP Verlag mit seinem Nachschlagewerk ""ECO-World - Das alternative Branchenbuch"" sowie dem Portal www.eco-world.de zu den führenden Informationsanbietern rund um Ökologie und Ökonomie und transportiert damit die Bedeutung nachhaltigen Wirtschaftens. Das Angebot basiert auf einer umfassenden Datenbank mit über 20.000 Adressen und wird durch den Presseverteiler „ECO-News“, Veranstaltungstipps und Fachbeiträge aus den Bereichen Umwelt, Gesundheit und Lifestyle mit Leben gefüllt.
Seit 2005 betreibt der Verlag das Nachhaltigkeitsportal www.forum-csr.net in Kombination mit der Printausgabe ""forum Nachhaltig Wirtschaften"".
ALTOP Verlags- und Vertriebsgesellschaft mbH
Gotzinger Str. 48
81371 München
www.eco-world.de
info@eco-world.de
Tel.: +49 (0)89 74 66 11-0
Fax: +49 (0)89 74 66 11-60",,Appointment not needed,Not child friendly,No Volunteer Opportunities,Not accessible by public transport,,,Freier Eintritt,,,Not accessible,,,,,48.118996,11.550261
47972,"Dr Reinhard Witt, Naturnaher Grünplaner",Green Enterprise,"Grünes Unternehmen, Regionaler Betrieb","http://www.naturgartenplaner.de/profil/
Dr. Reinhard Witt aus dem oberbayerischen Ottenhofen, Jahrgang 1953, freiberuflicher Biologe, Journalist und naturnaher Grünplaner. Seit 25 Jahren intensiv mit dem Thema naturnahe Garten- und Landschaftsgestaltung befaßt.  Planung und Realisierung von Grünprojekten im Privaten und Öffentlichen. Leiter von Praxisseminaren im naturnahen Bereich.
Was gerade geht? Es scheint eine gute Zeit für Nachhaltigkeit anzubrechen. Wildpflanzen werden straßen- und stadtfein. Das zeigen aktuelle Projekte der letzten Zeit. Naturvielfalt in der Gemeinde im Österreichischen Rankweil,  zwei Umspannwerke bei E.ON in Passau und Etting, Umgestaltungen in den Stammwerken von Mercedes-Benz (Gaggenau) oder BASF (Ludwigshafen), ein Biohotel (Grünwald) und - speziell - nicht grün, aber bunt:  Villa Reitzenstein, Amtssitz des Baden-Württembergischen Ministerpräsidenten Winfried Kretschmann.
Seine Projekte erhielten zahlreiche öffentliche Preise. Etwa 2006 der Natur-Erlebnis-Spielplatz Eglfing den Ehrenpreis im bayerischen Wettbewerb für ländliche Entwicklung. 2010 der Natur-Erlebnis-Spielplatz Ottenhofen im Wettbewerb Grüne Spielplätze der Stiftung die Grüne Stadt. Zuletzt der Natur-Erlebnis-Kindergarten Tegernsee den Bayerischen Biodiversitätspreis 2012. Im Mai 2013 wird die naturnahe Gestaltung des Daimler-Firmengeländes als UN-Dekade-Projekt ausgezeichnet.
Mit Manfred Pappler von der bayerischen Akademie für Lehrerfortbildung von 1993-2000 Entwicklung, Bau und Pflege der Natur-Erlebnis-Schulhöfe nach dem Dillinger Modell. 1999 Preis für Wege der Naturerziehung der Deutschen Gartenbau-Gesellschaft. Mit Michael von Ferrari von der Gemeinde Haar seit 1998 Anlage, Entwicklung und Pflege öffentlicher Blumenwiesen nach dem Haarer Modell. 
Vielfacher Buchautor, davon allein 21 Bücher über naturnahe Grüngestaltung und heimische Wildpflanzen. 1996 Buchpreis der Deutschen Gartenbau-Gesellschaft für das Buch ""Blumenwiesen"".
 2007 das 2. Mal der Buchpreis der Deutschen Gartenbau-Gesellschaft, diesmal für ""Nachhaltige Pflanzungen und Ansaaten"".
Außerdem mit ""Wir entdecken die Natur"" der Umweltpreis der Kinder- und Jugendliteratur 2007.
2010 der Deutsche Gartenbuchpreis als ""Bester Ratgeber"" für ""Naturnahe Rosen, Band 1 Strauchrosen"" und 2012 für Band 2 Kletter- und Kleinstrauchrosen"".
Seit 1990 Mitgründer und ehrenamtlicher Vorstand des bundesweit aktiven Vereins für naturnahe Garten- und Landschaftsgestaltung (Naturgarten e.V.). Seit 1999 geprüfter Fachbetrieb für Naturnahes Grün - empfohlen von Bioland.",,Termin nötig,Not child friendly,No Volunteer Opportunities,Not accessible by public transport,,,Freier Eintritt,,,Not accessible,,,,,48.123079,11.613464
48714,Green City Energy,Green Enterprise,Grünes Unternehmen,"Green City Energy steht als Tochter der gemeinnützigen Umweltschutzorganisation Green City e.V. für eine dezentrale Energiewende in Bürgerhand hin zu 100 Prozent Erneuerbare Energien. Zu diesem Zweck projektiert, baut und verwaltet Green City Energy regenerative Energieanlagen aus den Bereichen Windenergie, Wasserkraft und Photovoltaik und bietet die privaten Anlegern zur finanziellen Beteiligung an. Zusätzlich berät und begleitet Green City Energy Städte, Landkreise und Kommunen auf dem Weg zur lokalen Energiewende. Mehr über Green City Energy finden Sie hier: www.greencity-energy.de.
Kontaktdaten:
Green City Energy AG
Zirkus-Krone-Straße 10
D - 80335 München                     
www.greencity-energy.de
info@greencity-energy.de
Fon +49/ (0)89/ 89 06 68 - 800
Fax +49/ (0)89/ 89 06 68 - 880",,Appointment not needed,Not child friendly,No Volunteer Opportunities,Not accessible by public transport,,,Freier Eintritt,,,Not accessible,,,,,48.145008,11.549857
48715,DES-PRO GmbH,Green Enterprise,Grünes Unternehmen,"CO2 – Ausstoß signifikant senken.
Heizen, Kühlen und Warmwasser mit regenerativer Energie mit der Solar-Wasser/Luft-Wasser WÄRMEPUMPE und der Thermo-Solar- Einheit
Die Wärmepumpe und die Anlage wurden entwickelt, um die Radiatoren- Zentralheizung von Bestands-Häusern zu unterstützen und Neubauten mit Fußbodenheizung zu beheizen- annähernd ausschließlich mit erneuerbarer Energie- geothermischer und Solarenergie.Sämtliche Quell-Energien werden optimal genutzt, fossile Brennstoffe ersetzt. Durch die neu entwickelten Software Routinen wird sowohl die Energiegewinnung optimiert. als auch Zwischenspeicher vermieden.Die Wärmepumpe wird bevorzugt in frostgefährdeten Räumen wie Keller oder Garagen aufgestellt und versorgt Wohnhäuser
Optimale Nutzung von erneuerbaren Energien, insbesondere der        Solar-Energie
Nutzung der Energie der Umgebungsenergie (Luftwärme,        Kondensationswärme), Erdwärme bei niedrigen Investment-Kosten
Kontaktdaten:
DES-PRO GmbH
Liebensteinstr.14
81243 München
http://www.des-pro.de/
ernst.markart@des-pro.de",,Appointment not needed,Not child friendly,No Volunteer Opportunities,Not accessible by public transport,,,Freier Eintritt,,,Not accessible,,,,,48.153062,11.421690
48716,projekt21plus energie neu denken,Green Enterprise,Grünes Unternehmen,"projekt21plus
energie neu denken
http://www.projekt21plus.de
Fon:    089 35 65 33 44
fax:    089 35 65 33 43
info@projekt21plus.de
volkartstr. 46
80636 münchen",,Appointment not needed,Not child friendly,No Volunteer Opportunities,Not accessible by public transport,,,Freier Eintritt,,,Not accessible,,,,,48.154459,11.526768
50657,Gehrlicher Solar Services GmbH,Green Enterprise,"Solarenergie, Grünes Unternehmen","Die Gehrlicher-Gruppe ist ein international tätiges Photovoltaik-Unternehmen aus Deutschland mit Projekterfahrung auf vier Kontinenten. Sie bietet Investoren eine ganzheitliche Begleitung über die gesamte Wertschöpfung hinweg. Dabei entwickelt und realisiert die Gruppe Photovoltaikanlagen auf Freiflächen und Dächern vom Gewerbebetrieb bis zur Multi-Megawattanlage, integriert dabei Komponenten aus der eigenen Produktfamilie GehrTec® und bietet maßgeschneiderte Service- und Wartungsdienstleitungen an. Darüber hinaus legt die Gruppe ertragsorientierte Private-Placement-Anlagen und Photovoltaikfonds für private und institutionelle Kapitalanleger auf.
Kontaktdaten:
Gehrlicher Solar Services GmbH
Feldkirchener Str. 2
85540 Haar b. München
www.gehrlicher.com
presse@gehrlicher.com
Tel: +49 89 420792-0",,Appointment not needed,Not child friendly,No Volunteer Opportunities,Not accessible by public transport,,,Freier Eintritt,,,Not accessible,,,,,48.125798,11.741458
50664,Sustainable AG,Green Enterprise,Grünes Unternehmen,"Globale Herausforderungen in den Bereichen Klimawandel, Demographie oder Zugang zu Ressourcen führen zu steigenden Anforderungen an Unternehmen. Wir begleiten Unternehmen auf ihrem Weg zu einer nachhaltigeren Entwicklung. Wir unterstützen Unternehmen dabei, die Veränderungen besser zu verstehen und Antworten zu erarbeiten, die einen langfristigen Erfolg sicherstellen.
Kontaktdaten:
Sustainable AG
Corneliusstr. 10
80469 München
www.sustainable.de
info@sustainable.de
T: +49 (0) 89 – 2020 56 40
F: +49 (0) 89 – 2020 56 50",,Appointment not needed,Not child friendly,No Volunteer Opportunities,Not accessible by public transport,,,Freier Eintritt,,,Not accessible,,,,,48.132330,11.574963
51745,Arqum GmbH,Green Enterprise,Grünes Unternehmen,"Kontaktdaten:
Arqum GmbH
Aldringenstr. 9
80639 München
http://www.arqum.de/
arqum@arqum.de
Tel.: +49 89 12 10 99 40
Fax: +49 89 12 10 99 49",,Appointment not needed,Not child friendly,No Volunteer Opportunities,Not accessible by public transport,,,Freier Eintritt,,,Not accessible,,,,,48.155375,11.530111
51746,CERTIFIED COOLNESS Limited,Green Enterprise,Grünes Unternehmen,"Kontaktdaten:
CERTIFIED COOLNESS Limited
Zweibrückenstraße 8 VH
D–80331 München
http://www.certifiedcoolness.de/
Tel.:+49 89 54506938
Fax: +49 89 55028162",,Appointment not needed,Not child friendly,No Volunteer Opportunities,Not accessible by public transport,,,Freier Eintritt,,,Not accessible,,,,,48.133321,11.582935
51747,Dr. Reinhard Witt - Naturnaher Grünplaner,Green Enterprise,Grünes Unternehmen,"Kontaktdaten: 
Dr. Reinhard Witt - Naturnaher Grünplaner
Quellenweg 20
85570 Ottenhofen
www.reinhard-witt.de
reinhard@reinhard-witt.de
Tel.: Büro 08121 / 46483
Fax: 08121 / 1455",,Appointment not needed,Not child friendly,No Volunteer Opportunities,Not accessible by public transport,,,Freier Eintritt,,,Not accessible,,,,,48.194272,11.889342
51748,Green City Projekt GmbH,Green Enterprise,Grünes Unternehmen,"Kontaktdaten:
Green City Projekt GmbH
Goethestraße 34 / Rgb.
80336 München
http://www.greencity-projekt.de/
info@greencity-projekt.de
Tel.: (089) 890 668-600
Fax: (089) 890 668-650",,Appointment not needed,Not child friendly,No Volunteer Opportunities,Not accessible by public transport,,,Freier Eintritt,,,Not accessible,,,,,48.135793,11.558486
51749,GRUNWALD Kommunikation und Marketingdienstleistungen GmbH & Co. KG,Green Enterprise,Grünes Unternehmen,"Kontaktdaten:
GRUNWALD Kommunikation und Marketingdienstleistungen
GmbH & Co. KG
Neubruchstr. 4
85774 Unterföhring/München
http://www.agenturgrunwald.de/
info@agenturgrunwald.de
Tel.: 089 950907-500
Fax: 089 950907-555",,Appointment not needed,Not child friendly,No Volunteer Opportunities,Not accessible by public transport,,,Freier Eintritt,,,Not accessible,,,,,48.184165,11.634918
51750,Grünkauf System GmbH,Green Enterprise,Grünes Unternehmen,"Kontaktdaten:
Grünkauf System GmbH
Radlkoferstr. 2
81373 München
http://www.gruenkauf.eu/
Tel.: 0700 - Grunkauf (= 0700 - 47865283)
Fax: 0700 - Grunfaxe (= 0700 - 47863293)",,Appointment not needed,Not child friendly,No Volunteer Opportunities,Not accessible by public transport,,,Freier Eintritt,,,Not accessible,,,,,48.126484,11.543723
51753,Knorr-Bremse AG,Green Enterprise,Grünes Unternehmen,"Kontaktdaten:
Knorr-Bremse AG
Moosacher Str. 80
80809 München
http://www.knorr-bremse.de/
info@knorr-bremse.com
Tel.: +49 (0) 89 / 3547-0
Fax: +49 (0) 89 / 3547-2767",,Appointment not needed,Not child friendly,No Volunteer Opportunities,Not accessible by public transport,,,Freier Eintritt,,,Not accessible,,,,,48.186332,11.546749
51754,Landwärme GmbH,Green Enterprise,Grünes Unternehmen,"Kontaktdaten:
Landwärme GmbH
Ungererstraße 40
80802 München
www.landwaerme.de
info@landwaerme.de
Tel.: +49 | 89 | 33 08 86 35
Fax: +49 | 89 | 33 08 85 96",,Appointment not needed,Not child friendly,No Volunteer Opportunities,Not accessible by public transport,,,Freier Eintritt,,,Not accessible,,,,,48.165427,11.589340
51757,oekom research AG,Green Enterprise,Grünes Unternehmen,"Kontaktdaten:
oekom research AG
Goethestraße 28
80336 München
http://www.oekom-research.com/
info@oekom-research.com
Tel.: +49-(0)89-544184-90
Fax: +49-(0)89-544184-99",,Appointment not needed,Not child friendly,No Volunteer Opportunities,Not accessible by public transport,,,Freier Eintritt,,,Not accessible,,,,,48.136122,11.558477
51758,projekt21plus,Green Enterprise,Grünes Unternehmen,"Kontaktdaten:
projekt21plus
Volkartstr. 46
80636 München
http://www.projekt21plus.de/
info@projekt21plus.de
Tel.:(089) 35 65 33 44
Fax: (089) 35 65 33 43",,Appointment not needed,Not child friendly,No Volunteer Opportunities,Not accessible by public transport,,,Freier Eintritt,,,Not accessible,,,,,48.156857,11.538869
51759,Sparda-Bank München eG,Green Enterprise,Grünes Unternehmen,"Kontaktdaten:
Sparda-Bank München eG
Arnulfstraße 15
80335 München
https://www.sparda-m.de
info@sparda-m.de
Tel.: +49 (0)89 55142-400
Fax: +49 (0)89 55142-100",,Appointment not needed,Not child friendly,No Volunteer Opportunities,Not accessible by public transport,,,Freier Eintritt,,,Not accessible,,,,,48.142426,11.553122
51760,Tollwood Gesellschaft für Kulturveranstaltungen und Umweltaktivitäten,Green Enterprise,Grünes Unternehmen,"Kontaktdaten:
Tollwood Gesellschaft für Kulturveranstaltungen und Umweltaktivitäten
Waisenhausstr. 20
80637 München
www.tollwood.de
info@tollwood.de
Tel: 089-383 85 00
Fax: 089-38 38 50 20",,Appointment not needed,Not child friendly,No Volunteer Opportunities,Not accessible by public transport,,,Freier Eintritt,,,Not accessible,,,,,48.159523,11.530087
51764,Fairkauf Handelskontor eG,Green Enterprise,Grünes Unternehmen,"Kontaktdaten:
Fairkauf Handelskontor eG
Brecherspitzstraße 8
81541 München 
http://www.fairkauf-handelskontor.de/
Tel.: +49 (0)89 30 90 449-0
Fax.: +49 (0)89 30 90 449-20",,Appointment not needed,Not child friendly,No Volunteer Opportunities,Not accessible by public transport,,,Freier Eintritt,,,Not accessible,,,,,48.116181,11.589804
53130,FLAME GmbH,Green Enterprise,Grünes Unternehmen,"Kontaktdaten:
FLAME GmbH
Fuggerstr. 1
81379 München
www.hello-flame.com
info@hello-flame.com
Tel: +49 (0)89 189497-0
Fax: +49 (0)89 189497-11",,Appointment not needed,Not child friendly,No Volunteer Opportunities,Not accessible by public transport,,,Freier Eintritt,,,Not accessible,,,,,48.123455,11.536996
53131,FutureCamp Climate GmbH,Green Enterprise,Grünes Unternehmen,"Kontaktdaten:
FutureCamp Climate GmbH
Aschauer Str. 30
81549 München
www.future-camp.de",,Appointment not needed,Not child friendly,No Volunteer Opportunities,Not accessible by public transport,,,Freier Eintritt,,,Not accessible,,,,,48.104938,11.600060
50837,Staatsinstitut für Schulqualität und Bildungsforschung (ISB),Green School,Grüne Schule,"Kontaktdaten:
Staatsinstitut für Schulqualität und Bildungsforschung (ISB)
Öffentlichkeitsarbeit
Schellingstr. 155
80797 München 
http://www.isb.bayern.de/
kontakt@isb.bayern.de
Tel.: +49 (0)89 2170-2008 (Zentrale Telefonvermittlung/Pforte, 8:00 Uhr bis 16:00 Uhr)
Fax: +49 (0)89 2170-2105",,Appointment not needed,Not child friendly,No Volunteer Opportunities,Not accessible by public transport,,,Freier Eintritt,,,Not accessible,,,,,48.154595,11.558036
51751,hess natur München,Green Store,Grünes Geschäft,"Kontaktdaten:
hessnatur  München
Hohenzollernstraße 10
80801 München
http://www.hessnatur.com/
laden.muenchen@hess-natur.de
Tel: 089 / 124 731 72",,Appointment not needed,Not child friendly,No Volunteer Opportunities,Not accessible by public transport,,,Freier Eintritt,,,Not accessible,,,,,48.159611,11.584313
47968,Solarinitiative München GmbH & Co. KG,Green Technology,Grüne Technologie,"Kontaktdaten:
Solarinitiative München GmbH & Co. KG
Corneliusstr. 10
D-80469 München
http://www.solarinitiative-muenchen.de/ueber-uns/ziele/
info@solarinitiative-muenchen.de 
Tel: +49 (89) 5404 131 13
Fax: +49 (89) 5404 131- 29",,Appointment not needed,Not child friendly,No Volunteer Opportunities,Not accessible by public transport,,,Freier Eintritt,,,Not accessible,,,,,48.130946,11.577580
47446,Gartensalon,Healthy Dining,"Gesundes Essen, Organische/regionale Kost",restaurant.,,Appointment not needed,Not child friendly,No Volunteer Opportunities,Anschluss zu öffentlichen Verkehrsmitteln,,,Freier Eintritt,,,Behindertengerecht,Türkenstrasse 90,Munich,,,48.145472,11.573936
47975,Hans im Glück,Healthy Dining,"Gesundes Essen, Organische/regionale Kost","Hans im Glück
 Tuerkenstrasse 79",,Appointment not needed,Not child friendly,No Volunteer Opportunities,Not accessible by public transport,,,Freier Eintritt,,,Not accessible,,,,,48.148981,11.575477
47976,Hans im Glück,Healthy Dining,Gesundes Essen,"Hans im Glück
Nymphenburgerstrasse 69",,Appointment not needed,Not child friendly,No Volunteer Opportunities,Not accessible by public transport,,,Freier Eintritt,,,Not accessible,,,,,48.148552,11.553168
48161,Fräulein Müller,Healthy Dining,Gesundes Essen,Adalbertstrasse 21,,Appointment not needed,Not child friendly,No Volunteer Opportunities,Not accessible by public transport,,,Freier Eintritt,,,Not accessible,,,,,48.152033,11.578327
48164,Südstadt,Healthy Dining,Gesundes Essen,"Südstadt
Thalkirchner Straße 29, 80337 München ‎
089 7250152 ‎ · suedstadt-muenchen.de",,Appointment not needed,Not child friendly,No Volunteer Opportunities,Not accessible by public transport,,,Freier Eintritt,,,Not accessible,,,,,48.123190,11.560972
48165,Brotraum,Healthy Dining,Gesundes Essen,"Brotraum
Herzogstraße 6, 80803 München ‎
089 761021 ‎ · brotraum.de",,Appointment not needed,Not child friendly,No Volunteer Opportunities,Not accessible by public transport,,,Freier Eintritt,,,Not accessible,,,,,48.162050,11.585752
48167,Max Pett,Healthy Dining,Gesundes Essen,"Kontaktdaten:
Max Pett
Pettenkoferstraße 8
80336 München ‎
http://www.max-pett.de/
schlemmen@max-pett.de
Tel.: 089 55869119 ‎",,Appointment not needed,Not child friendly,No Volunteer Opportunities,Not accessible by public transport,,,Freier Eintritt,,,Not accessible,,,,,48.134449,11.563681
48168,Prinz Myshkin,Healthy Dining,Gesundes Essen,"Prinz Myshkin
Hackenstraße 2, 80331 Munich ‎
089 265596 ‎ · prinzmyshkin.com",,Appointment not needed,Not child friendly,No Volunteer Opportunities,Not accessible by public transport,,,Freier Eintritt,,,Not accessible,,,,,48.136137,11.570236
48170,Eiscafé Trampolin,Healthy Dining,"Gesundes Essen, Organische/regionale Kost, Öko-Produkte","Eiscafé Trampolin
 Nordendstraße 62, 80801 München ‎
089 94507644 ‎ · trampolin-eis.de",,Appointment not needed,Not child friendly,No Volunteer Opportunities,Not accessible by public transport,,,Freier Eintritt,,,Not accessible,,,,,48.158063,11.575323
48172,Tushita Teehaus,Healthy Dining,Gesundes Essen,"Das Tushita Teehaus wurde 2009 gegründet. 
Tee: Das umfangreiche Teesortiment in der Bewirtung und im Verkauf umfasst ca. 150 Sorten (darunter 60 Grüntee-Sorten), die überwiegend biologisch angebaut und wenn möglich auch fair trade gehandelt werden. Dieses Angebot wird laufend aktualisiert. Die Zubereitung der Tees im Tushita Teehaus erfolgt der jeweiligen Tradition entsprechend. 
Tee-Zubehör: Das Angebot an Kannen, Tassen, Teedosen etc. wechselt und bietet ausgewählte und außergewöhnliche Objekte von antik bis trendy.
Essen: Ein täglich wechselndes veganes Tagesgericht wird frisch zubereitet, die hausgemachten Kuchen und Desserts sind teilweise Zucker- und glutenfrei. Alle Zutaten stammen aus kontrolliert biologischem Anbau.
Drinks: Neben dem umfangreichen Angebot an Tees gibt es Cold Drinks, z. B. Smoothies und Detox-Drinks.
Das Tushita Teehaus ist nach EU-Richtlinien bio-zertifiziert und wurde 2014 bei einer Umfrage von PeTA2, der Jugendkampagne von PeTA Deutschland zum ""Besten veganen Cafe"" Deutschlands gewählt.
Bei schönem Wetter gibt es auch Tische und Stühle draußen.
Öffnungszeiten:
Mo - Fr: 09:00 - 20:00
Sa: 10:00 - 20:00
Tushita Teehaus
Klenzestraße 53, 80469 München ‎
089 18975594 ‎
www.facebook.com/tushita.eu",,Appointment not needed,Not child friendly,No Volunteer Opportunities,Anschluss zu öffentlichen Verkehrsmitteln,,,Freier Eintritt,,https://www.tushita.eu,Not accessible,Klenzestr. 53,München,,80469,48.130609,11.573589
48177,Soupmama,Healthy Dining,Gesundes Essen,"Soupmama
Blumenstraße 1, 80331 München ‎
089 23077645 ‎ · soupmama.de",,Appointment not needed,Not child friendly,No Volunteer Opportunities,Not accessible by public transport,,,Freier Eintritt,,,Not accessible,,,,,48.134565,11.576246
52828,MilchHäusl,Healthy Dining,"Gesundes Essen, Organische/regionale Kost","Kontaktdaten:
MilchHäusl
Königinstraße 6
80539 München
http://www.milchhaeusl.de/
info@milchhaeusl.de
Fon: +49(0)89 517297180
Fax: +49(0)89 517297199",,Appointment not needed,Not child friendly,No Volunteer Opportunities,Not accessible by public transport,,,Freier Eintritt,,,Not accessible,,,,,48.149732,11.585534
52829,Muffathalle - Biergarten,Healthy Dining,"Gesundes Essen, Organische/regionale Kost","Kontaktdaten:
Biergarten Muffathalle
Zellstraße 4
81667 München
http://www.muffatwerk.de/de/pages/biergarten
+49 (89) 458 750 10",,Appointment not needed,Not child friendly,No Volunteer Opportunities,Not accessible by public transport,,,Freier Eintritt,,,Not accessible,,,,,48.132814,11.589155
52831,Asam Schlössl,Healthy Dining,"Gesundes Essen, Organische/regionale Kost","Kontaktdaten:
Asam Schlössl
Maria-Einsiedel-Str. 45
81379 München
http://www.asamschloessl.de/
bn@asamschloesl.de
Tel.: 089 723 63 73",,Appointment not needed,Not child friendly,No Volunteer Opportunities,Not accessible by public transport,,,Freier Eintritt,,,Not accessible,,,,,48.095244,11.542414
52832,Alter Wirt,Healthy Dining,Gesundes Essen,"Kontaktdaten:
Alter Wirt GmbH
Marktplatz 1
82031 Grünwald
www.alterwirt.de
info@alterwirt.de
Tel. 089-64 19 34 0
Fax 089-64 19 34 99",,Appointment not needed,Not child friendly,No Volunteer Opportunities,Not accessible by public transport,,,Freier Eintritt,,,Not accessible,,,,,48.040232,11.523049
52833,Kinglwirt,Healthy Dining,Gesundes Essen,"Kontaktdaten:
Klinglwirt
Balanstraße 16
81669 München
http://www.klinglwirt.de/
post@klinglwirt.de
Tel. 089-85676199
Fax. 089-85676200",,Appointment not needed,Not child friendly,No Volunteer Opportunities,Not accessible by public transport,,,Freier Eintritt,,,Not accessible,,,,,48.102910,11.605972
52834,L'Amar,Healthy Dining,Gesundes Essen,"Kontaktdaten:
L'Amar
Pestalozzistr. 28
80469 München
http://cafelamar.de/
info@cafelamar.de
Tel.: 089 54892327
Fax.: 089 54892328",,Appointment not needed,Not child friendly,No Volunteer Opportunities,Not accessible by public transport,,,Freier Eintritt,,,Not accessible,,,,,48.130295,11.567228
52835,Tushita Teehaus,Healthy Dining,Gesundes Essen,"Kontaktdaten:
Tushita Teehaus
Klenzestraße 53
80469 München
http://tushita.eu/
kontakt@tushita.eu
Tel.:  +49-(0) 89–189 755 94",,Appointment not needed,Not child friendly,No Volunteer Opportunities,Not accessible by public transport,,,Freier Eintritt,,,Not accessible,,,,,48.129726,11.572994
47569,Schlosspark Nymphenburg,Historical Feature,Historisches Merkmal,Castle of Nymphenburg.,,Appointment not needed,Kinder erwünscht,No Volunteer Opportunities,Anschluss zu öffentlichen Verkehrsmitteln,,,Freier Eintritt,,,Behindertengerecht,,,,,48.157599,11.493773
50833,oekom verlag GmbH,Independent/Eco-Media,"Grünes Unternehmen, Unabhängige Öko-Medien","Kontaktdaten:
oekom verlag GmbH
Waltherstraße 29
80337 München
http://www.oekom.de/
Tel.:   +49/(0)89/54 41 84 0
Fax.: +49/(0)89/54 41 84 49",,Appointment not needed,Not child friendly,No Volunteer Opportunities,Not accessible by public transport,,,Freier Eintritt,,,Not accessible,,,,,48.128725,11.559044
50835,Radio LORA,Independent/Eco-Media,Unabhängige Öko-Medien,"Kontaktdaten:
LORA Programm-Anbieter Gesellschaft mbH
Gravelottestr. 6
81667 München 
http://lora924.de/
buero@lora924.de
Tel.: +49 (0)89-489 523 04
Fax: +49 (0)89-480 28 52",,Appointment not needed,Not child friendly,No Volunteer Opportunities,Not accessible by public transport,,,Freier Eintritt,,,Not accessible,,,,,48.127658,11.600570
51275,FairOil Energie der Neuzeit,Independent/Eco-Media,Unabhängige Öko-Medien,"Kontaktdaten:
FairOil Energie der Neuzeit
Leonie Horn
Maria-Probst-Str. 3
80939 München
http://www.fairoil.org
info@kreditblog.info",,Appointment not needed,Not child friendly,No Volunteer Opportunities,Not accessible by public transport,,,Freier Eintritt,,,Not accessible,,,,,48.192748,11.584740
51878,DENK-doch-MAL.de,Independent/Eco-Media,Unabhängige Öko-Medien,"Kontaktdaten:
DENK-doch-MAL.de
Online-Magazin für Arbeit-Bildung-Gesellschaft
Ansprechpartner: Detlef Wetzel
c/o DGB Region München
Schwanthalerstr. 64
80336 München
http://denk-doch-mal.de/
muenchen@dgb.de
Tel: +49 (89) 51700 – 102
Fax: +49 (89) 51700 – 111",,Appointment not needed,Not child friendly,No Volunteer Opportunities,Not accessible by public transport,,,Freier Eintritt,,,Not accessible,,,,,48.137617,11.554632
52611,"Radio Feierwerk 92,4",Independent/Eco-Media,Unabhängige Öko-Medien,"Kontaktdaten:
Radio Feierwerk 92,4
Hansastr. 39 - 41
81373 München
http://feierwerk.de/radio.html
radio@feierwerk.de 
Tel. 089 - 72 488 488",,Appointment not needed,Not child friendly,No Volunteer Opportunities,Not accessible by public transport,,,Freier Eintritt,,,Not accessible,,,,,48.129041,11.534100
51276,"Netzwerk blühende Landschaft, Garching",Insect Watching Site,Beobachtung von Insekten,"Kontaktdaten:
Netzwerk blühendes Garching
Ansprechpartner: Dr. Aly Hassanein
Max-Born-Weg 25
85748 Garching
http://www.bluehende-landschaft.de
Gibiene@yahoo.de",,Appointment not needed,Not child friendly,No Volunteer Opportunities,Not accessible by public transport,,,Freier Eintritt,,,Not accessible,,,,,48.253780,11.649408
51334,Stadtimker,Insect Watching Site,Beobachtung von Insekten,"Kontaktdaten:
Stadtimker
Ronny Andrä
Steinerstraße 4a
81369 München
http://stadtimker.de/
info@stadtimker.de
Tel.: +49 (0) 89 379 50984",,Appointment not needed,Not child friendly,No Volunteer Opportunities,Not accessible by public transport,,,Freier Eintritt,,,Not accessible,,,,,48.103982,11.539915
51335,München summt!,Insect Watching Site,Beobachtung von Insekten,"Kontaktdaten:
Initiative München summt
Träger: Umweltforum UfAZ e.V.
Ralf Armbrecht
Westendstraße 87
80339 München
http://www.muenchen.deutschland-summt.de/
info@muenchen-summt.de
Tel.: +49 (0)89 411 386 79",,Appointment not needed,Not child friendly,No Volunteer Opportunities,Not accessible by public transport,,,Freier Eintritt,,,Not accessible,,,,,48.138324,11.548841
51629,Netzwerk Blühende Landschaft - Naturgarten e.V.,Insect Watching Site,Beobachtung von Insekten,"Kontaktdaten:
Netzwerk Blühende Landschaft - Naturgarten e.V.
Regionalgruppen Haar
Koordination: Barbara Stark
Gronsdorfer Straße 1
85540 Haar
www.bluehende-landschaft.de/haar
stark@bluehende-landschaft.de
Tel: 089 – 21757538",,Appointment not needed,Not child friendly,No Volunteer Opportunities,Not accessible by public transport,,,Freier Eintritt,,,Not accessible,,,,,48.110304,11.724343
47563,Flaucher,Lively Spot,"Park/Erholungsgebiet, Park in Gewässernähe, Öffentlicher Platz, Natürlicher Pfad, Kultureller Treffpunkt","Schöner Grillplatz im Sommer. Dort findet man alle Münchnerinnen und Münchner unter 25 beim gemütlichen Beisamensein und Grillen oder am Lagerfeuer. Zur Sicherheit reiten auch immer ein paar Polizisten auf hübschen Pferden vorbei.
Nice place to grill and chill in warm summer nights. You'll find every person under 25 here for a nice hanging out, a good beer and bonfire. If you're lucky you'll catch some of the policemen on horses, making sure everyone is alright.",,Appointment not needed,Kinder erwünscht,No Volunteer Opportunities,Anschluss zu öffentlichen Verkehrsmitteln,,,Freier Eintritt,,,Not accessible,,,,,48.104000,11.555350
48720,Truderinger Trachtenverein,Local Business,Regionaler Betrieb,"A scheens Gwand!
Der Truderinger Trachtenverein (z. Zt. ca. 100 Mitglieder) hat sich zur Aufgabe gemacht Tradition und die original Truderinger Tracht am Leben zu erhalten.Unsere monatlichen Vereinssitzungen finden in einer öffentlichen Gaststätte statt. (Zum Goldenen Stern). 
Kontakt über 
1. Vorstand Günter Otrebski
Max-Rothschild-Str. 8
81825 München
http://www.truderinger-trachtenverein.de/ 
webmaster@truderinger-trachtenverein.de
Tel: +49 (0)89 / 45 45 61 68",,Termin nötig,Not child friendly,No Volunteer Opportunities,Not accessible by public transport,,,Freier Eintritt,,,Not accessible,,,,,48.127150,11.697121
51769,ReWiG eG,Local Business,"Grünes Unternehmen, Regionaler Betrieb","Die ReWiG München eG bietet Möglichkeiten, eine andere Art des Wirtschaftens in die Praxis umzusetzen. 
Sie dient der Vernetzung von Unternehmen und Bürgern:
- über direktes Kennenlernen und Austausch,
- über Investitionen
- über eine komplementären, zinsfreien Währung mit der eingekauft werden kann.
Einbringen kann man sich
- als stimmberechtigtes Genossenschaftsmitglied
- als InvestorIn: Genussrechte zeichnen
- als MarktplatzteilnehmerIn: Realo-Konto eröffnen und Handel treiben, private Nachbarschaftshilfe oder geschäftlich
- als aktive MitarbeiterIn mit tatkräftiger Unterstützung
Kontaktdaten:
ReWiG - Regionale Wirtschaftsgemeinschaft
Streitfeldstraße 33
81673 München
http://rewig-muenchen.de/",,Appointment not needed,Not child friendly,No Volunteer Opportunities,Not accessible by public transport,,,Freier Eintritt,,,Not accessible,,,,,48.131547,11.622076
53326,Grauschattierung,Local Business,"Regionaler Betrieb, Sozialverantwortliches Unternehmen",.,,Appointment not needed,Not child friendly,No Volunteer Opportunities,Anschluss zu öffentlichen Verkehrsmitteln,089/ 38 534 534,ms@grauschattierung.de ,Freier Eintritt,,http://www.grauschattierung.de/,Not accessible,,,,,48.108950,11.530956
50981,Pädagogische Aktion/ Kinder- und Jugendmuseum München e.V,Museum,Museum,"Kontaktdaten:
Pädagogische Aktion/ Kinder- und Jugendmuseum München e.V.
Arnulfstr. 3
80335 München
www.kindermuseum-muenchen.de
info@kindermuseum-muenchen.de
Tel.: +49 (0)89/ 54 04 644 - 0
Fax: +49 (0)89/ 54 04 644 - 18",,Appointment not needed,Not child friendly,No Volunteer Opportunities,Not accessible by public transport,,,Freier Eintritt,,,Not accessible,,,,,48.141528,11.557317
52619,Waldgärtner,Native Forests/Plants,"Heimische Wälder/Pflanzen, Garten","Kontaktdaten:
Waldgärtner
Siggi Fuchs
Schrenkstr. 9
80339 München 
http://www.waldgaertner.de/
info@waldgaertner.de
Tel: + 49 (0) 89 / 51099831",,Appointment not needed,Not child friendly,No Volunteer Opportunities,Not accessible by public transport,,,Freier Eintritt,,,Not accessible,,,,,48.138643,11.542146
52620,Waldgärtner,Native Forests/Plants,"Heimische Wälder/Pflanzen, Garten","Kontaktdaten:
Waldgärtner
Siggi Fuchs
Schrenkstr. 9
80339 München 
http://www.waldgaertner.de/
info@waldgaertner.de
Tel: + 49 (0) 89 / 51099831",,Appointment not needed,Not child friendly,No Volunteer Opportunities,Not accessible by public transport,,,Freier Eintritt,,,Not accessible,,,,,48.138643,11.542146
48360,Fritz Mühlenbäckerei GmbH,Organic/Local Food,Organische/regionale Kost,"FRITZ steht für:
...wertvolle Bio-Qualität!
FRITZ ist Münchens Bio-Bäcker seit 1987 und es wird seit der ersten Stunde konsequent 100 % Bio-Qualitätfür Sie gebacken!
...genussvolle Backwaren!
Für alle Sinne! Das saftige FRITZ-Aroma und die langanhaltende Verzehrfrische lohnen – sogar auch bei glutenfreien Broten! Der vollständige Verzicht auf Backmittel und Zusatzstoffe ist ein echter Beitrag für Gesundheit, Bekömmlichkeit und das aromatische Geschmackserlebnis!
...nachhaltiges Handeln!
Es wird mit erneuerbaren (regenerativen) Energien gebacken – zertifiziert durch das „SOLAR-Brot“ Markenzeichen! FRITZ bezieht als Bio-Pionier, damals und bis heute, ALLE Rohstoffe aus ökologischer Landwirtschaft.
FRITZ deklariert seit 25 Jahren alle Zutaten!
Unsere Backwaren erhalten Sie:
Im Backstubenverkauf
Filiale München
Rablstr. 38
81669 München
Filiale Aying
Münchener Str. 28
85653 Aying / München
Oder in über 70 Naturkost-Fachgeschäften in und um München
www.fritz-muehlenbaeckerei.de",,Appointment not needed,Not child friendly,No Volunteer Opportunities,Not accessible by public transport,,,Freier Eintritt,,,Not accessible,,,,,47.970625,11.773338
51617,Hofpfisterei,Organic/Local Food,Organische/regionale Kost,"Kontaktdaten:
Hofpfisterei GmbH
Kreittmayrstraße 5
80335 München
http://www.hofpfisterei.de/
info@hofpfisterei.de 
Tel.: 089 / 5202-0
Fax 089 / 5202-207",,Appointment not needed,Not child friendly,No Volunteer Opportunities,Not accessible by public transport,,,Freier Eintritt,,,Not accessible,,,,,48.150666,11.556534
51618,München lebt bio,Organic/Local Food,Organische/regionale Kost,"Kontaktdaten:
München lebt bio
wird herausgegeben von:
porta.vi
online.business GmbH
Linprunstraße 44
80335 München
http://www.muenchen-lebt-bio.de/
info(at)portavi.de
Tel: 089 . 45 23 98 816
Fax: 089 . 45 23 98 815",,Appointment not needed,Not child friendly,No Volunteer Opportunities,Not accessible by public transport,,,Freier Eintritt,,,Not accessible,,,,,48.150830,11.551985
51771,ClimatePartner Deutschland GmbH,Paper Reduction Site,Papiereinsparung,"Kontaktdaten:
ClimatePartner Deutschland GmbH
Ainmillerstr. 22
80801 München
http://www.climatepartner.com/
germany@climatepartner.com
Tel.: +49 89 1222 875-0
Fax: +49 89 1222 875-29",,Appointment not needed,Not child friendly,No Volunteer Opportunities,Not accessible by public transport,,,Freier Eintritt,,,Not accessible,,,,,48.158915,11.580834
51772,ClimatePartner Deutschland GmbH,Paper Reduction Site,Papiereinsparung,"Kontaktdaten:
ClimatePartner Deutschland GmbH
Ainmillerstr. 22
80801 München
http://www.climatepartner.com/
germany@climatepartner.com
Tel.: +49 89 1222 875-0
Fax: +49 89 1222 875-29",,Appointment not needed,Not child friendly,No Volunteer Opportunities,Not accessible by public transport,,,Freier Eintritt,,,Not accessible,,,,,48.158915,11.580834
51471,P+R Park & Ride,Park 'N Ride Facility,"Alternativer Kraftstoff, Park 'N Ride","Kontaktdaten:
P+R Park & Ride GmbH München
Garmischer Straße 19
81373 München
http://www.parkundride.de/
info@parkundride.de
Tel. 089/ 32 46 47 48
Fax: 089/ 32 46 47 20",,Appointment not needed,Not child friendly,No Volunteer Opportunities,Not accessible by public transport,,,Freier Eintritt,,,Not accessible,,,,,48.131351,11.531326
51461,Netzwerk Slowmotion,Pedestrian Friendly,Fußgängerfreundlich,"Kontaktdaten:
Netzwerk Slowmotion
bei Green City e.V.
Goethestr. 34
80336 München
http://www.netzwerk-slowmotion.org/
andreas.schuster@greencity.de
089 / 890 668 – 33",,Appointment not needed,Not child friendly,No Volunteer Opportunities,Not accessible by public transport,,,Freier Eintritt,,,Not accessible,,,,,48.135771,11.558435
51462,Fuss e.V.,Pedestrian Friendly,Fußgängerfreundlich,"Kontaktdaten:
Fuss e.V.
Fachverband Fußverkehr Deutschland
Ansprechpartner für Bayern
Paul Bickelbacher
Thalkirchner Straße 73
80337 München
http://www.fuss-ev.de/
paul.bickelbacher@fuss-ev.de
Tel.: 089 / 76 70 26 13
Fax: 089 / 76 70 26 09",,Appointment not needed,Not child friendly,No Volunteer Opportunities,Not accessible by public transport,,,Freier Eintritt,,,Not accessible,,,,,48.120898,11.556909
51463,VCD Verkehrsclub Deutschland,Pedestrian Friendly,Fußgängerfreundlich,"Kontaktdaten:
VCD Verkehrsclub Deutschland
Kreisverband München München
Breisacherstraße 12
81667 München
http://vcd-m.org/
kontakt@vcd-m.org
Tel.: (089) 20 11 898
Fax: (089) 20 15 313",,Appointment not needed,Not child friendly,No Volunteer Opportunities,Not accessible by public transport,,,Freier Eintritt,,,Not accessible,,,,,48.130260,11.604003
47568,Hirschgarten,Protected/Cultivated Habitat,"Park/Erholungsgebiet, Wald/Naturpark, Heimische Wälder/Pflanzen, Organische/regionale Kost, Naturschutzgebiet, Beobachtung von Vögeln & Wildtieren","Mit einer Mischung aus Erholungsfläche und Gastronomie ist der Hirschgarten heute eines der bekanntesten und beliebtesten Ausflugsziele für ganz München und Besucher aus aller Welt. Auch heute noch stillt man hier seinen Durst mit dem hochgeschätzten, weltberühmten „Augustiner"". Nebenbei kann man auch Hirsche und Rehe beobachten.
A park with a famous ""Biergarten"" where you can enjoy some of the traditional Bavarian beers; Augustiner, Franziskaner and others while watching deer.",,Appointment not needed,Kinder erwünscht,No Volunteer Opportunities,Anschluss zu öffentlichen Verkehrsmitteln,,,Freier Eintritt,,,Behindertengerecht,,,,,48.148014,11.510675
51464,Aktion Münchner Fahrgäste,Public/Mass Transportation,Öffentliche Verkehrsmittel,"Kontaktdaten:
Aktion Münchner Fahrgäste
Freischützstraße 110
81927 München
http://www.fahrgaeste.de/",,Appointment not needed,Not child friendly,No Volunteer Opportunities,Not accessible by public transport,,,Freier Eintritt,,,Not accessible,,,,,48.171567,11.644092
52622,Straßenbahnfreunde München e.V.,Public/Mass Transportation,Öffentliche Verkehrsmittel,"Kontaktdaten:
Straßenbahnfreunde München e.V.
Ständlerstraße 020
81549 München
Postfach 15 21 23
http://www.strassenbahnfreunde.de/
Info@strassenbahnfreunde.de 
Telefon  0173 35 88 367
Fax (089) 63 49 67 85",,Appointment not needed,Not child friendly,No Volunteer Opportunities,Not accessible by public transport,,,Freier Eintritt,,,Not accessible,,,,,48.102889,11.601412
48913,World of Eve,Recycling,"Sozialverantwortliches Unternehmen, Wiederverwertung, Recycling","Kontaktdaten:
World of Eve
Türkenstrasse 54, Innenhof
80799 München
http://www.world-of-eve.com/
info@world-of-eve.com
Tel.: +49 (0)89 272 75 630
Fax: +49 (0)89 272 75 632",,Appointment not needed,Not child friendly,No Volunteer Opportunities,Not accessible by public transport,,,Freier Eintritt,,,Not accessible,,,,,48.149853,11.575127
51770,Botanikum GmbH & Co KG,Rental/Share,Vermietung/Teilen,"Kontaktdaten:
Botanikum GmbH & Co KG
Feldmochinger Straße 75-79
D-80993 München
http://www.botanikum.de/
bunzel@artfield.de
Tel. +49-(0)89-1411715
Fax +49-(0)89-1493672",,Appointment not needed,Not child friendly,No Volunteer Opportunities,Not accessible by public transport,,,Freier Eintritt,,,Not accessible,,,,,48.188507,11.521407
52604,Impact Hub Munich,Rental/Share,Vermietung/Teilen,"Kontaktdaten:
Impact Hub Munich
Gotzinger Straße 8
81371 München
http://munich.impacthub.net/
munich@impacthub.net
Tel.: 0157 575 69 790",,Appointment not needed,Not child friendly,No Volunteer Opportunities,Not accessible by public transport,,,Freier Eintritt,,,Not accessible,,,,,48.121152,11.550016
47670,HUIJ Selbermachwerkstatt,Repair Shop,"Flohmarkt, Reparaturwerkstatt","Kontaktdaten: 
Huij
Westendstr. 49
80339 München
www.huij.org
hallo@huij.org
Tel.: 089-21 89 08 75",,Appointment not needed,Kinder erwünscht,No Volunteer Opportunities,Anschluss zu öffentlichen Verkehrsmitteln,,,Freier Eintritt,,,Behindertengerecht,,,,,48.138335,11.544775
47671,Haus der Eigenarbeit,Repair Shop,"Sozialverantwortliches Unternehmen, Wiederverwertung, Recycling, Reparaturwerkstatt",email,,Appointment not needed,Kinder erwünscht,No Volunteer Opportunities,Anschluss zu öffentlichen Verkehrsmitteln,,,Freier Eintritt,,,Behindertengerecht,,,,,48.129073,11.602639
47672,FabLab,Repair Shop,"Wiederverwertung, Recycling, Vermietung/Teilen, Reparaturwerkstatt",http://www.fablab-muenchen.de/,,Appointment not needed,Kinder erwünscht,No Volunteer Opportunities,Anschluss zu öffentlichen Verkehrsmitteln,,,Freier Eintritt,,,Behindertengerecht,,,,,48.136602,11.532819
47673,Reparaturladen im Nachbarschaftstreff am Isareck,Repair Shop,"Wiederverwertung, Reparaturwerkstatt","-
 Isareckstraße 46
81673 München, Deutschland ‎",,Appointment not needed,Not child friendly,No Volunteer Opportunities,Anschluss zu öffentlichen Verkehrsmitteln,,,Freier Eintritt,,,Not accessible,,,,,48.128369,11.616801
47674,Weisser Rabe Reparaturen und Recycling,Repair Shop,"Wiederverwertung, Recycling, Reparaturwerkstatt","Schwanthalerstraße 73
80336 München, Deutschland ‎ 
http://www.weisser-rabe.de/",,Appointment not needed,Not child friendly,No Volunteer Opportunities,Anschluss zu öffentlichen Verkehrsmitteln,,,Freier Eintritt,,,Not accessible,,,,,48.137705,11.555350
47675,Werkbox 3,Repair Shop,"Wiederverwertung, Recycling, Vermietung/Teilen, Reparaturwerkstatt","Grafinger Straße 6
81671 München, Deutschland ‎",,Appointment not needed,Not child friendly,No Volunteer Opportunities,Not accessible by public transport,,,Freier Eintritt,,,Not accessible,,,,,48.124884,11.608776
47678,GLS Bank Filiale,Responsible Company,"Grünes Unternehmen, Sozialverantwortliches Unternehmen","Kontaktdaten:
GLS Bank Filiale München
Bruderstraße 5
Lehel-München
80538 München
https://www.gls.de
kundendialog@gls.de
Tel.: +49 234 5797 100",,Appointment not needed,Not child friendly,No Volunteer Opportunities,Anschluss zu öffentlichen Verkehrsmitteln,,,Freier Eintritt,,,Behindertengerecht,,,,,48.142176,11.585715
47965,Beatrice Voigt Kunst- und Kulturprojekte,Responsible Company,Sozialverantwortliches Unternehmen,"Kontaktdaten:
Beatrice Voigt
Kunst- und Kulturprojekte
Franz-Joseph-Str. 21
D-80801 München
www.kunst-der-innovation.de
info@kunst-der-innovation.de
Tel.: +49-89-34 00 10
Fax +49-89-34 00 17",,Appointment not needed,Not child friendly,No Volunteer Opportunities,Not accessible by public transport,,,Freier Eintritt,,,Not accessible,,,,,48.157621,11.580910
47966,Europäische Metropolregion München,Responsible Company,"Grünes Unternehmen, Sozialverantwortliches Unternehmen","Europäische Metropolregion München e.V. Im Europäische Metropolregion München (EMM) e.V. arbeiten Landkreise und Städte mit Unternehmen, Verbänden und weiteren Institutionen zur Stärkung der Region zusammen.
Eines der sechs Arbeitsfelder des Vereins ist  die Mobilität, die Verbesserung der inneren und äußere Erreichbarkeit der Region. Ziel ist es, Verkehrsangebote zu optimieren und neue Verkehrskonzepte zu entwickeln. Aktuell (2014) wird insbesondere an einer verstärkten Kooperation der Verkehrsverbünde und -Unternehmen der Metropolregion gearbeitet. 
Kontaktdaten:
Europäische Metropolregion München e.V.
Kardinal-Döpfner-Str. 8
80333 München
www.metropolregion-muenchen.eu  
info@metropolregion-muenchen.eu
Tel.: +49 (0)89-452 056 0-10
Fax: +49 (0)89-452 056 0-20",,Appointment not needed,Not child friendly,No Volunteer Opportunities,Not accessible by public transport,,,Freier Eintritt,,,Not accessible,,,,,48.145287,11.577491
48719,Sparda-Bank München eG,Responsible Company,Sozialverantwortliches Unternehmen,"Die Sparda-Bank München eG, 1930 gegründet, ist heute die größte Genossenschaftsbank in Bayern mit über 250.000 Mitgliedern, 46 Geschäftsstellen und 18 SB-Centern in Oberbayern. Die Bilanzsumme der Bank betrug per Ende 2013 rund 5,9 Milliarden Euro. Bei der Sparda-Bank München sind aktuell über 700 Mitarbeiter beschäftigt. Bereits zum achten Mal in Folge wurde die Genossenschaftsbank vom Institut „Great Place to Work“ als einer der besten Arbeitgeber in Deutschland prämiert.
Seit 2011 unterstützt die Sparda-Bank München als Pionierunternehmen die Initiative der Gemeinwohl-Ökonomie. Im April 2013 legte die Bank bereits ihre zweite Gemeinwohl-Bilanz vor. Der finanzielle Aspekt rückt dabei in den Hintergrund, im Mittelpunkt steht das Engagement für das Wohl der Gesellschaft.
Weitere Informationen:
www.sparda-m.de
www.sparda-m.de/gesellschaftliche-verantwortung.php
www.sparda-m.de/gemeinwohl-oekonomie.php",,Appointment not needed,Not child friendly,No Volunteer Opportunities,Not accessible by public transport,,,Freier Eintritt,,,Not accessible,,,,,48.144084,11.545308
52843,Additiv e.K.,Responsible Company,Sozialverantwortliches Unternehmen,"Kontaktdaten:
additiv e.K.
Westendstrasse 18
82110 Germering
http://www.pharmatrainings.de/
Tel.: +49 89 552 609 75
Fax: +49 89 552 609 77",,Appointment not needed,Not child friendly,No Volunteer Opportunities,Not accessible by public transport,,,Freier Eintritt,,,Not accessible,,,,,48.117567,11.356207
52844,Alexa Zierl - know how transfer,Responsible Company,Sozialverantwortliches Unternehmen,"Kontaktdaten:
Dr.-Ing. Alexa Zierl
Oskar-von-Miller-Straße 14
82256 Fürstenfeldbruck
http://www.alexa-zierl.de/
mail@alexa-zierl.de
Tel.: 08141 225180",,Appointment not needed,Not child friendly,No Volunteer Opportunities,Not accessible by public transport,,,Freier Eintritt,,,Not accessible,,,,,48.172854,11.255128
52845,Architekturbüro Schuh,Responsible Company,Sozialverantwortliches Unternehmen,"Kontaktdaten:
Architekturbüro Schuh
Theresienstr. 66
80333 München 
http://www.architektur-schuh.de/
info@architektur-schuh.de 
Fon: (089) 2000 15 27 0
Fax:	(089) 2000 15 27 9",,Appointment not needed,Not child friendly,No Volunteer Opportunities,Not accessible by public transport,,,Freier Eintritt,,,Not accessible,,,,,48.148960,11.572353
52846,Architekturbüro Schuh,Responsible Company,Sozialverantwortliches Unternehmen,"Kontaktdaten:
Architekturbüro Schuh
Theresienstr. 66
80333 München 
http://www.architektur-schuh.de/
info@architektur-schuh.de 
Fon: (089) 2000 15 27 0
Fax:	(089) 2000 15 27 9",,Appointment not needed,Not child friendly,No Volunteer Opportunities,Not accessible by public transport,,,Freier Eintritt,,,Not accessible,,,,,48.148960,11.572353
52847,brave flower,Responsible Company,Sozialverantwortliches Unternehmen,"Kontaktdaten:
brave flower
c/o Combinat 56
Adams-Lehmann-Str. 56
80797 München 
http://www.brave-flower.com/
service@brave-flower.com 
Tel.:: + 49 (0) 89 96 29 28 82
Fax: + 49 (0) 89 46 13 316 99",,Appointment not needed,Not child friendly,No Volunteer Opportunities,Not accessible by public transport,,,Freier Eintritt,,,Not accessible,,,,,48.163495,11.558046
52848,BSH Bosch und Siemens Hausgeräte GMBH,Responsible Company,Sozialverantwortliches Unternehmen,"Kontaktdaten:
BSH Bosch und Siemens Hausgeräte GMBH
Carl-Wery-Straße 34
81739 München
http://www.bsh-group.de/
corporate.communications@bshg.com 
Tel.: +49 89 459001
Fax.: +49 89 45902347",,Appointment not needed,Not child friendly,No Volunteer Opportunities,Not accessible by public transport,,,Freier Eintritt,,,Not accessible,,,,,48.088414,11.643534
52849,Color-Offset GmbH,Responsible Company,Sozialverantwortliches Unternehmen,"Kontaktdaten:
Color-Offset GmbH
Geretsrieder Straße 10
D-81379 München
http://www.color-gruppe.de/
info@_clearGif_color-gruppe.de
Tel.: 089/78041-0
Fax.: 089/78041-200",,Appointment not needed,Not child friendly,No Volunteer Opportunities,Not accessible by public transport,,,Freier Eintritt,,,Not accessible,,,,,48.100467,11.534228
52856,EBV Elektronik GmbH & Co. KG,Responsible Company,Sozialverantwortliches Unternehmen,"Kontaktdaten:
EBV Elektronik GmbH & Co. KG
Im Technologiepark 2-8
85586 Poing
www.ebv.com
Phone: +49 8121 774-0
Fax: +49 8121 774-422",,Appointment not needed,Not child friendly,No Volunteer Opportunities,Not accessible by public transport,,,Freier Eintritt,,,Not accessible,,,,,48.172110,11.801580
52857,Econ Referenten-Agentur,Responsible Company,Sozialverantwortliches Unternehmen,"Kontaktdaten:
Econ Referenten-Agentur
Gabelsbergerstr. 36
80333 München
http://www.econ-referenten.de/
info@econ-referenten.de
Fon +49.89.547 26 19 0
Fax +49.89.547 26 19 20",,Appointment not needed,Not child friendly,No Volunteer Opportunities,Not accessible by public transport,,,Freier Eintritt,,,Not accessible,,,,,48.149343,11.563810
52859,Ingenieurbüro S&T für Umwelt- und Energieberatung,Responsible Company,Sozialverantwortliches Unternehmen,"Kontaktdaten:
Ingenieurbüro S&T für Umwelt- und Energieberatung
Theodor-Heuss-Str. 29
85764 Oberschleißheim
http://www.st-energieberatung.de/
info(at)st-energieberatung.de
Tel: 089 - 120 240 60
Mobil: 0176 - 640 159 36",,Appointment not needed,Not child friendly,No Volunteer Opportunities,Not accessible by public transport,,,Freier Eintritt,,,Not accessible,,,,,48.254770,11.554120
53127,essential media GmbH,Responsible Company,Sozialverantwortliches Unternehmen,"Kontaktdaten:
essential media GmbH
Landwehrstraße 61
80336 München
www.essentialmedia.de
info@essentialmedia.de
Tel: +49 (0)89 747262-10
Fax: +49 (0)89 747262-17",,Appointment not needed,Not child friendly,No Volunteer Opportunities,Not accessible by public transport,,,Freier Eintritt,,,Not accessible,,,,,48.136040,11.557105
53128,essential media GmbH,Responsible Company,Sozialverantwortliches Unternehmen,"Kontaktdaten:
essential media GmbH
Landwehrstraße 61
80336 München
www.essentialmedia.de
info@essentialmedia.de
Tel: +49 (0)89 747262-10
Fax: +49 (0)89 747262-17",,Appointment not needed,Not child friendly,No Volunteer Opportunities,Not accessible by public transport,,,Freier Eintritt,,,Not accessible,,,,,48.136040,11.557105
47679,Tinten Toner Tankstation,Reuse,"Regionaler Betrieb, Sozialverantwortliches Unternehmen, Wiederverwertung","Schellingstraße 48
80799 München ‎ 
http://www.tttankstation.de/",,Appointment not needed,Not child friendly,No Volunteer Opportunities,Anschluss zu öffentlichen Verkehrsmitteln,,,Freier Eintritt,,,Behindertengerecht,,,,,48.151049,11.574529
47557,Flohmarkt an der Theresienwiese,Reuse Shop/Market,"Flohmarkt, Wiederverwertung","Einmal im Jahr zu Beginn des Frühlingsfestes lädt das Münchner Rote Kreuz zum größten Flohmarkt Bayerns auf die Theresienwiese ein. Zu Füßen der Bavaria werden bei gutem Wetter über 2.000 Aussteller und 20.000 Besucher erwartet. Aufgrund der einmaligen Atmosphäre ein Pflichttermin für Aussteller und Flohmarktfans!  
Datum für 2014: Wann: Samstag, 26. April 2014",,Appointment not needed,Kinder erwünscht,No Volunteer Opportunities,Anschluss zu öffentlichen Verkehrsmitteln,,,Freier Eintritt,,,Behindertengerecht,,,,,48.129287,11.550264
47558,Flohmarkt an der Theresienwiese,Reuse Shop/Market,"Flohmarkt, Wiederverwertung","Einmal im Jahr zu Beginn des Frühlingsfestes lädt das Münchner Rote Kreuz zum größten Flohmarkt Bayerns auf die Theresienwiese ein. Zu Füßen der Bavaria werden bei gutem Wetter über 2.000 Aussteller und 20.000 Besucher erwartet. Aufgrund der einmaligen Atmosphäre ein Pflichttermin für Aussteller und Flohmarktfans!  
Datum für 2014: Wann: Samstag, 26. April 2014",,Appointment not needed,Kinder erwünscht,No Volunteer Opportunities,Anschluss zu öffentlichen Verkehrsmitteln,,,Freier Eintritt,,,Behindertengerecht,,,,,48.129287,11.550264
47559,Flohmarkt an der Theresienwiese,Reuse Shop/Market,"Flohmarkt, Wiederverwertung","Einmal im Jahr zu Beginn des Frühlingsfestes lädt das Münchner Rote Kreuz zum größten Flohmarkt Bayerns auf die Theresienwiese ein. Zu Füßen der Bavaria werden bei gutem Wetter über 2.000 Aussteller und 20.000 Besucher erwartet. Aufgrund der einmaligen Atmosphäre ein Pflichttermin für Aussteller und Flohmarktfans!  
Datum für 2014: Wann: Samstag, 26. April 2014",,Appointment not needed,Kinder erwünscht,No Volunteer Opportunities,Anschluss zu öffentlichen Verkehrsmitteln,,,Freier Eintritt,,,Behindertengerecht,,,,,48.128366,11.548226
47560,Flohmarkt an der Theresienwiese,Reuse Shop/Market,"Flohmarkt, Wiederverwertung","Einmal im Jahr zu Beginn des Frühlingsfestes lädt das Münchner Rote Kreuz zum größten Flohmarkt Bayerns auf die Theresienwiese ein. Zu Füßen der Bavaria werden bei gutem Wetter über 2.000 Aussteller und 20.000 Besucher erwartet. Aufgrund der einmaligen Atmosphäre ein Pflichttermin für Aussteller und Flohmarktfans!  
Datum für 2014: Wann: Samstag, 26. April 2014",,Appointment not needed,Kinder erwünscht,No Volunteer Opportunities,Anschluss zu öffentlichen Verkehrsmitteln,,,Freier Eintritt,,,Behindertengerecht,,,,,48.130180,11.549735
47561,Flohmarkt an der Parkaue,Reuse Shop/Market,Flohmarkt,"Auf Schnäppchenjagd können die Münchner jeden Freitag und Samstag auf der Parkharfe - zwischen München-Arena (früher Olympic Spirit) und Werner-von Linde-Halle - gehen. Insgesamt steht für ca. 460 Aussteller ein über 35.000 quadratmetergroßes Gelände zur Verfügung.
Wann: jeden Freitag und Samstag 7.00 bis 16.00 Uhr
When: every Friday and Saturday 7.00-16.00
Besonderer Hinweis: an Feiertagen kein Flohmarkt
!No market on holidays!
Fleemarket with 460 shops",,Appointment not needed,Kinder erwünscht,No Volunteer Opportunities,Anschluss zu öffentlichen Verkehrsmitteln,,,Freier Eintritt,,,Behindertengerecht,,,,,48.175342,11.551187
47680,Second Hand Zsa Zsa,Reuse Shop/Market,"Grünes Geschäft, Regionaler Betrieb, Flohmarkt","Schellingstraße 68
80799 München ‎",,Appointment not needed,Kinder erwünscht,No Volunteer Opportunities,Anschluss zu öffentlichen Verkehrsmitteln,,,Freier Eintritt,,,Behindertengerecht,,,,,48.151962,11.570646
47681,Kleidsam,Reuse Shop/Market,"Flohmarkt, Fair Trade, Sozialverantwortliches Unternehmen","Kontaktdaten:
Kleidsam - Second Hand für  Frauerm
Dachauer Straße 192
80992 München‎ 
http://www.kleidsam-muenchen.de/
sommer@diakonia.de
Tel.: +49 (0)89-12 15 95-0",,Appointment not needed,Not child friendly,No Volunteer Opportunities,Anschluss zu öffentlichen Verkehrsmitteln,,,Freier Eintritt,,,Behindertengerecht,,,,,48.174954,11.524615
47682,ReSales,Reuse Shop/Market,"Flohmarkt, Wiederverwertung, Recycling","Sendlinger Straße 21
80331 München ‎ 
http://www.secondhandandmore.com/",,Appointment not needed,Not child friendly,No Volunteer Opportunities,Anschluss zu öffentlichen Verkehrsmitteln,,,Freier Eintritt,,,Behindertengerecht,,,,,48.134834,11.569571
47683,ReSales,Reuse Shop/Market,Flohmarkt,"Sonnenstraße 2
80331 München ‎",,Appointment not needed,Not child friendly,No Volunteer Opportunities,Anschluss zu öffentlichen Verkehrsmitteln,,,Freier Eintritt,,,Behindertengerecht,,,,,48.138489,11.564657
47684,Gebrauchtwarenhaus Giesing -Wäscherei,Reuse Shop/Market,"Flohmarkt, Sozialverantwortliches Unternehmen, Wiederverwertung, Recycling","Wolfratshauser Straße 350
81479 München",,Appointment not needed,Kinder erwünscht,No Volunteer Opportunities,Anschluss zu öffentlichen Verkehrsmitteln,,,Freier Eintritt,,,Behindertengerecht,,,,,48.063218,11.514748
47685,FlohMarktLaden,Reuse Shop/Market,"Regionaler Betrieb, Flohmarkt, Sozialverantwortliches Unternehmen","Wörthstraße 10
81667 München ‎ 
http://www.flohmarkt-laden.de/",,Appointment not needed,Not child friendly,No Volunteer Opportunities,Anschluss zu öffentlichen Verkehrsmitteln,,,Freier Eintritt,,,Behindertengerecht,,,,,48.130842,11.599120
47686,Alexa's,Reuse Shop/Market,Flohmarkt,"Utzschneiderstraße 10
80469 München ‎ 
http://www.yelp.de/biz/alexas-m%C3%BCnchen",,Appointment not needed,Not child friendly,No Volunteer Opportunities,Anschluss zu öffentlichen Verkehrsmitteln,,,Freier Eintritt,,,Not accessible,,,,,48.133760,11.575879
47687,Second Hand EX DREss und Dirndl,Reuse Shop/Market,Flohmarkt,"Augustenstraße 104
80798 München ‎",,Appointment not needed,Not child friendly,No Volunteer Opportunities,Not accessible by public transport,,,Freier Eintritt,,,Not accessible,,,,,48.152660,11.565864
52608,Luxusbaba,Reuse Shop/Market,Flohmarkt,"Kontaktdaten:
Luxusbaba
Ligsalzstr. 27
80339 München
http://www.luxusbaba.de/",,Appointment not needed,Not child friendly,No Volunteer Opportunities,Not accessible by public transport,,,Freier Eintritt,,,Not accessible,,,,,48.135306,11.542726
47577,Monopteros,Scenic Vista,"Wald/Naturpark, Herbstliche Blätterpracht, Reizvolle Aussicht",Wunderbare Skyline von München.,,Appointment not needed,Kinder erwünscht,No Volunteer Opportunities,Anschluss zu öffentlichen Verkehrsmitteln,,,Freier Eintritt,,,Not accessible,,,,,48.149651,11.591613
51622,Umweltinstitut München e.V.,Scientific Research Site,"Öko-Rechtsorganisation, Wissenschaftliche Forschungsanstalt","Kontaktdaten:
Verein zur Erforschung und Verminderung der Umweltbelastung
Landwehrstr. 64 a
80336 München
http://www.umweltinstitut.org/
info@umweltinstitut.org
Tel.: (089) 30 77 49-0
Fax: (089) 30 77 49-20",,Appointment not needed,Not child friendly,No Volunteer Opportunities,Not accessible by public transport,,,Freier Eintritt,,,Not accessible,,,,,48.136752,11.554549
51879,Hochschule und Nachhaltigkeit Bayern,Scientific Research Site,Wissenschaftliche Forschungsanstalt,"Kontaktdaten:
Hochschule und Nachhaltigkeit Bayern
Hochschule München
Ansprechpartnerin: Lara Lütke-Spatz
Lothstr. 34
D-80335 München
http://www.nachhaltigehochschule.de/
info@nachhaltigehochschule.de",,Appointment not needed,Not child friendly,No Volunteer Opportunities,Not accessible by public transport,,,Freier Eintritt,,,Not accessible,,,,,48.153218,11.552191
52814,Bayerisches Altlastenkataster,Scientific Research Site,"Online Recherche, Wissenschaftliche Forschungsanstalt","Kontaktdaten:
Bayerisches Altlastenkataster
Referat für Gesundheit und Umwelt
Bayerstraße 28a
80335 München
http://www.lfu.bayern.de/altlasten/altlastenkataster/index.htm
rgu@muenchen.de
Tel.: 089 233-96300
Fax: 089 233-47305",,Appointment not needed,Not child friendly,No Volunteer Opportunities,Not accessible by public transport,,,Freier Eintritt,,,Not accessible,,,,,48.139409,11.552618
53129,Forschungsinstitut für Wärmeschutz München,Scientific Research Site,Wissenschaftliche Forschungsanstalt,"Kontaktdaten:
Forschungsinstitut für Wärmeschutz München
Lochhamer Schlag 4
82166 Gräfelfing
Postfach 15 25
82157 Gräfelfing
www.fiw-muenchen.de
info@fiw-muenchen.de
Tel.: +49 (0)89 858 00 20
Fax: +49 (0)89 588 00 40",,Appointment not needed,Not child friendly,No Volunteer Opportunities,Not accessible by public transport,,,Freier Eintritt,,,Not accessible,,,,,48.123211,11.451069
47964,Trägerkreis EineWeltHaus München e.V.,Significant Organization/Agency,"Kulturstätte, Signifikante Organisation/Dienststelle","Kontaktdaten:
Trägerkreis EineWeltHaus München e.V.
Schwanthalerstr. 80 RGB
80336 München 
http://www.einewelthaus.de/
geschaeftsstelle@einewelthaus.de 
Tel: +49 (0) 89-85637510
Fax: 089-85637512",,Appointment not needed,Not child friendly,No Volunteer Opportunities,Not accessible by public transport,,,Freier Eintritt,,,Not accessible,,,,,48.137730,11.552449
50838,IHK für München und Oberbayern,Significant Organization/Agency,Signifikante Organisation/Dienststelle,"Kontaktdaten:
IHK für München und Oberbayern
Balanstraße 55-59
81541 München
https://www.muenchen.ihk.de
ihkmail@muenchen.ihk.de
Tel.: +49 (0)89 5116-0
Tel.: +49 (0)89 5116-1306",,Appointment not needed,Not child friendly,No Volunteer Opportunities,Not accessible by public transport,,,Freier Eintritt,,,Not accessible,,,,,48.122685,11.598730
50839,Handwerkskammer für München und Oberbayern,Significant Organization/Agency,Signifikante Organisation/Dienststelle,"Kontaktdaten:
Handwerkskammer für München und Oberbayern
Hausanschrift:
Max-Joseph-Straße 4
80333 München
Postanschrift:
Postfach 34 01 38
80098 München
http://www.hwk-muenchen.de/
info@hwk-muenchen.de
Tel.: +49 (0)89 5119-0
Fax: +49 (0)89 5119-295",,Appointment not needed,Not child friendly,No Volunteer Opportunities,Not accessible by public transport,,,Freier Eintritt,,,Not accessible,,,,,48.143272,11.570380
50971,Deutsche Gesellschaft für die Vereinten Nationen,Significant Organization/Agency,"Öko-Rechtsorganisation, Signifikante Organisation/Dienststelle","Kontaktdaten:
Deutsche Gesellschaft für die Vereinten Nationen
Landesverband Bayern e.V.
Wilhelm-Mayr-Str. 33
D-80689 München
http://www.dgvn-bayern.de/
Telefon/Fax: +49 (89) 4365-0823",,Appointment not needed,Not child friendly,No Volunteer Opportunities,Not accessible by public transport,,,Freier Eintritt,,,Not accessible,,,,,48.138736,11.482344
50972,EarthLink e.V. – The People & Nature Network,Significant Organization/Agency,Signifikante Organisation/Dienststelle,"Kontaktdaten:
EarthLink e.V. – The People & Nature Network
Frohschammerstr.14
D-80807 München
http://www.earthlink.de
info@earthlink.de
Tel: +49-89-3565 2102
Fax: +49-89-3565 2106",,Appointment not needed,Not child friendly,No Volunteer Opportunities,Not accessible by public transport,,,Freier Eintritt,,,Not accessible,,,,,48.178997,11.568823
50973,Germanwatch e.V. Regionalgruppe München,Significant Organization/Agency,Signifikante Organisation/Dienststelle,"Germanwatch engagiert sich für Nord-Süd-Gerechtigkeit und den Erhalt der Lebensgrundlagen. Im Zentrum der Aktivitäten stehen Politik und Wirtschaft des Nordens. Die Weltmarktstrukturen und der ressourcenintensive Wirtschaftsstil des Nordens beeinflussen das Leben der Menschen weltweit. Wir setzen uns für Rahmenbedingungen ein, die auch den Menschen im Süden eine Zukunft geben.
Germanwatch e.V.
Regionalgruppe München
Ansprechpartnerin:
Heike Winkler
Rennbahnstraße 111
81929 München",,Appointment not needed,Not child friendly,No Volunteer Opportunities,Not accessible by public transport,+49(0)89-43088601,heike.winkler@einfachgutessen.de,Freier Eintritt,,http://germanwatch.org/muenchen.htm,Not accessible,Rennbahnstraße 111,München,,81929,48.145945,11.658922
50974,Münchner Friedensbündnis,Significant Organization/Agency,Signifikante Organisation/Dienststelle,"Kontaktdaten:
Münchner Friedensbündnis
c/o Friedensbüro e.V.,
Isabellastr. 6,
80798 München
http://www.muenchner-friedensbuendnis.de/
friedensbuero@muenchner-friedensbuendnis.de
Tel.: +49 (0) 892715917",,Appointment not needed,Not child friendly,No Volunteer Opportunities,Not accessible by public transport,,,Freier Eintritt,,,Not accessible,,,,,48.155805,11.570435
50976,Ökumenisches Büro für Frieden und Gerechtigkeit e.V.,Significant Organization/Agency,Signifikante Organisation/Dienststelle,"Kontaktdaten:
Ökumenisches Büro für Frieden und Gerechtigkeit e.V.
Pariser Straße 13
81667 München
http://www.oeku-buero.de/
info@oeku-buero.de
Tel.: +49-(0)89-448 59 45
Fax +49-(0)89-48 76 73",,Appointment not needed,Not child friendly,No Volunteer Opportunities,Not accessible by public transport,,,Freier Eintritt,,,Not accessible,,,,,48.126967,11.597818
50978,UNICEF-Arbeitsgruppe München,Significant Organization/Agency,Signifikante Organisation/Dienststelle,"Kontaktdaten:
UNICEF-Arbeitsgruppe München
Neumarkter Str. 21
81673 München
www.muenchen.unicef.de
info@muenchen.unicef.de
Tel.: +49 (0)89/9505377
Fax: +49 (0)89/9503096 (Fax)",,Appointment not needed,Not child friendly,No Volunteer Opportunities,Not accessible by public transport,,,Freier Eintritt,,,Not accessible,,,,,48.133158,11.620059
51336,Creating Sustainability e.V.,Significant Organization/Agency,Signifikante Organisation/Dienststelle,"Kontaktdaten:
Creating Sustainability e. V.
Zentnerstraße 37
80798 München
www.creating-sustainability.de
kontakt@creating-sustainability.info
Tel.: +49 89 856 795 41
Fax: +49 89 856 795 43",,Appointment not needed,Not child friendly,No Volunteer Opportunities,Not accessible by public transport,,,Freier Eintritt,,,Not accessible,,,,,48.158875,11.564497
51337,Evangelische Stadtakademie München,Significant Organization/Agency,Signifikante Organisation/Dienststelle,"Kontaktdaten:
Evangelische Stadtakademie München
Herzog-Wilhelm-Str. 24
80331 München
http://www.evstadtakademie.de/
info@evstadtakademie.de
Tel.: 089 / 54 90 27-11
Fax: 089 / 54 90 27-15",,Appointment not needed,Not child friendly,No Volunteer Opportunities,Not accessible by public transport,,,Freier Eintritt,,,Not accessible,,,,,48.135443,11.566601
51338,Münchner Klimaherbst,Significant Organization/Agency,Signifikante Organisation/Dienststelle,"Kontaktdaten:
Mona Fuchs
Projektbüro Münchner Klimaherbst
Westendstrasse 89
80339 München
http://www.klimaherbst.de/
mona.fuchs@klimaherbst.de
Tel. 089 / 54 04 53 07
Fax 089 / 76 75 89 56",,Appointment not needed,Not child friendly,No Volunteer Opportunities,Not accessible by public transport,,,Freier Eintritt,,,Not accessible,,,,,48.138102,11.540377
51340,Petra-Kelly-Stiftung,Significant Organization/Agency,Signifikante Organisation/Dienststelle,"Kontaktdaten:
Petra-Kelly-Stiftung
Reichenbachstraße 3a
80469 München
http://www.petrakellystiftung.de/
info@petra-kelly-stiftung.de
Tel.: 089/24 22 67 - 30
Fax: 089/24 22 67 - 47",,Appointment not needed,Not child friendly,No Volunteer Opportunities,Not accessible by public transport,,,Freier Eintritt,,,Not accessible,,,,,48.134124,11.576507
51342,Schweisfurth-Stiftung,Significant Organization/Agency,Signifikante Organisation/Dienststelle,"Kontaktdaten:
Schweisfurth-Stiftung
Rechtsfähige öffentliche Stiftung des bürgerlichen Rechts
Südliches Schloßrondell 1
D-80638 München
http://www.schweisfurth.de/
info@schweisfurth.de
Tel: +49(0)89 / 17 95 95 -0
Fax: +49 (0)89 / 17 95 95 -19",,Appointment not needed,Not child friendly,No Volunteer Opportunities,Not accessible by public transport,,,Freier Eintritt,,,Not accessible,,,,,48.157805,11.509187
51344,Utopia GmbH,Significant Organization/Agency,Signifikante Organisation/Dienststelle,"Kontaktdaten:
Utopia GmbH
Kühbachstr. 11
81543 München
http://www.utopia.de
info@utopia.de
Tel: 089/ 260 241 40
Fax: 089/ 260 241 41",,Appointment not needed,Not child friendly,No Volunteer Opportunities,Not accessible by public transport,,,Freier Eintritt,,,Not accessible,,,,,48.116073,11.572857
51345,Wasserwirtschaftsamt München,Significant Organization/Agency,Signifikante Organisation/Dienststelle,"Kontaktdaten:
Wasserwirtschaftsamt München
Heßstr. 128
80797 München
http://www.wwa-m.bayern.de/
poststelle@wwa-m.bayern.de
Tel.: 089 212 33-03
Fax: 089 212 33-2606",,Appointment not needed,Not child friendly,No Volunteer Opportunities,Not accessible by public transport,,,Freier Eintritt,,,Not accessible,,,,,48.156832,11.554688
51455,Amnesty International,Significant Organization/Agency,Signifikante Organisation/Dienststelle,"Kontaktdaten:
Amnesty International
Bezirk München und Oberbayern
Volkartstr. 76
80636 München
http://www.amnesty-muenchen.de/
kontakt@amnesty-muenchen.de
Tel.: 089 / 16 54 12
Fax: 089 / 16 54 04",,Appointment not needed,Not child friendly,No Volunteer Opportunities,Not accessible by public transport,,,Freier Eintritt,,,Not accessible,,,,,48.158918,11.542645
51880,FIAN Deutschland e.V.,Significant Organization/Agency,Signifikante Organisation/Dienststelle,"Kontaktdaten:
FIAN Deutschland e.V.
FoodFirst Informations- & Aktions-Netzwerk
Ansprechpartner: Arne Klevenhusen
Bruckenfischerstraße 25
81547 München
http://www.fian.de/
fian_muc@gmx.de
Tel: (0049) 089 69381438
Fax: (0049) 02 21 - 70 200 32",,Appointment not needed,Not child friendly,No Volunteer Opportunities,Not accessible by public transport,,,Freier Eintritt,,,Not accessible,,,,,48.095373,11.583597
52842,Fair Handeln Bayern!,Significant Organization/Agency,Signifikante Organisation/Dienststelle,"Kontaktdaten:
Fair Handeln Bayern!
Eine Initiative des
Eine Welt Netzwerk Bayern e.V.
Weiße Gasse 3
86150 Augsburg
http://www.fairhandeln-bayern.de/
www.eineweltnetzwerkbayern.de
info@eineweltnetzwerkbayern.de",,Appointment not needed,Not child friendly,No Volunteer Opportunities,Not accessible by public transport,,,Freier Eintritt,,,Not accessible,,,,,48.367434,10.899704
52840,Skatemap,Skateboard Site,Skateboard,"Kontaktdaten:
POPULÄR
Handcrafted Skateparks
Ostendstraße 82 e
90482 Nürnberg
http://www.skatemap.de/
Tel: +49.(0).911.20.555.99
Fax: +49.(0).911.20.555.97",,Appointment not needed,Not child friendly,No Volunteer Opportunities,Not accessible by public transport,,,Freier Eintritt,,,Not accessible,,,,,48.135993,11.683531
52841,Skatepark Guide,Skateboard Site,Skateboard,"Kontaktdaten:
Skatepark Guide
School of Skateboarding
z.H. Stefan Steltenpohl
Donnerschweer Str. 16
26123 Oldenburg 
http://www.skatepark-guide.de/
info@skatepark-guide.de",,Appointment not needed,Not child friendly,No Volunteer Opportunities,Not accessible by public transport,,,Freier Eintritt,,,Not accessible,,,,,48.135643,11.684679
51736,Olympiapark,Snow Activity Site,Aktivitäten im Schnee,"Kontaktdaten:
Olympiapark München GmbH
Geschäftsführer Ralph Huber
Spiridon-Louis-Ring 21
80809 München
http://www.olympiapark.de/
info@olympiapark.de
Tel. 089/30 67-0
Fax 089/3067-2222",,Appointment not needed,Not child friendly,No Volunteer Opportunities,Not accessible by public transport,,,Freier Eintritt,,,Not accessible,,,,,48.173956,11.546668
47962,Social Entrepreneurship Akademie,Social Enterprise,Gemeinnützige Einrichtung,"„Die Social Entrepreneurship Akademie, die 2010 als Netzwerkorganisation der vier Münchner Hochschulen gegründet wurde, ist zentrale Anlaufstelle für alle, die sich aktiv und kritisch denkend den akuten wirtschaftlichen, sozialen und ökologischen Herausforderungen stellen und geeignete, möglichst innovative Geschäftsmodelle zu deren Lösung entwickeln. Unter dem Leitspruch „Education for societal change“ vermittelt die Akademie innerhalb und außerhalb der akademischen Welt spezifische Kompetenzen zum Themenfeld Social Entrepreneurship und unterstützt soziale Gründungen.“
Kontaktdaten:
Social Entrepreneurship Akademie
Heßstr. 89
80797 München
info@seakademie.de
www.seakademie.de
Tel.: +49 (0)89.2180.6206
Fax: +49 (0)89.2180.17713",,Termin nötig,Not child friendly,No Volunteer Opportunities,Anschluss zu öffentlichen Verkehrsmitteln,,,Freier Eintritt,,,Not accessible,,,,,48.152889,11.560628
47967,Urbanes Wohnen,Social Enterprise,"Sozialverantwortliches Unternehmen, Gemeinnützige Einrichtung","Kontaktdaten
Urbanes Wohnen
Pündterplatz 1
80803 München
www.urbanes-wohnen.de 
Tel. +49 (0)89 - 39 16 97",,Appointment not needed,Not child friendly,No Volunteer Opportunities,Not accessible by public transport,,,Freier Eintritt,,,Not accessible,,,,,48.163059,11.576890
51453,Münchner Tafel e.V.,Social Enterprise,"Flohmarkt, Gemeinnützige Einrichtung","Kontaktdaten:
Münchner Tafel e.V.
Grossmarkthalle Kontorhaus 1,
Zimmer 226
Schäftlarnstr. 10
D-81371 München
http://www.muenchner-tafel.de/
info@muenchner-tafel.de
Tel: 089-29 22 50
Fax: 089-29 14 81",,Appointment not needed,Not child friendly,No Volunteer Opportunities,Not accessible by public transport,,,Freier Eintritt,,,Not accessible,,,,,48.116450,11.556783
51454,Wohnlotse Muenchen,Social Enterprise,"Nicht nachhaltig genutztes Land, Gemeinnützige Einrichtung","Kontaktdaten:
Wohlotse München
Stadtteilarbeit e.V.
Beratungsstelle Wohnen
Aachener Straße 9 - Souterrain
80804 München
http://www.wohnlotse-muenchen.de/
be-wohnen@verein-stadtteilarbeit.de
Tel.: 089 / 35 70 43 - 0
Fax: 080 / 35 70 43 - 29",,Appointment not needed,Not child friendly,No Volunteer Opportunities,Not accessible by public transport,,,Freier Eintritt,,,Not accessible,,,,,48.168790,11.579193
47963,NORD SÜD FORUM München e.V.,Social Service,"Sozialer Dienst, Sozialverantwortliches Unternehmen","Das Nord Süd Forum München e.V. ist Zusammenschluss und Dachverband von ca. 70 entwicklungspolitisch aktiven Gruppen und Vereinen aus dem Münchner Raum. Im Zentrum der Arbeit steht seit der Gründung 1989 die Vernetzung der Initiativen sowie gemeinsame Bildungs- und Öffentlichkeitsarbeit für eine gerechte Eine Welt. Gemäß dem Motto „global denken- lokal handeln“ wirken wir auf eine zukunftsfähige Entwicklung der Münchener Stadtgesellschaft hin. Zu diesem Zweck kooperieren wir auch mit anderen engagierten Gruppen, Vereinen und Institutionen. Wir werden mit einer jährlichen institutionellen Zuwendung von der Landeshauptstadt München – Kulturreferat gefördert.
Kontaktdaten:
NORD SÜD FORUM München e.V.
im EineWeltHaus
Schwanthalerstr. 80
80336 München
http://www.nordsuedforum.de/
info@nordsuedforum.de
Tel.: +49 (0) 89 85 63 75 23
Fax: +49 (0) 89 85 63 75 25",,Appointment not needed,Not child friendly,No Volunteer Opportunities,Not accessible by public transport,,,Freier Eintritt,,,Not accessible,,,,,48.137791,11.550715
50977,Pro REGENWALD e. V.,Social Service,"Öko Klub/Organisation, Sozialer Dienst","Kontaktdaten:
Pro REGENWALD e. V.
Frohschammerstr. 14
80807 München
www.pro-regenwald.de
info@pro-regenwald.de 
Tel.: +49 (0)89-359 8650
Fax: +49 (0)89-359 6622",,Appointment not needed,Not child friendly,No Volunteer Opportunities,Not accessible by public transport,,,Freier Eintritt,,,Not accessible,,,,,48.178907,11.568791
51452,Heimaten e.V.,Social Service,Sozialer Dienst,"Kontaktdaten:
heimaten e.V. – Netz für Chancengerechtigkeit
Hermelinweg 11
81549 München
http://www.heimaten.de/
info@heimaten.de",,Appointment not needed,Not child friendly,No Volunteer Opportunities,Not accessible by public transport,,,Freier Eintritt,,,Not accessible,,,,,48.087146,11.605103
51456,Sozialforum München,Social Service,Sozialer Dienst,"Kontaktdaten:
Sozialforum München
Hans-Peter Gase
Elisabethstraße 28
80796 München
www.m-sf.de
info@m-sf.de
Tel.: 089 / 42 37 67",,Appointment not needed,Not child friendly,No Volunteer Opportunities,Not accessible by public transport,,,Freier Eintritt,,,Not accessible,,,,,48.158979,11.569859
47572,Solaranlage,Solar Energy Site,Solarenergie,Solar energy.,,Appointment not needed,Not child friendly,No Volunteer Opportunities,Not accessible by public transport,,,Freier Eintritt,,,Not accessible,,,,,48.125883,11.501927
47573,Solaranlage,Solar Energy Site,Solarenergie,Solar energy.,,Appointment not needed,Not child friendly,No Volunteer Opportunities,Not accessible by public transport,,,Freier Eintritt,,,Not accessible,,,,,48.140271,11.486564
51273,100.000 Dächer,Solar Energy Site,Solarenergie,"Kontaktdaten:
100.000 Dächer
Sebastian Kiefer
Pettostr. 6
81249 München
http://www.100000daecher.de/
info@100000daecher.de
Tel.: +49 (0) 151 22 294294",,Appointment not needed,Not child friendly,No Volunteer Opportunities,Not accessible by public transport,,,Freier Eintritt,,,Not accessible,,,,,48.180628,11.420293
52837,Solarpark Hadern,Solar Energy Site,Solarenergie,"Wie sind aus der Agenda-21-Bewegung hervorgegangen und engagieren uns für die Energiewende. Unser Beitrag ist u.a. die Organisation von Bürger-Solaranlagen. In München und Umgebung haben wir ca. 40 Projekte auf den Weg gebracht. Mit dem Geld vieler engagierter Bürgerinnen und Bürger konnten PV-Anlagen mit einer Gesamtleistung von ca. 1,3 GW errichtet werden, die jährlich knapp 1,4 Mio. kWh CO2-freien Strom erzeugen.  Siehe auch www.solarpark-muenchen.de
Kontaktdaten:
Solarpark Hadern
c/o: Ingenieurbüro Wolfgang Bauer
Batzerstraße 8
81375 München
http://www.solarpark-muenchen.de/hadern/index.htm
info@solarpark-muenchen.de",,Appointment not needed,Not child friendly,No Volunteer Opportunities,Not accessible by public transport,,,Freier Eintritt,,,Not accessible,,,,,48.121349,11.480294
52853,Landesverband Oberbayern der Deutschen Gesellschaft für Sonnenenergie e.V.,Solar Energy Site,Solarenergie,"Kontaktdaten:
Landesverband Oberbayern der
Deutschen Gesellschaft für Sonnenenergie e.V.
Hildachstraße 7b
81245 München
http://www.dgs-oberbayern.de/
info@dgs-oberbayern.de   
Tel.: +49 (0)162 473 58 98",,Appointment not needed,Not child friendly,No Volunteer Opportunities,Not accessible by public transport,,,Freier Eintritt,,,Not accessible,,,,,48.148150,11.470799
51624,Botanischer Garten München-Nymphenburg,Special Tree,Besondere Baumart,"Kontaktdaten:
Botanischer Garten München-Nymphenburg
Menzinger Straße 65
80638 München
http://www.botmuc.de/
info@botmuc.de
Tel.:  +49 89 17861-316
Fax: +49 89 17861-340",,Appointment not needed,Not child friendly,No Volunteer Opportunities,Not accessible by public transport,,,Freier Eintritt,,,Not accessible,,,,,48.162711,11.500427
51350,Abenteuerspielplatz Maulwurfshausen,Sport Site/Play with Nature,Sport-/Naturspielplatz,"Kontaktdaten:
Abenteuerspielplatz Maulwurfshausen
Bauspielplatz, Spielstadt & Spielhaus
Albert-Schweitzer-Straße 24
81735 München
http://www.maulwurfshausen.de/
maulwurfshausen@kjr-m.de
Tel.: 089 670 11 31
Fax: 089 18 92 27 57",,Appointment not needed,Not child friendly,No Volunteer Opportunities,Not accessible by public transport,,,Freier Eintritt,,,Not accessible,,,,,48.110746,11.646599
51351,Münchner Sportjugend,Sport Site/Play with Nature,Sport-/Naturspielplatz,"Kontaktdaten:
Münchner Sportjugend im BLSV e.V.
Georg-Brauchle-Ring 93
80992 München
http://www.msj.de/
info@msj.de
Tel.: 089 15702-206
Fax: 089 15702-204",,Appointment not needed,Not child friendly,No Volunteer Opportunities,Not accessible by public transport,,,Freier Eintritt,,,Not accessible,,,,,48.175867,11.523521
51352,Naturindianer - Kids,Sport Site/Play with Nature,Sport-/Naturspielplatz,"Kontaktdaten:
naturindianer-kids gUG
Milchstr. 13
81667 München
http://naturindianer-kids.de
service@naturindianer-kids.de
Tel: +49 (0) 89 - 6797 1508
Fax: +49 (0) 89 - 6797 1506",,Appointment not needed,Not child friendly,No Volunteer Opportunities,Not accessible by public transport,,,Freier Eintritt,,,Not accessible,,,,,48.131311,11.596481
51353,Verbund Klettern,Sport Site/Play with Nature,Sport-/Naturspielplatz,"Kontaktdaten:
Trägerverein der Münchner Sektionen für die DAV-Kletteranlage München-Thalkirchen e.V.
Thalkirchner Straße 207
81371 München
http://www.verbundklettern.de/
Tel.: (089) 1894163 -0
Fax: (089) 1894163 - 29",,Appointment not needed,Not child friendly,No Volunteer Opportunities,Not accessible by public transport,,,Freier Eintritt,,,Not accessible,,,,,48.107173,11.545692
52839,Kletter- und Boulderzentren,Sport Site/Play with Nature,Sport-/Naturspielplatz,"Kontaktdaten:
Trägerverein der Münchner Sektionen für die DAV-Kletteranlage München-Thalkirchen e.V.
Claudia Oberbeil 
81371 München
http://www.verbundklettern.de/
service@verbundklettern.de
Tel:	(089) 1894163 - 0
Fax:	(089) 1894163 - 29",,Appointment not needed,Not child friendly,No Volunteer Opportunities,Not accessible by public transport,,,Freier Eintritt,,,Not accessible,,,,,48.107173,11.546094
47580,Frühlingsanlagen,Spring Blossoms,"Wald/Naturpark, Prachtvolle Frühlingsblüten",Frühlingsblumen.,,Appointment not needed,Kinder erwünscht,No Volunteer Opportunities,Anschluss zu öffentlichen Verkehrsmitteln,,,Freier Eintritt,,,Behindertengerecht,,,,,48.125246,11.575477
47701,Die Honigpumpe,Spring Blossoms,"Gemeindegarten, Prachtvolle Frühlingsblüten","Imkerei – Stadthonig – Umweltbildung: Die Honigpumpe ist eine biologisch zertifizierte Imkerei, die Zusammenhänge zwischen Biene, Mensch und Natur vermittelt. Mit unseren Honigen aus verschiedenen Stadtteilen lässt sich München kulinarisch erschmecken. Interessierte Münchner und Besucher der Stadt können bei uns Mitimkern und unseren Münchner Stadthonig verkosten. Bei unseren offenen Seminaren am Bienenstock vermitteln wir, wie und warum sich Bienen in der Stadt wohlfühlen, welche Blüten sie je nach Jahreszeit in der Umgebung anfliegen und erklären die Bedeutung von Bienen für unsere Nahrungsmittel und das Ökosystem überhaupt.
Kontaktdaten:
Die Honigpumpe
Klagenfurter Straße 9
81669 München
http://www.diehonigpumpe.de/
seb@diehonigpumpe.de",,Appointment not needed,Not child friendly,No Volunteer Opportunities,Not accessible by public transport,,,Freier Eintritt,,,Not accessible,,,,,48.112441,11.603968
47575,Volksternwarte - Observatory,Star Gazing Site,"Kinderfreundlicher Ort, Sternenbeobachtung","Kontaktdaten:
Bayerische Volkssternwarte München e.V.
Rosenheimer Str. 145h
81671 München
www.sternwarte-muenchen.de
info@sternwarte-muenchen.de
Tel: (089) 40 62 39
Fax: (089) 49 49 87",,Appointment not needed,Kinder erwünscht,No Volunteer Opportunities,Anschluss zu öffentlichen Verkehrsmitteln,,,Freier Eintritt,,,Not accessible,,,,,48.122312,11.605439
51737,Sternwarte im Deutschen Museum,Star Gazing Site,Sternenbeobachtung,"Kontaktdaten:
Sternwarte im Deutschen Museum
Museumsinsel 1
D-80538 München
http://www.deutsches-museum.de
information@deutsches-museum.de
Tel.: (089) 2179 1
Fax: (089) 2179 324",,Appointment not needed,Not child friendly,No Volunteer Opportunities,Not accessible by public transport,,,Freier Eintritt,,,Not accessible,,,,,48.129939,11.583441
51741,Universitäts-Sternwarte München,Star Gazing Site,Sternenbeobachtung,"Kontaktdaten:
Universitäts-Sternwarte München
Scheinerstr. 1
81679 München
http://www.usm.uni-muenchen.de/
name@usm.uni-muenchen.de
Tel.: +49-89-2180-6001
Fax: +49-89-2180-6003",,Appointment not needed,Not child friendly,No Volunteer Opportunities,Not accessible by public transport,,,Freier Eintritt,,,Not accessible,,,,,48.145988,11.606734
47452,Olympiaberg,Sunrise/Sunset Site,"Wald/Naturpark, Beobachtung von Vögeln & Wildtieren, Nahrungsmittelbeschaffung, Ökologischer Landschaftsbau, Aktivitäten im Schnee, Sonnenaufgang/-untergang",Great place for sunset and sunrise and listening to concerts of the Olympiastadion for free.,,Appointment not needed,Kinder erwünscht,No Volunteer Opportunities,Anschluss zu öffentlichen Verkehrsmitteln,,,Freier Eintritt,,,Not accessible,,,,,48.177782,11.549170
51635,Riemer Park,Swimming,"Schwimmen, Aktivitäten im Schnee","Kontaktdaten:
Riemer Park, München
81829 München
http://www.freizeitabenteuer.de/regional/bayern/193/einrichtung/riemer-p...",,Appointment not needed,Not child friendly,No Volunteer Opportunities,Not accessible by public transport,,,Freier Eintritt,,,Not accessible,,,,,48.126756,11.705139
48712,Bürgerinitiative Mehr Platz zum Leben,Volunteer Site,Ehrenamtliche Arbeit,"Die BI Mehr Platz zum Leben, ein Agenda 21 Projekt, engagiert sich seit 1997 mit zahlreichen Aktionen für die Verbesserung der Lebensqualität in Untergiesing. Die Neugestaltung des Hans-Mielich-Platzes geht im Wesentlichen auf ihren Einsatz zurück, ebenso der Wochenmarkt am Platze und die Mini-Gärten an der Hans -Mielich -Str. und am Candidplatz. Seit 2008 bietet die BI mit dem „Kunstforum HMP“ unterschiedlichsten Künstlern eine Plattform für Kunst im öffentlichen Raum. Am 16.Sept.13 initiierte sie den 1.Poesie-Briefkasten Deutschlands Teil eines zweijährigen Poesieprojektes. Adresse: Poesie-Briefkasten, 81543 München,Hans-Mielich-Platz 2.
Für unser Kunstforum HMP suchen wir immer Aussteller - Anmeldung: mehrplatzzumleben@gmx.de
Mehr unter www.mehrplatzzumleben.de
mfG
Melly Kieweg
Kontaktdaten:
Bürgerinitiative Mehr Platz zum Leben
Hans-Mielich-Str. 12
81543 München
www.mehrplatzzumleben.de
mehrplatzzumleben@gmx.de
Tel.: +49(0)89 21088604",,Appointment not needed,Not child friendly,No Volunteer Opportunities,Not accessible by public transport,,,Freier Eintritt,,,Not accessible,,,,,48.118076,11.573457
48713,Freiwilligen-Agentur Tatendrang München,Volunteer Site,Ehrenamtliche Arbeit,"""Spenden Sie Zeit statt Geld."" Mit diesem Slogan wirbt Deutschlands erste Freiwilligenagentur für Bürgerschaftliches Engagement und fördert damit Solidarität, gesellschaftliche Verantwortung und Zusammenhalt in unserer Stadt. 
Tatendrang berät, vermittelt und unterstützt Menschen, die sich ehrenamtlich engagieren möchten und arbeitet eng mit über 430 Projekten und Initiativen aus dem sozialen, kulturellen und ökologischen Bereich zusammen. Wir haben eigene Projekte in den Bereichen Bildung und Migration initiiert und beraten Unternehmen, die sich engagieren möchten. Tatendrang organisiert alle zwei Jahre den ""Marktplatz Gute Geschäfte München"", ein innovatives Format, um Projekte zwischen gemeinnützigen Organisationen und der Wirtschaft zu ermöglichen. Tatendrang ist ein Projekt des Vereins für Fraueninteressen e.V. und überparteilich sowie konfessionell ungebunden.
Kontaktdaten:
Freiwilligen-Agentur Tatendrang München
Liebherrstraße 5 Rgb.
80538 München
089 45 22 411-0
tatendrang@freiwilligenagentur.de
www.gute-geschaefte-muenchen.de
FACEBOOK: facebook.com/tatendrang.de",,Termin nötig,Not child friendly,No Volunteer Opportunities,Anschluss zu öffentlichen Verkehrsmitteln,,,Freier Eintritt,,,Not accessible,,,,,48.133711,11.585151
51270,FöBE - Projektbüro zur Förderung von Bürgerschaftlichem Engagement,Volunteer Site,Ehrenamtliche Arbeit,"Kontaktdaten:
FöBE – Projektbüro zur Förderung von Bürgerschaftlichem Engagement
Westendstraße 68
80339 München 
http://www.foebe-muenchen.de/
info@foebe-muenchen.de 
Tel: +49 (0)89/532956-33
Fax: +49 (0)89/532956-32",,Appointment not needed,Not child friendly,No Volunteer Opportunities,Not accessible by public transport,,,Freier Eintritt,,,Not accessible,,,,,48.138336,11.540470
51271,Stiftung Gute-Tat.de,Volunteer Site,Ehrenamtliche Arbeit,"Kontaktdaten:
Stiftung Gute-Tat.de - München
Ridlerstraße 31a / 1.Stock
80339 München
http://www.gute-tat.de/
münchen@gute-tat.de
Tel: +49 (0)89/454 75 004",,Appointment not needed,Not child friendly,No Volunteer Opportunities,Not accessible by public transport,,,Freier Eintritt,,,Not accessible,,,,,48.132048,11.535913
51485,Föss e.V.,Volunteer Site,Ehrenamtliche Arbeit,"Kontaktdaten:
Föss e.V.
Verein zur Förderung von Selbsthilfe und Selbstorganisation e.V.
Westendstr. 68
80339 München
http://foess-muenchen.blog.de/",,Appointment not needed,Not child friendly,No Volunteer Opportunities,Not accessible by public transport,,,Freier Eintritt,,,Not accessible,,,,,48.138403,11.540419
47579,Tivoli-Kraftwerk,Water Energy Site,"Wasserenergie, Historisches Merkmal","Das Tivoli-Kraftwerk ist ein denkmalgeschütztes Wasserkraftwerk am Eisbach in München. Es liegt im nördlichen Teil des Englischen Gartens in der Nähe der Gyßlingstraße.
Historic hydroelectric power station.",,Appointment not needed,Not child friendly,No Volunteer Opportunities,Not accessible by public transport,,,Freier Eintritt,,,Not accessible,,,,,48.159380,11.605858
49680,Polarstern GmbH,Water Energy Site,"Wasserenergie, Geothermie/Erdwärme","Wir sind vollkommen unabhängig von allen großen Energiekonzernen. Diese Unabhängigkeit ist uns extrem wichtig. Denn nur so können wir dir ehrliche Ökoenergie verkaufen. Und die globale Energiewende mit ganzer Kraft vorantreiben. Wie das funktioniert? Wir beantworten dir gerne deine Fragen und erklären dir unseren Ansatz. Schreib uns einfach, ruf uns an oder besuch uns in unserem Büro im Zwischenstock des Lindwurmhofs. Und wir freuen uns immer über kulinarische Schmankerl oder eine Topfpflanze.
Kontaktdaten:
Polarstern GmbH
Lindwurmstr. 88
80337 München
https://www.polarstern-energie.de/
info@polarstern-energie.de
Tel.: 004989309042911",,Appointment not needed,Not child friendly,No Volunteer Opportunities,Not accessible by public transport,,,Freier Eintritt,,,Not accessible,,,,,48.124925,11.549144
47451,Surfer's Site at the Eisbach,Water Feature,"Gewässer, Schwimmen",The only urban surfers in Southern Germany.,,Appointment not needed,Not child friendly,No Volunteer Opportunities,Not accessible by public transport,,,Freier Eintritt,,,Not accessible,,,,,48.143325,11.587701
47567,Langwiedersee - Swimming Lake,Waterfront/Riverside Park,"Park in Gewässernähe, Gewässer, Schwimmen, Kultureller Treffpunkt","Im Sommer ein schöner Platz, um einen sonnigen Nachmittag zu verbringen und in einem der beiden Seen zu schwimmen. Es fährt ein extra ""Badebus"" ab Pasing, sobald es warm genug ist. 
A nice, natural lake to swim in hot summers. There's a specical bus you can catch at Pasing, when the wheater is good enough.",,Appointment not needed,Kinder erwünscht,No Volunteer Opportunities,Anschluss zu öffentlichen Verkehrsmitteln,,,Freier Eintritt,,,Not accessible,,,,,48.195761,11.416368
47974,Pasinger Stadtpark,Waterfront/Riverside Park,"Wald/Naturpark, Park in Gewässernähe, Lebensraum für Amphibien, Heimische Wälder/Pflanzen, Prachtvolle Frühlingsblüten, Herbstliche Blätterpracht","Im Münchner Westen liegt der Pasinger Stadtpark, der auch der kleine Bruder des Englischen Gartens genannt wird. Durch den ganzen Park, der 1,5 Kilometer lang ist, fließt die Würm, ein kleiner Bach, der an manchen Stellen zu künstlichen Seen aufgestaut ist. Wiesenflächen und Baumgruppen wechseln sich ab und bieten so eine schöne Naturkulisse. Der Park wird wegen seiner Größe und der Vielzahl an Wegen von vielen Joggern genutzt, und die Spielplätze im Grünen locken Familien an.",,Appointment not needed,Not child friendly,No Volunteer Opportunities,Not accessible by public transport,,,Freier Eintritt,,,Not accessible,,,,,48.133446,11.450872
48175,Café Netzwerk,WiFi Spot,WiFi Spot,"Café Netzwerk
Luisenstraße 11, 80333 München ‎
089 54832700 ‎ · cafe-netzwerk.de",,Appointment not needed,Kinder erwünscht,No Volunteer Opportunities,Anschluss zu öffentlichen Verkehrsmitteln,,,Freier Eintritt,,http://cafe-netzwerk.de/,Not accessible,,,,,48.143046,11.562431
47453,Münchener Tierpark Hellabrunn,Wildlife Center/Zoo,"Grünes Unternehmen, Wildtierpark/Zoo","Kontaktdaten:
Münchener Tierpark Hellabrunn AG
Tierparkstr. 30
D - 81543 München
http://www.hellabrunn.de/
tierpark@hellabrunn.de
Tel: +49(0)89 62508-0
Fax: +49(0)89 62508-32",,Termin nötig,Kinder erwünscht,No Volunteer Opportunities,Anschluss zu öffentlichen Verkehrsmitteln,,,Freier Eintritt,,,Behindertengerecht,,,,,48.099859,11.550930
51628,Umweltgartenverein Neubiberg e.V.,Wildlife Center/Zoo,Wildtierpark/Zoo,"Kontaktdaten:
Umweltgartenverein Neubiberg e.V.
vetreten durch:
Lothar Bruns
Kameterstr. 6
85579 Neubiberg
http://www.umweltgartenverein.de/
freunde@umweltgartenverein.de
Tel.: +49 89 60600926",,Appointment not needed,Not child friendly,No Volunteer Opportunities,Not accessible by public transport,,,Freier Eintritt,,,Not accessible,,,,,48.073240,11.664970
51627,Ismaninger Speichersee,Wildlife Habitat,"Signifikanter Lebensraum, Lebensraum für Wildtiere","Kontaktdaten:
Ismaninger Speichersee bei München
http://www.birdinggermany.de/Ismaninger.htm
info@birdinggermany.de",,Appointment not needed,Not child friendly,No Volunteer Opportunities,Not accessible by public transport,,,Freier Eintritt,,,Not accessible,,,,,48.209389,11.706018
47574,Windkraftwerk,Wind Energy Site,Windenergie,"Wind energy.
http://www.diemuenchner.de/Windkraft_Muenchen.html",,Appointment not needed,Not child friendly,No Volunteer Opportunities,Not accessible by public transport,,,Freier Eintritt,,,Not accessible,,,,,48.216782,11.607499
